name;streetAddress;postalCode;addressLocality;addressRegion;addressCountry;geo_latitude;geo_longitude;url
Honigfrau von Waldenau - Imkerei;Datumer Chaussee 139;25421;Pinneberg;Schleswig-Holstein;Deutschland;53.633062;9.798119;https://hofladen.info/hofladen/honigfrau-von-waldenau-imkerei
Frischmilchautomat im Edeka Groth;Kühlhausberg 7;17235;Neustrelitz;Mecklenburg-Vorpommern;Deutschland;53.347520;13.079745;https://hofladen.info/hofladen/frischmilchautomat-im-edeka-groth
Frischmilchautomat am Famila;F.-Wilhelm-Raiffeisen-Straße 1C;17192;Waren;Mecklenburg-Vorpommern;Deutschland;53.519900;12.715720;https://hofladen.info/hofladen/frischmilchautomat-am-famila
Frischmilchautomat im E-Center Rostock;Rigaer Str. 5;18107;Rostock;Mecklenburg-Vorpommern;Deutschland;54.139210;12.059170;https://hofladen.info/hofladen/frischmilchautomat-im-e-center-rostock
Frischmilchautomat am Edeka Malchow;Stauffenbergstraße 9;17213;Malchow;Mecklenburg-Vorpommern;Deutschland;53.478400;12.424350;https://hofladen.info/hofladen/frischmilchautomat-am-edeka-malchow
Der kleine Hofladen in Alt-Sammit  bei Krakow am See;Lindenstrasse 37 OT ALT-SAMMIT;18292;Krakow am See,OT Alt-Sammit ;Mecklenburg-Vorpommern;Deutschland;53.644563;12.228584;https://hofladen.info/hofladen/der-kleine-hofladen-in-alt-sammit-bei-krakow-am-see
Frischmilchautomat in Marihn;;17217;Marihn;Mecklenburg-Vorpommern;Deutschland;53.520894;12.995850;https://hofladen.info/hofladen/frischmilchautomat-in-marihn
Frischmilchautomat am Globus;Globusring 2;17207;Roggentin;Mecklenburg-Vorpommern;Deutschland;54.075900;12.201830;https://hofladen.info/hofladen/frischmilchautomat-am-globus
Körners Hofladen GbR;Herrgottsruhstr. 4 ;86316 ;Friedberg;Bayern;Deutschland;48.355538;10.985889;https://hofladen.info/hofladen/korners-hofladen-gbr
Erdbeerhof Stegemannshof;Stegemannshof 4;17291;Prenzlau;Brandenburg;Deutschland;53.336267;13.922784;https://hofladen.info/hofladen/erdbeerhof-stegemannshof
Essig Schneider;Am Bahnhof 2;01774;Klingenberg;Sachsen;Deutschland;50.922694;13.500690;https://hofladen.info/hofladen/essig-schneider-3
Hofladen der Landfrauen in Leezen;Schlossstr. 4d;19067 ;Leezen;Mecklenburg-Vorpommern;Deutschland;53.660985;11.498766;https://hofladen.info/hofladen/hofladen-der-landfrauen-in-leezen
Diet's Honigscheune;Neuschönburger Straße 10b;8132;Mülsen;Sachsen;Deutschland;50.708357;12.624207;https://hofladen.info/hofladen/diet-s-honigscheune-imkerei-dieter-scharf
Der Blaue Schrank ;Bahnhofstr. 46;99830;Falken;Thüringen;Deutschland;51.114486;10.261551;https://hofladen.info/hofladen/der-blaue-schrank
Hofladen Früchtenicht;Völkerser Landstraße 45;27299;Langwedel;Niedersachsen;Deutschland;53.003907;9.231112;https://hofladen.info/hofladen/hofladen-fruchtenicht
Mauch Wolfgang;Gebersheimer str.5;71254;Ditzingen - Schöckingen;Baden-Württemberg;Deutschland;48.843778;9.029039;https://hofladen.info/hofladen/mauch-wolfgang
Hof Dehlfing;Nienburger Str. 68;49453;Rehden;Niedersachsen;Deutschland;52.609237;8.490361;https://hofladen.info/hofladen/hof-dehlfing
Hofladen Backensholz;Schwabstedter Damm 10;25885;Oster-Ohrstedt;Schleswig-Holstein;Deutschland;54.498840;9.277374;https://hofladen.info/hofladen/hofladen-backensholz
Landgut Nemt;Am Wachtelberg 18;4808;Wurzen;Sachsen;Deutschland;51.351640;12.733780;https://hofladen.info/hofladen/landgut-nemt
Obsthof Matthies ;Am Elbdeich 31 ;21635;Jork;Niedersachsen;Deutschland;53.544780;9.675420;https://hofladen.info/hofladen/obsthof-matthies
Allgäu GUSTO;Schochenhof 28;87724;Ottobeuren;Bayern;Deutschland;47.920499;10.350594;https://hofladen.info/hofladen/allgau-gusto
Hofladen Gut Temmen;Lindenallee 3;17268;Temmen;Brandenburg;Deutschland;53.095640;13.754280;https://hofladen.info/hofladen/hofladen-gut-temmen
Klostergut auf dem Altstadtmarkt;Altstadtmarkt 1;38100;Braunschweig;Niedersachsen;Deutschland;52.262550;10.517870;https://hofladen.info/hofladen/klostergut-auf-dem-altstadtmarkt
Weihersmühle;Weihersweg 27;97650;Fladungen;Bayern;Deutschland;50.524478;10.124708;https://hofladen.info/hofladen/weihersmuhle
Biohof Lecker;Niederheining 1;83410;Laufen;Bayern;Deutschland;47.907880;12.941430;https://hofladen.info/hofladen/biohof-lecker
Eichhälderhof Lädle GbR;Eichhälderhof 1;75203;Königsbach-Stein;Baden-Württemberg;Deutschland;48.980549;8.595723;https://hofladen.info/hofladen/eichhalderhof-ladle-gbr
Ziegenhof Gülzer Geißen auf dem Wochenmakt in Boizenburg;Am Markt Wochenmarktplatz;19258;Boizenburg / Elbe;Mecklenburg-Vorpommern;Deutschland;53.374740;10.723150;https://hofladen.info/hofladen/ziegenhof-gulzer-gei%C3%9Fen-auf-dem-wochenmakt-in-boizenburg
Honigmanufaktur Spatzenhof;Spatzenhof 28;71543;Wüstenrot;Baden-Württemberg;Deutschland;49.093165;9.456871;https://hofladen.info/hofladen/honigmanufaktur-spatzenhof-2
Ziegenhof Peter;Niedertopfstedter Str. 1;99718;Greußen;Thüringen;Deutschland;51.233510;10.955410;https://hofladen.info/hofladen/ziegenhof-peter
Senn´s Hoflädele;Lausheim 14;88356;Ostrach;Baden-Württemberg;Deutschland;47.965314;9.309057;https://hofladen.info/hofladen/senn%C2%B4s-hofladele
Hartmut Trautvetter;Dorfstr. 2 2;39345;Wedringen;Sachsen-Anhalt;Deutschland;52.276110;11.466252;https://hofladen.info/hofladen/hartmut-trautvetter
NLB-Quellmalz;Papitzer Straße 81;04435;Schkeuditz;Sachsen;Deutschland;51.397942;12.248139;https://hofladen.info/hofladen/nlb-quellmalz
Klostergut Heiningen;Gutshof 1 Klostergut Heiningen;38312;Heiningen;Niedersachsen;Deutschland;52.072560;10.555830;https://hofladen.info/hofladen/klostergut-heiningen
Spreewaldhof Niewitz;Dorfstr. 112;15910;Bersteland;Brandenburg;Deutschland;51.937867;13.782631;https://hofladen.info/hofladen/spreewaldhof-niewitz
Frischmilchautomat im Edeka Zöllick;Hermannstraße 30;18055;Rostock;Mecklenburg-Vorpommern;Deutschland;54.082950;12.135150;https://hofladen.info/hofladen/frischmilchautomat-im-edeka-zollick
Obsthof Lefers;Osterjork 140 ;21635;Jork;Niedersachsen;Deutschland;53.525950;9.705940;https://hofladen.info/hofladen/obsthof-lefers
Reimehof - Der Ziegenhof in der Hersbrucker Alb;Wallsdorf 1;91241;Kirchensittenbach;Bayern;Deutschland;49.604500;11.440950;https://hofladen.info/hofladen/reimehof-der-ziegenhof-in-der-hersbrucker-alb
Biohof Klügel;Deubener Weg 30;01705;Freital;Sachsen;Deutschland;50.997018;13.615762;https://hofladen.info/hofladen/biohof-klugel
Hof Voigts;Große Straße 81;27313;Dörverden;Niedersachsen;Deutschland;52.853316;9.236074;https://hofladen.info/hofladen/hof-voigts
Klostergut auf dem  Markt;Westfalenplatz 13 Ostreihe auf dem Freitagsmarkt;38108;Braunschweig;Niedersachsen;Deutschland;52.290520;10.556140;https://hofladen.info/hofladen/klostergut-auf-dem-markt
Obsthof Lindicke;Am Plessower Eck 1;14542;Werder;Brandenburg;Deutschland;52.380240;12.868130;https://hofladen.info/hofladen/obsthof-lindicke
Hirschles Biohof;Schönewaldstraße 4;34326;Morschen;Hessen;Deutschland;51.084343;9.632499;https://hofladen.info/hofladen/hirschles-biohof
Imkerei Honigbüchse;Alter Grenzweg 19;29614;Soltau;Niedersachsen;Deutschland;52.976666;9.828950;https://hofladen.info/hofladen/imkerei-honigbuchse
Bienenprodukte Versand;Westerberg 3;83550;Emmering;Bayern;Deutschland;47.991877;12.045061;https://hofladen.info/hofladen/bienenprodukte-versand
Dithmarscher Gänsemarkt;Hauptstraße 1;25693;Gudendorf;Schleswig-Holstein;Deutschland;54.018667;9.111539;https://hofladen.info/hofladen/dithmarscher-gansemarkt
Gut Bergfeld;Am Hof 1 Gut Bergfeld;17237;Bergfeld;Mecklenburg-Vorpommern;Deutschland;53.352550;13.279970;https://hofladen.info/hofladen/gut-bergfeld
Das tapfere Bäuerlein ;Bahnhofstrasse 8;37293 ;Herleshausen;Hessen;Deutschland;51.005904;10.163410;https://hofladen.info/hofladen/das-tapfere-bauerlein
SoLaWi Hofladen;Weberstraße 37;28203;Bremen;Niedersachsen;Deutschland;53.071759;8.821789;https://hofladen.info/hofladen/solawi-hofladen
Haußler Hinterespig;Hinterespig 5;74629;Pfedelbach;Baden-Württemberg;Deutschland;49.152290;9.519790;https://hofladen.info/hofladen/hau%C3%9Fler-hinterespig
Hof Blohme;Hagener Str. 3;27299;Langwedel;Niedersachsen;Deutschland;52.980262;9.113882;https://hofladen.info/hofladen/hof-blohme
Kaplan's Hoflädele ;Bachhaupten 100;88356;Ostrach;Baden-Württemberg;Deutschland;47.979821;9.434219;https://hofladen.info/hofladen/kaplan-s-hofladele
Bernhard Kerkmann;Endelner Weg 205;46286;Dorsten;Nordrhein-Westfalen;Deutschland;51.751410;6.971030;https://hofladen.info/hofladen/bernhard-kerkmann
Hofladen Biohof Braun;14 Hohbergstraße;71665;Vaihingen Enz;Baden-Württemberg;Deutschland;48.916322;8.935109;https://hofladen.info/hofladen/hofladen-biohof-braun
Angela Jöst;Abtsteinacher Str. 12;69488;Birkenau;Hessen;Deutschland;49.546174;8.760239;https://hofladen.info/hofladen/angela-jost
Hofladen Weixdorf;Pastor-Roller-Str. 42;01108;Dresden;Sachsen;Deutschland;51.151500;13.800414;https://hofladen.info/hofladen/hofladen-weixdorf
Biohof Böse-Hartje;Groß Eißel 26;27321;Thedinghausen;Niedersachsen;Deutschland;52.979690;9.009140;https://hofladen.info/hofladen/biohof-bose-hartje
Gabis Gemüsestodl;Großreuther Straße 103;90425 ;Nürnberg;Bayern;Deutschland;49.474988;11.084336;https://hofladen.info/hofladen/gabis-gemusestodl
"Obst-& Gemüsehof  ""Teltower Rübchen"" Beate & Axel Szilleweit";Ruhlsdorfer Str. 87 A Ecke Schenkendorfer Weg;14513;Teltow;Brandenburg;Deutschland;52.388448;13.264086;https://hofladen.info/hofladen/obst-gemusehof-teltower-rubchen-beate-axel-szilleweit
Imkerei T. Brand;Kramerstr. 23;74626;Bretzfeld-Bitzfeld;Baden-Württemberg;Deutschland;49.186453;9.450892;https://hofladen.info/hofladen/imkerei-t-brand
Spargelhof Ketelaars;Ervelensteg 106;47574;Goch;Nordrhein-Westfalen;Deutschland;51.621950;6.099440;https://hofladen.info/hofladen/spargelhof-ketelaars
Ökohof Engler;Serwester Dorfstraße 72;16230;Chorin;Brandenburg;Deutschland;52.929189;13.925075;https://hofladen.info/hofladen/okohof-engler
Dettelbach Obst Liggeringen;Dettelbachstraße;78315;Radolfzell;Baden-Württemberg;Deutschland;47.784269;9.018917;https://hofladen.info/hofladen/dettelbach-obst-liggeringen
Klaus und Sacha Marquardt;Biegelspfad 1 direkt neben dem Fürstengrabhügel;71735;Eberdingen;Baden-Württemberg;Deutschland;48.887972;9.008181;https://hofladen.info/hofladen/klaus-und-sacha-marquardt
Ziegenhof Gülzer Geißen auf dem Wochenmakt in Dannenberg;Am Markt Wochenmarktplatz;29451 ;Dannenberg;Niedersachsen;Deutschland;53.098800;11.095990;https://hofladen.info/hofladen/ziegenhof-gulzer-gei%C3%9Fen-auf-dem-wochenmakt-in-dannenberg
Heidefelder Bio - SB Laden;An der Kuhtrift 1;52388;Nörvenich-Oberbolheim;Nordrhein-Westfalen;Deutschland;50.813880;6.656964;https://hofladen.info/hofladen/heidefelder-bio-sb-laden
Spargelhof Buchholz;Röddenser Dorfstr. 4;31275;Lehrte;Niedersachsen;Deutschland;52.416120;9.980210;https://hofladen.info/hofladen/spargelhof-buchholz
Uwe Wendt;Königsbrücker StR.69 69;01917;Kamenz;Sachsen;Deutschland;51.275098;14.079914;https://hofladen.info/hofladen/uwe-wendt
Hühnerhof Steuden ;Neue Straße 3 ;6179;Teutschenthal;Sachsen-Anhalt;Deutschland;51.417740;11.767490;https://hofladen.info/hofladen/huhnerhof-steuden
Auleber Obstmanufaktur ;Gneisenaustr. 20 ;39393;Hötensleben;Sachsen-Anhalt;Deutschland;52.122660;11.017510;https://hofladen.info/hofladen/auleber-obstmanufaktur
Landbauernhof Hohreute;Hohreutehof 83;88696;Owingen;Baden-Württemberg;Deutschland;47.814218;9.173031;https://hofladen.info/hofladen/landbauernhof-hohreute
Brockenbauer Thielecke ;Schierker Weg 13 ;38875;Tanne;Sachsen-Anhalt;Deutschland;51.698874;10.716382;https://hofladen.info/hofladen/brockenbauer-thielecke
S´Milch-Häusle Langenbeutingen;Lindenhof 1 (Im Stegle);74243;Langenbrettach;Baden-Württemberg;Deutschland;49.218470;9.414935;https://hofladen.info/hofladen/s%C2%B4milch-hausle-langenbeutingen
Ziegenhof Zickzack;Max-Planckstr. 25;53881;Euskirchen;Nordrhein-Westfalen;Deutschland;50.608057;6.845559;https://hofladen.info/hofladen/ziegenhof-zickzack
Gärtnerei & Hofladen Langenwolschendorf;Am Schafteich 7;7937;Langenwolschendorf;Thüringen;Deutschland;50.640674;11.967196;https://hofladen.info/hofladen/gartnerei-hofladen-langenwolschendorf-2
Nonies Hof;Heidäckersiedlung 4;74924;Neckarbischofsheim;Baden-Württemberg;Deutschland;49.306300;8.972670;https://hofladen.info/hofladen/nonies-hof
Gut Tornow;Tornower Straße 24;16866;Wusterhausen;Brandenburg;Deutschland;52.956322;12.506369;https://hofladen.info/hofladen/gut-tornow
Eekenhof;Flachsweg 40;26316;Varel;Niedersachsen;Deutschland;53.373730;8.140330;https://hofladen.info/hofladen/eekenhof
Stephan's Hofladen ;Kleiner Waldsee 1;39217 ;Schönebeck;Sachsen-Anhalt;Deutschland;52.063195;11.802628;https://hofladen.info/hofladen/stephan-s-hofladen
Steinhäußers Hofladen;Haager Str.16;74653;Künzelsau;Baden-Württemberg;Deutschland;49.257466;9.687688;https://hofladen.info/hofladen/steinhau%C3%9Fers-hofladen
Spargelhof Koenen;Heideweg 11;47623;Kevelaer;Nordrhein-Westfalen;Deutschland;51.582270;6.228457;https://hofladen.info/hofladen/spargelhof-koenen
Kartoffellandhof - Siethen;Ebereschenallee 4;14974 ;Ludwigsfelde ;Brandenburg;Deutschland;52.283243;13.212601;https://hofladen.info/hofladen/kartoffellandhof-siethen
Agrarhof Gospersgrün;Schulstr. 1;8427;Fraureuth;Sachsen;Deutschland;50.680913;12.363245;https://hofladen.info/hofladen/agrarhof-gospersgrun
Hofmetzgerei Müller;An der Zeiße 16;86695;Nordendorf;Bayern;Deutschland;48.584372;10.822757;https://hofladen.info/hofladen/hofmetzgerei-muller
Erdbeer & Spargelland Lienau;Dorfstr. 21;29336;Nienhagen;Niedersachsen;Deutschland;52.552992;10.111944;https://hofladen.info/hofladen/erdbeer-spargelland-lienau
Hofladen Meßthaler Obererlbach;Juchhöhweg 15 Meßthaler;91729;Haundorf;Bayern;Deutschland;49.183889;10.823988;https://hofladen.info/hofladen/hofladen-me%C3%9Fthaler-obererlbach
Mühle-Lemke-Hofladen;Mühlenstraße 7;15378;Hennickendorf;Brandenburg;Deutschland;52.514079;13.851933;https://hofladen.info/hofladen/muhle-lemke-hofladen
Spargelhof Andermann;Poststraße 6;31626;Haßbergen;Niedersachsen;Deutschland;52.731950;9.231870;https://hofladen.info/hofladen/spargelhof-andermann
Ernte mich;Großpösnaer Straße 71;4288;Leipzig;Sachsen;Deutschland;51.277258;12.479925;https://hofladen.info/hofladen/ernte-mich
Wildmanufaktur;Schulstrasse 1a;19399;Dobbertin;Mecklenburg-Vorpommern;Deutschland;53.622560;12.072730;https://hofladen.info/hofladen/wildmanufaktur
Hof Beuke;Dorfstr. 55;27239;Twistringen;Niedersachsen;Deutschland;52.792788;8.621030;https://hofladen.info/hofladen/hof-beuke
Hof Windhorst;Holter Strasse 41;31613;Wietzen;Niedersachsen;Deutschland;52.690928;9.057812;https://hofladen.info/hofladen/hof-windhorst
Bioland-Imkerei Lahres;Am Gutshof 3;15345;Garzau-Garzin;Brandenburg;Deutschland;52.534382;13.944537;https://hofladen.info/hofladen/bioland-imkerei-lahres
Täler-Straußenfarm Hellborn;Hellborn 29;07646;Renthendorf;Thüringen;Deutschland;50.814064;11.872508;https://hofladen.info/hofladen/taler-strau%C3%9Fenfarm-hellborn
Weingut Borth;Unterheimbacher Str. 35;74626;Bretzfeld;Baden-Württemberg;Deutschland;49.163680;9.451323;https://hofladen.info/hofladen/weingut-borth
Lunser Landlädchen;Kirchweg 1;27321;Thedinghausen;Niedersachsen;Deutschland;52.968010;9.046830;https://hofladen.info/hofladen/lunser-landladchen
Gärtnerei Hagedorn;Hohe Straße 12;17255;Wesenberg;Mecklenburg-Vorpommern;Deutschland;53.280908;12.969501;https://hofladen.info/hofladen/gartnerei-hagedorn
Hofladen Dottenfelderhof;Dottenfelder Hof Bad Vilbel;61118 ;Bad Vilbel;Hessen;Deutschland;50.193024;8.753672;https://hofladen.info/hofladen/hofladen-dottenfelderhof
CHRISTHOF - Das Milchhäusle;Weipertshofer Straße;74597;Stimpfach;Baden-Württemberg;Deutschland;49.051584;10.140009;https://hofladen.info/hofladen/christhof-das-milchhausle
Hamfelder Hof;Dorfstraße 35;21493;Mühlenrade;Schleswig-Holstein;Deutschland;53.599217;10.488505;https://hofladen.info/hofladen/hamfelder-hof
Fläming Wildhandel Gmbh Griebsch&Griebsch;Bardenitzer Dorfstraße 56;14929;Treuenbrietzen;Brandenburg;Deutschland;52.075260;12.942830;https://hofladen.info/hofladen/flaming-wildhandel-gmbh-griebsch-griebsch
Heimatladen Niederrhein;Jakob-Funke-Str. 1;45127;Essen;Nordrhein-Westfalen;Deutschland;51.460945;7.004834;https://hofladen.info/hofladen/heimatladen-niederrhein
Hofladen am Westerwald ;Ershäuserstraße 10;37308;Schimberg;Thüringen;Deutschland;51.285030;10.180178;https://hofladen.info/hofladen/hofladen-am-westerwald
Straussenfarm Klein Rosenburg ;Mittelstraße 24 ;39240;Barby;Sachsen-Anhalt;Deutschland;51.927250;11.889530;https://hofladen.info/hofladen/straussenfarm-klein-rosenburg
Erlebnishof Lahmann;Burgdorfer Str. 26;31303;Burgdorf;Niedersachsen;Deutschland;52.482850;10.009160;https://hofladen.info/hofladen/erlebnishof-lahmann
Ziegenhof Schleckweda;Elsterweg 4;06722;Wetterzeube;Sachsen-Anhalt;Deutschland;51.009840;12.023410;https://hofladen.info/hofladen/ziegenhof-schleckweda
Sulpacher Hofladen Gertrud Harigel ;Rosswälderstr 10 ;73061 ;Ebersbach ;Baden-Württemberg;Deutschland;48.705216;9.523905;https://hofladen.info/hofladen/sulpacher-hofladen-gertrud-harigel
Hof Rudnick;Schmolte 10;49406;Drentwede;Niedersachsen;Deutschland;52.726590;8.555290;https://hofladen.info/hofladen/hof-rudnick
Husmanns Obstgärten;Sulinger Strasse 13;27246;Borstel;Niedersachsen;Deutschland;52.670147;8.969011;https://hofladen.info/hofladen/husmanns-obstgarten
Nonies Hof Hofladen;Heidäckersiedlung 4;74924;Neckarbischofsheim ;Baden-Württemberg;Deutschland;49.306300;8.972670;https://hofladen.info/hofladen/nonies-hof-hofladen
Mecklenburger Frische;Neubaustr. 11;18276;Gülzow-Prüzen;Mecklenburg-Vorpommern;Deutschland;53.738360;12.009576;https://hofladen.info/hofladen/mecklenburger-frische
Kuhnweiler Hof Laden;Kuhnweiler 3;71577;Großerlach;Baden-Württemberg;Deutschland;49.073729;9.502219;https://hofladen.info/hofladen/kuhnweiler-hof-laden
Kurz Bauernhof;Rechentshofer Str. 24;74343;Sachsenheim;Baden-Württemberg;Deutschland;48.992920;9.024789;https://hofladen.info/hofladen/kurz-bauernhof
Erdbeerhof Nüstedt;Döhren 3;27211;Bassum;Niedersachsen;Deutschland;52.895404;8.729861;https://hofladen.info/hofladen/erdbeerhof-nustedt
Spessarthof;Gasse 10a;97773;Aura;Bayern;Deutschland;50.179110;9.572960;https://hofladen.info/hofladen/spessarthof
Heilbronner- Land-Honig Adolf Fritz;Eschenbachstr.24;74078;Heilbronn;Baden-Württemberg;Deutschland;49.190620;9.144400;https://hofladen.info/hofladen/heilbronner-land-honig-adolf-fritz
Frische Automat David´s Biohof;Waldemarstr. 52;18057;Rostock;Mecklenburg-Vorpommern;Deutschland;54.088054;12.113476;https://hofladen.info/hofladen/frische-automat-david%C2%B4s-biohof
Feldwieser Hof;Schulstr.60;73441;Bopfingen-Oberdorf;Baden-Württemberg;Deutschland;48.874830;10.349810;https://hofladen.info/hofladen/feldwieser-hof
Imker Thomas Kalb;Neuer Friedhofweg 14;69151;Neckargemünd;Baden-Württemberg;Deutschland;49.376580;8.771310;https://hofladen.info/hofladen/imker-thomas-kalb
Völkleswaldhof;Völkleswaldweg 5;74420;Oberrot;Baden-Württemberg;Deutschland;49.006810;9.695280;https://hofladen.info/hofladen/volkleswaldhof
Täler Straussenfarm;Hellborn 29;07646;Renthendorf;Thüringen;Deutschland;50.814862;11.867233;https://hofladen.info/hofladen/taler-straussenfarm
Bauernhof und Käserei Blankenfelde;Blankenfelder Dorfstraße 20;15827;Blankenfelde-Mahlow;Brandenburg;Deutschland;52.329057;13.393544;https://hofladen.info/hofladen/bauernhof-und-kaserei-blankenfelde
Schlohs Spargelhof;Viehweg 7;27367;Hellwege;Niedersachsen;Deutschland;53.074460;9.239720;https://hofladen.info/hofladen/schlohs-spargelhof
Wohlenberger Sanddornhofladen;An der Chausse 15;23948;Wohlenberg;Mecklenburg-Vorpommern;Deutschland;53.940630;11.239490;https://hofladen.info/hofladen/wohlenberger-sanddornhofladen
Oberländer Schafskäsemanufaktur;Struth 20;07570;Harth-Pöllnitz;Sachsen;Deutschland;50.777560;11.951762;https://hofladen.info/hofladen/oberlander-schafskasemanufaktur
A&N Geflügelhof ;Sorgwohlder Weg 6;24791;Alt Duvenstedt ;Schleswig-Holstein;Deutschland;54.351400;9.573588;https://hofladen.info/hofladen/a-n-geflugelhof-2
Mosel-Weinversand;Müller Thurgau Straße 15;54536;Kröv;Rheinland-Pfalz;Deutschland;49.980356;7.084921;https://hofladen.info/hofladen/mosel-weinversand
SLädele;Eschendorfer Str. 16;88348;Bad Saulgau;Baden-Württemberg;Deutschland;47.998919;9.435376;https://hofladen.info/hofladen/sladele
Hof große Beilage;Auf der Beilage 2;49632;Essen (Oldenburg);Niedersachsen;Deutschland;52.708340;7.956270;https://hofladen.info/hofladen/hof-gro%C3%9Fe-beilage
Oderbruch Hof;Rathstocker Str. 6;15328;Alt Tucheband;Brandenburg;Deutschland;52.537160;14.513660;https://hofladen.info/hofladen/oderbruch-hof
Herrmanns Hof ;Dorfstr. 22 ;06184;Kabelsketal;Sachsen-Anhalt;Deutschland;51.417739;12.145561;https://hofladen.info/hofladen/herrmanns-hof
Imkerei Tietjen;Schulstrasse 6;27419 ;Klein Meckelsen;Niedersachsen;Deutschland;53.305801;9.451901;https://hofladen.info/hofladen/imkerei-tietjen
Pauls Spargel;Genholter Straße 30;41379;Brüggen;Nordrhein-Westfalen;Deutschland;51.258992;6.190120;https://hofladen.info/hofladen/pauls-spargel
Honigmeisterei;Gartenstr. 13;78136;Schonach;Baden-Württemberg;Deutschland;48.140177;8.214982;https://hofladen.info/hofladen/honigmeisterei
Bühlertal Alpakas GbR ;Geifertshofer Str. 19 19;74426;Bühlerzell;Baden-Württemberg;Deutschland;49.002686;9.915206;https://hofladen.info/hofladen/buhlertal-alpakas-gbr
Forellenparadies Weinberger;Frohnfalls 51;74535;Mainhardt;Baden-Württemberg;Deutschland;49.126214;9.552006;https://hofladen.info/hofladen/forellenparadies-weinberger
Claus-Dieter Wejlupek;Blumenlage 32;29683;Bad Fallingbostel;Niedersachsen;Deutschland;52.878520;9.702839;https://hofladen.info/hofladen/claus-dieter-wejlupek
HOF DÖRKES;Stadtfeld 45 St.Hubert-Vösch;47906;Kempen;Nordrhein-Westfalen;Deutschland;51.387804;6.418591;https://hofladen.info/hofladen/hof-dorkes
Paulbauernhof;Gausburg 47;83416;Saaldorf-Surheim;Bayern;Deutschland;47.892710;12.945100;https://hofladen.info/hofladen/paulbauernhof
Däuber´s Hof;Langenburger Str. 2;74542;Braunsbach;Baden-Württemberg;Deutschland;49.220910;9.795140;https://hofladen.info/hofladen/dauber%C2%B4s-hof
Talhof;Talhof 1;89522;Heidenheim;Baden-Württemberg;Deutschland;48.671860;10.131610;https://hofladen.info/hofladen/talhof
Allgäu Hof Müller;Am Floschen 2;88410;Bad Wurzach;Baden-Württemberg;Deutschland;47.873240;9.955160;https://hofladen.info/hofladen/allgau-hof-muller
Eierhüttle;Obermaibach;74535;Mainhardt;Baden-Württemberg;Deutschland;49.078054;9.557513;https://hofladen.info/hofladen/eierhuttle
Erlebnis-Bauernhof Kliewe;Mursewiek 1;18569;Ummanz;Mecklenburg-Vorpommern;Deutschland;54.447990;13.184650;https://hofladen.info/hofladen/erlebnis-bauernhof-kliewe
Hofgut Kapellenhof;Auf dem alten Hof 1;63546;Hammersbach;Hessen;Deutschland;50.230160;8.948960;https://hofladen.info/hofladen/hofgut-kapellenhof
Spargelhof Allofs;Broecksteg 5;47608;Geldern;Nordrhein-Westfalen;Deutschland;51.504230;6.234570;https://hofladen.info/hofladen/spargelhof-allofs
Biohof Moll;Haunswieser Str. 9;86444;Affing;Bayern;Deutschland;48.461985;10.985805;https://hofladen.info/hofladen/biohof-moll
Spargelhof Niemann;Hauptstraße 7;29578;Eimke;Niedersachsen;Deutschland;52.941924;10.319269;https://hofladen.info/hofladen/spargelhof-niemann
Dorfschäferei Palmzin;Chausseestrasse 03;18334;Semlow;Mecklenburg-Vorpommern;Deutschland;54.180990;12.624370;https://hofladen.info/hofladen/dorfschaferei-palmzin
Jahnkes Ziegenkäse;See-Ender-Str. 6 ;24966;Sörup;Schleswig-Holstein;Deutschland;54.705650;9.634700;https://hofladen.info/hofladen/jahnkes-ziegenkase
Garlipp-Spargel ;Schelldorfer Dorfstr. 43 ;39517;Tangerhütte;Sachsen-Anhalt;Deutschland;52.474140;11.980210;https://hofladen.info/hofladen/garlipp-spargel
Bornwiesenhof;Hußweilerstraße 40;55767;Wilzenberg-Hußweiler;Rheinland-Pfalz;Deutschland;49.701750;7.227790;https://hofladen.info/hofladen/bornwiesenhof
Obstbau & Brennerei Ickert;Neuensteiner Steige 5;74613;Öhringen;Baden-Württemberg;Deutschland;49.178046;9.556580;https://hofladen.info/hofladen/obstbau-brennerei-ickert
Steinbecker Hofladen;Dorfstraße 10;23948;Steinbeck;Mecklenburg-Vorpommern;Deutschland;53.996950;11.139390;https://hofladen.info/hofladen/steinbecker-hofladen
Hof Nuttelmann;Sarninghausen 3;31595;Steyerberg;Niedersachsen;Deutschland;52.569350;8.997290;https://hofladen.info/hofladen/hof-nuttelmann
Straussenfarm Hegau-Bodensee;Airach 3 ;78333;Stockach;Baden-Württemberg;Deutschland;47.845420;9.037100;https://hofladen.info/hofladen/straussenfarm-hegau-bodensee
Spargelhof Janßen;Maasstraße ;47608;Geldern;Nordrhein-Westfalen;Deutschland;51.491546;6.228114;https://hofladen.info/hofladen/spargelhof-jan%C3%9Fen
Altenweddinger Geflügelhof;Breite Straße 45;39171;Sülzetal;Sachsen-Anhalt;Deutschland;51.993748;11.534116;https://hofladen.info/hofladen/altenweddinger-geflugelhof
Selbsterntefeld Gut Vockrath;Gut Vockrath  (Vockrather Weg);41472;Neuss;Nordrhein-Westfalen;Deutschland;51.153024;6.639175;https://hofladen.info/hofladen/selbsterntefeld-gut-vockrath
Alpakahof am Iserberg;Dorfstraße 10;23936;Hamberge;Mecklenburg-Vorpommern;Deutschland;53.874270;11.237830;https://hofladen.info/hofladen/alpakahof-am-iserberg
Gutshof Kraatz;Schloßstraße 7;17291;Nordwestuckermark;Brandenburg;Deutschland;53.390344;13.666446;https://hofladen.info/hofladen/gutshof-kraatz
Hofladen Jopp;Im Kornfeld 9;71696;Möglingen;Baden-Württemberg;Deutschland;48.867730;9.136200;https://hofladen.info/hofladen/hofladen-jopp
Schloß Föhren;Hofstrasse 27;54343 ;Föhren;Rheinland-Pfalz;Deutschland;49.861210;6.766830;https://hofladen.info/hofladen/schlo%C3%9F-fohren
Magdeburger Pilz-Markt;Paul-Ecke-Straße 10;39114;Magdeburg;Sachsen-Anhalt;Deutschland;52.128272;11.675210;https://hofladen.info/hofladen/magdeburger-pilz-markt
Direktvermarktung Siegfried Hoffmann;Im Dorfe 26a;99441;Kiliansroda;Thüringen;Deutschland;50.916020;11.371220;https://hofladen.info/hofladen/direktvermarktung-siegfried-hoffmann
Glinder Ziegenhof ;Dorfstraße 80 ;39249;Glinde;Sachsen-Anhalt;Deutschland;52.009070;11.848790;https://hofladen.info/hofladen/glinder-ziegenhof
Spreewälder Bauernladen;Ringchaussee 30;03096;Burg;Brandenburg;Deutschland;51.848001;14.103305;https://hofladen.info/hofladen/spreewalder-bauernladen
Neuenhof;Niederdorfer-Str. 85;47638;Straelen;Nordrhein-Westfalen;Deutschland;51.381766;6.221779;https://hofladen.info/hofladen/neuenhof
Becker´s Hofladen;Amtmännerwiesen Gewann 5;76199;Karlruhe;Baden-Württemberg;Deutschland;48.964444;8.389167;https://hofladen.info/hofladen/becker%C2%B4s-hofladen
Landmarkt Wey;Wey 64 (direkt am Kreisverkehr);41363;Jüchen;Nordrhein-Westfalen;Deutschland;51.134413;6.503584;https://hofladen.info/hofladen/landmarkt-wey
Bauers Brotzeit;Bundesstraße 49;97941;Distelhausen;Baden-Württemberg;Deutschland;49.598247;9.692843;https://hofladen.info/hofladen/bauers-brotzeit
Forellenhof Themar;Steinlache 4;98660;Themar;Thüringen;Deutschland;50.491431;10.632444;https://hofladen.info/hofladen/forellenhof-themar
BERGSDORFER WIESENRIND;Liebenberger Weg 12c;16792;Zehdenick;Brandenburg;Deutschland;52.922229;13.255241;https://hofladen.info/hofladen/bergsdorfer-wiesenrind
Rügener Inselfrische;Poseritz Hof 15;18574;Poseritz;Mecklenburg-Vorpommern;Deutschland;54.304771;13.272809;https://hofladen.info/hofladen/rugener-inselfrische-2
Hoflädle Ochsental;Mäusberger Str. 13;74673;Mulfingen;Baden-Württemberg;Deutschland;49.347830;9.834070;https://hofladen.info/hofladen/hofladle-ochsental
Hofladen Rote Rübe;Kirchweg 1;34260;Niederkaufungen;Hessen;Deutschland;51.285430;9.601900;https://hofladen.info/hofladen/hofladen-rote-rube
Waldhof Bruchmühle;Bruchmühle 1;17213;Fünfseen;Mecklenburg-Vorpommern;Deutschland;53.440210;12.389040;https://hofladen.info/hofladen/waldhof-bruchmuhle
Hofladen Luisenhof;Luisenhof 29;75038;Oberderdingen;Baden-Württemberg;Deutschland;49.107002;8.782158;https://hofladen.info/hofladen/hofladen-luisenhof
Hof Huxhardt;Huxhardt 1;58579;Schalksmühle;Nordrhein-Westfalen;Deutschland;51.254640;7.508230;https://hofladen.info/hofladen/hof-huxhardt
Gut Wulksfelde;Wulksfelder Damm 15-17;22889;Tangstedt;Niedersachsen;Deutschland;53.717814;10.111642;https://hofladen.info/hofladen/gut-wulksfelde
Gut Schmerwitz - Hofladen;Schmerwitz 8;14827;Wiesenburg;Brandenburg;Deutschland;52.139904;12.482903;https://hofladen.info/hofladen/gut-schmerwitz-hofladen
Agrarprodukte Struppen GmbH;Hohe Strasse 8;01796 ;Struppen;Sachsen;Deutschland;50.933066;14.017377;https://hofladen.info/hofladen/agrarprodukte-struppen-gmbh
Frischehof Döpke;Friesoyther Str. 1;49681;Garrel;Niedersachsen;Deutschland;52.885329;8.015192;https://hofladen.info/hofladen/frischehof-dopke
Spargelhof Thiermann;Scharringhausen 23;27245;Kirchdorf;Niedersachsen;Deutschland;52.588828;8.805433;https://hofladen.info/hofladen/spargelhof-thiermann
Erdbeer-& Spargelhof Böser;Kurze Allee 1;76694/Baden;Forst;Baden-Württemberg;Deutschland;49.141286;8.576110;https://hofladen.info/hofladen/erdbeer-spargelhof-boser
Hainich Hofladen;An der Leuba 118;9322;Penig;Sachsen;Deutschland;50.970190;12.678700;https://hofladen.info/hofladen/hainich-hofladen
Hof Wichmann;Röllinghauser Str. 10;27211;Bassum;Niedersachsen;Deutschland;52.865310;8.780950;https://hofladen.info/hofladen/hof-wichmann
Landkost Hofladen;Motzener Straße 111;15741;Bestensee;Brandenburg;Deutschland;52.224192;13.610114;https://hofladen.info/hofladen/landkost-hofladen
Hofladen Austermann;Neuwarendorf 24;48231;Warendorf;Nordrhein-Westfalen;Deutschland;51.958720;7.948890;https://hofladen.info/hofladen/hofladen-austermann
Hof Neuheim;Neuheim 2;24376;Kappeln;Schleswig-Holstein;Deutschland;54.683220;9.914620;https://hofladen.info/hofladen/hof-neuheim
Kösterhof;Hermann-Ehlers-Str. 8;26160; Bad Zwischenahn;Niedersachsen;Deutschland;53.167930;8.147210;https://hofladen.info/hofladen/kosterhof
Kornblume;Regenbacher Weg 5;74653;Künzelsau - Laßbach;Baden-Württemberg;Deutschland;49.265390;9.810030;https://hofladen.info/hofladen/kornblume
Milchschafhof Jauernik;Am Steg 1;74626;Bretzfeld;Baden-Württemberg;Deutschland;49.202520;9.430850;https://hofladen.info/hofladen/milchschafhof-jauernik
Demeter Gärtnerei Sannmann;Ochsenwerder Norderdeich 50;21037;Hamburg;Hamburg;Deutschland;53.478580;10.095600;https://hofladen.info/hofladen/demeter-gartnerei-sannmann
Gemüsewerkstatt Grünschnabel;Schenkstraße 37 OT Cobstädt;99869;Drei Gleichen;Thüringen;Deutschland;50.922450;10.835930;https://hofladen.info/hofladen/gemusewerkstatt-grunschnabel
Hildinger Honig;Schwarzbronn 11;97993;Creglingen;Baden-Württemberg;Deutschland;49.471439;10.029969;https://hofladen.info/hofladen/hildinger-honig
Spargelhof Kalkofen;Cobbeler Mühlenstr. 4;39517;Tangerhütte;Sachsen-Anhalt;Deutschland;52.395233;11.862356;https://hofladen.info/hofladen/spargelhof-kalkofen
Obsthof Ramdohr;Hollernstr. 156;21723;Hollern-Twielenfleth;Niedersachsen;Deutschland;53.602760;9.529760;https://hofladen.info/hofladen/obsthof-ramdohr
Spargelhof Siethen;Siethener Dorfstraße 13;14974;Siethen;Brandenburg;Deutschland;52.283470;13.209450;https://hofladen.info/hofladen/spargelhof-siethen
Langenburger Schafkäserei;Breberweg 2;74595;Langenburg;Baden-Württemberg;Deutschland;49.241670;9.861280;https://hofladen.info/hofladen/langenburger-schafkaserei
Milchtankstelle Familie Bäumlisberger;Erlin 5;74545;Michelfeld;Baden-Württemberg;Deutschland;49.105890;9.656340;https://hofladen.info/hofladen/milchtankstelle-familie-baumlisberger
Spargelhof Elsholz;Bahnhofsweg 2a;14547;Beelitz;Brandenburg;Deutschland;52.204491;12.952337;https://hofladen.info/hofladen/spargelhof-elsholz
Geflügelhof Ludwig;Kleinhegnach 18;71336;Waiblingen;Baden-Württemberg;Deutschland;48.846227;9.305434;https://hofladen.info/hofladen/geflugelhof-ludwig
Imkerei Mader;Hauptstrasse 65;78315;Radolfzell;Baden-Württemberg;Deutschland;47.783798;8.972409;https://hofladen.info/hofladen/imkerei-mader
Schafhaltung Küthe;Mühlchenstraße 7;57078;Siegen;Nordrhein-Westfalen;Deutschland;50.933160;7.947200;https://hofladen.info/hofladen/schafhaltung-kuthe
Spargelhof Schoofs;Brüxkener Straße 26;47638;Straelen;Nordrhein-Westfalen;Deutschland;51.401300;6.250185;https://hofladen.info/hofladen/spargelhof-schoofs
Mannschreck Weine Vinomat 24/7 (Weinautomat);Hauptstraße 80;71384;Weinstadt ;Baden-Württemberg;Deutschland;48.785050;9.364758;https://hofladen.info/hofladen/mannschreck-weine-vinomat-24-7-weinautomat
Fischerei Alt-Schwerin;Wendorf 4;17214;Alt Schwerin;Mecklenburg-Vorpommern;Deutschland;53.496290;12.332170;https://hofladen.info/hofladen/fischerei-alt-schwerin
Straupitzer Mühlenshop;Laasower Str.11a;15913;Straupitz;Brandenburg;Deutschland;51.915871;14.127036;https://hofladen.info/hofladen/straupitzer-muhlenshop
Daxlberg;Daxlberg 1;83083;Riedering;Bayern;Deutschland;47.840120;12.217480;https://hofladen.info/hofladen/daxlberg
Steinkrögers Hofladen;Nordfeldweg 32;33659;Bielefeld;Nordrhein-Westfalen;Deutschland;51.963506;8.511991;https://hofladen.info/hofladen/steinkrogers-hofladen
Wendenborsteler Hofladen;Clausberg 2;31634;Steimbke;Niedersachsen;Deutschland;52.646445;9.435591;https://hofladen.info/hofladen/wendenborsteler-hofladen
Meyer's Hof;Burgdorfer Str. 38;31303;Burgdorf;Niedersachsen;Deutschland;52.485300;10.008560;https://hofladen.info/hofladen/meyer-s-hof
Beerenhof Lohse;Rodewalder Straße 36;29690;Gilten;Niedersachsen;Deutschland;52.702927;9.545635;https://hofladen.info/hofladen/beerenhof-lohse
Kirchhof;An der Kirche 6;36211;Alheim;Hessen;Deutschland;51.025880;9.635410;https://hofladen.info/hofladen/kirchhof
Bauernhof Steffen Kühne;Altomsewitz 2;1157;Dresden;Sachsen;Deutschland;51.057931;13.660733;https://hofladen.info/hofladen/bauernhof-steffen-kuhne
 Bubenorbiser Dorfladen;Dorfmitte 7;74535;Mainhardt;Baden-Württemberg;Deutschland;49.084710;9.612530;https://hofladen.info/hofladen/bubenorbiser-dorfladen
Nußlocher Ziegenkäsehof;;69226;Nußloch;Baden-Württemberg;Deutschland;49.317460;8.703350;https://hofladen.info/hofladen/nu%C3%9Flocher-ziegenkasehof
Forellenzucht Hoch-Spessart;;97840;Erlenfurt;Bayern;Deutschland;49.945600;9.478170;https://hofladen.info/hofladen/forellenzucht-hoch-spessart
Huxhardter Milchhäusel am Stöcken;Stöcken 1;58339;Breckerfeld;Nordrhein-Westfalen;Deutschland;51.260390;7.506750;https://hofladen.info/hofladen/huxhardter-milchhausel-am-stocken
Bergkäserei Bierssenhof;Wienackerstraße 25;33184;Altenbeken;Nordrhein-Westfalen;Deutschland;51.755400;8.936430;https://hofladen.info/hofladen/bergkaserei-bierssenhof
Heitlinger Geflügelhof;Im Zitterich 8;75031;Eppingen - Rohrbach;Baden-Württemberg;Deutschland;49.130372;8.854335;https://hofladen.info/hofladen/heitlinger-geflugelhof
Scheeper Phil;Wenddorf 11;23749;Grube i.H.;Schleswig-Holstein;Deutschland;54.234559;11.037657;https://hofladen.info/hofladen/scheeper-phil
homemade;Karstedtshofer Straße 2;16909;Wittstock;Brandenburg;Deutschland;53.099543;12.465955;https://hofladen.info/hofladen/homemade
Eschenhof;Bärenbergstraße 1;34466;Altenhasungen;Hessen;Deutschland;51.342670;9.223420;https://hofladen.info/hofladen/eschenhof
Hofladen Imkerei Brauße;Blankenseer Dorfstraße 2;14959;Blankensee;Brandenburg;Deutschland;52.238769;13.126969;https://hofladen.info/hofladen/hofladen-imkerei-brau%C3%9Fe
Frischmilchautomat Van der Ham;Feldstraße 2;17207;Bollewick;Mecklenburg-Vorpommern;Deutschland;53.358670;12.582100;https://hofladen.info/hofladen/frischmilchautomat-van-der-ham
Sanddorn-Storchennest;Friedrich-Naumann-Allee 26;19288;Ludwigslust;Mecklenburg-Vorpommern;Deutschland;53.327520;11.488920;https://hofladen.info/hofladen/sanddorn-storchennest
Krewelshof Eifel;Krewelshof 1;53894;Mechernich;Nordrhein-Westfalen;Deutschland;50.641824;6.697666;https://hofladen.info/hofladen/krewelshof-eifel
Chilli Manufaktur Lüneburger Heide;Dannhorn 5a;29614;Soltau;Niedersachsen;Deutschland;52.957316;9.819601;https://hofladen.info/hofladen/chilli-manufaktur-luneburger-heide
Hof Schröder;Donnerstedter Dorfstr. 2;27321;Thedinghausen;Niedersachsen;Deutschland;52.964285;8.973801;https://hofladen.info/hofladen/hof-schroder
Bauernhof Burkart;Hauptstraße 7;74544;Michelbach an der Bilz;Baden-Württemberg;Deutschland;49.084940;9.752360;https://hofladen.info/hofladen/bauernhof-burkart
Bredemeier Bauernlädchen;Borsteler Strasse 1 ;31749;Auetal;Niedersachsen;Deutschland;52.231840;9.184670;https://hofladen.info/hofladen/bredemeier-bauernladchen
Kolvenbacher Ziegenhof;Konradgasse 1;53902;Bad Münstereifel;Nordrhein-Westfalen;Deutschland;50.532950;6.750760;https://hofladen.info/hofladen/kolvenbacher-ziegenhof
Obsthof Wenz;Obsthof 1 Gewann Rotebusch;76327;Pfinztal;Baden-Württemberg;Deutschland;48.985233;8.527893;https://hofladen.info/hofladen/obsthof-wenz
Biohof Ottilie;Ort 19 ;21720;Mittelnkirchen;Niedersachsen;Deutschland;53.560390;9.610800;https://hofladen.info/hofladen/biohof-ottilie
Obstparadies Schuback ;Westerjork 81 ;21635;Jork;Niedersachsen;Deutschland;53.536650;9.663160;https://hofladen.info/hofladen/obstparadies-schuback
Gut Gadewitz;Gadewitz Nr. 10;4720;Großweitzschen;Sachsen;Deutschland;51.159156;13.136410;https://hofladen.info/hofladen/gut-gadewitz
Hofkäserei;Dürrnast 17;74535;Mainhardt;Baden-Württemberg;Deutschland;49.111540;9.571810;https://hofladen.info/hofladen/hofkaserei
Schöngarten;Schöngartenstrasse, 16;88131;Lindau;Bayern;Deutschland;47.561410;9.687040;https://hofladen.info/hofladen/schongarten
Hof Sülldorf;Salzblütenweg 18;39171;Sülldorf;Sachsen-Anhalt;Deutschland;52.025550;11.563146;https://hofladen.info/hofladen/hof-sulldorf
Spargelhof Kisters;Kevelaerer Str. 6;47608;Geldern;Nordrhein-Westfalen;Deutschland;51.498682;6.243799;https://hofladen.info/hofladen/spargelhof-kisters
Hof Engelhardt Ökokiste;Schönenberg 2;74547;Untermünkheim;Baden-Württemberg;Deutschland;49.167867;9.760184;https://hofladen.info/hofladen/hof-engelhardt-okokiste
Hof Sonnenberg;Hof Sonnenberg;63619;Bad Orb;Hessen;Deutschland;50.241880;9.327050;https://hofladen.info/hofladen/hof-sonnenberg
BERGHOF;Im Langenborn 8;63825;Schöllkrippen;Bayern;Deutschland;50.079000;9.240680;https://hofladen.info/hofladen/berghof
Loth Hof Laden;Biberweg 1;82541;Münsing;Bayern;Deutschland;47.904050;11.376010;https://hofladen.info/hofladen/loth-hof-laden
Zürkers Hofladen & Hofschänke;Neustadter Str. 14;67373;Dudenhofen;Rheinland-Pfalz;Deutschland;49.317161;8.389695;https://hofladen.info/hofladen/zurkers-hofladen-hofschanke
Gut Rosengarten;Rosengarten 9A;18574;Garz;Mecklenburg-Vorpommern;Deutschland;54.307480;13.382400;https://hofladen.info/hofladen/gut-rosengarten
Rainer Audehm;Dorfstraße 14;29643;Neuenkirchen-Tewel;Niedersachsen;Deutschland;53.066375;9.663100;https://hofladen.info/hofladen/rainer-audehm
Wild- und Wurstdelikatessen aus Franken;An der Steige 7;97892;Kreuzwertheim;Bayern;Deutschland;49.768010;9.517100;https://hofladen.info/hofladen/wild-und-wurstdelikatessen-aus-franken
Sommers Hofladen;Hölderlinstr. 9;74257;Untereisesheim;Baden-Württemberg;Deutschland;49.208862;9.197167;https://hofladen.info/hofladen/sommers-hofladen
Hofladen Gut Rothenhausen;Gut Rothenhausen 6;23860;Groß Schenkenberg;Schleswig-Holstein;Deutschland;53.805220;10.600070;https://hofladen.info/hofladen/hofladen-gut-rothenhausen
Syringhof;Trebbiner Straße 69f;14547;Beelitz;Brandenburg;Deutschland;52.215990;13.060020;https://hofladen.info/hofladen/syringhof
Hof Sophienlust;Hof Sophienlust;24241;Schierensee;Schleswig-Holstein;Deutschland;54.250340;9.996300;https://hofladen.info/hofladen/hof-sophienlust
Direktvermarktung Gebhardt - Fisch - Fleisch - Forellenzucht;Schafgasse 9 Fisch - Fleisch - Forellenzucht;99820;Hörselberg-Hainich;Thüringen;Deutschland;50.944574;10.478939;https://hofladen.info/hofladen/direktvermarktung-gebhardt-fisch-fleisch-forellenzucht
Biohof Jacobi;Mühlentor 28;34434;Borgentreich - Körbecke;Nordrhein-Westfalen;Deutschland;51.535410;9.284390;https://hofladen.info/hofladen/biohof-jacobi
Hofladen Imkerii Söte Deern;Mitteldeich 1;25845;Nordstrand;Schleswig-Holstein;Deutschland;54.503140;8.816190;https://hofladen.info/hofladen/hofladen-imkerii-sote-deern
Tenkhoff;Dattelner Straße 84;59399;Olfen;Nordrhein-Westfalen;Deutschland;51.682750;7.358720;https://hofladen.info/hofladen/tenkhoff
Naturhof Kevelaer;Altwettener-Weg 12;47625;Kevelaer;Nordrhein-Westfalen;Deutschland;51.582060;6.299348;https://hofladen.info/hofladen/naturhof-kevelaer
Brunnenhof Bio-Geflügel;Hohe Straße 25;74653;Künzelsau;Baden-Württemberg;Deutschland;49.272957;9.778433;https://hofladen.info/hofladen/brunnenhof-bio-geflugel
Holzers Hofladen;Kirchheimer Str. 87;73269;Hochdorf;Baden-Württemberg;Deutschland;48.690280;9.457840;https://hofladen.info/hofladen/holzers-hofladen
Hemme Milch;Heideweg 4;16278;Angermünde;Brandenburg;Deutschland;52.988040;13.955660;https://hofladen.info/hofladen/hemme-milch
Hof Holste;Ortende 5;27327;Martfeld;Niedersachsen;Deutschland;52.873784;9.072148;https://hofladen.info/hofladen/hof-holste
Schultzens Siedlerhof;Karl-Liebknecht-Straße 17;14542;Werder (Havel);Brandenburg;Deutschland;52.348176;12.883078;https://hofladen.info/hofladen/schultzens-siedlerhof
Der kleine Hofladen ;Jeebener Dorfstr. 268 ;38489;Beetzendorf;Sachsen-Anhalt;Deutschland;52.681319;11.089884;https://hofladen.info/hofladen/der-kleine-hofladen
Früchtehof Schindler;Warpe 21;27333;Warpe;Niedersachsen;Deutschland;52.735900;9.110730;https://hofladen.info/hofladen/fruchtehof-schindler
Bioland-Hof Kleincomburg GbR;Kleincomburger Weg 50;74523;Schwäbisch Hall;Baden-Württemberg;Deutschland;49.096678;9.749572;https://hofladen.info/hofladen/bioland-hof-kleincomburg-gbr
Fisch Hofladen Kressepark;Motzstr. 8;99094;Erfurt;Thüringen;Deutschland;50.961731;11.014991;https://hofladen.info/hofladen/fisch-hofladen-kressepark
Frischmilchautomat im Rewe;Röbeler Straße 45;16909;Wittstock;Brandenburg;Deutschland;53.170940;12.497520;https://hofladen.info/hofladen/frischmilchautomat-im-rewe
Düsselauenhonig Jeremias Bruker;Unter den Eichen 31;40625;Düsseldorf;Nordrhein-Westfalen;Deutschland;51.232923;6.857636;https://hofladen.info/hofladen/dusselauenhonig-jeremias-bruker
Erlenbacher Ölmühle;Hogäcker 1;74235;Erlenbach;Baden-Württemberg;Deutschland;49.165319;9.262198;https://hofladen.info/hofladen/erlenbacher-olmuhle
Weide-Eier Pflugfelder;Im Kornfeld 13;71696;Möglingen;Baden-Württemberg;Deutschland;48.869190;9.126750;https://hofladen.info/hofladen/weide-eier-pflugfelder
Ziegenhof Gülzer Geißen;Am Gülzer Wald 10;19273;Teldau;Mecklenburg-Vorpommern;Deutschland;53.353970;10.810670;https://hofladen.info/hofladen/ziegenhof-gulzer-gei%C3%9Fen
Hofladen Reinstorf;Hauptstraße 9;23992;Zurow;Mecklenburg-Vorpommern;Deutschland;53.847741;11.640754;https://hofladen.info/hofladen/hofladen-reinstorf
Vierfelderhof;Groß-Glienicker Weg 30;14089;Berlin;Berlin;Deutschland;52.482808;13.171991;https://hofladen.info/hofladen/vierfelderhof
Straußenhof Striegistal;Mühlstraße 16;9661;Striegistal;Sachsen;Deutschland;50.996468;13.173885;https://hofladen.info/hofladen/strau%C3%9Fenhof-striegistal
Spargelhof Meyer;Dorfstraße 46;31592;Stolzenau;Niedersachsen;Deutschland;52.520720;9.056910;https://hofladen.info/hofladen/spargelhof-meyer
Spargel- und Erdbeerhof Nuttelmann;Sarninghausen 3;31595;Steyerberg;Niedersachsen;Deutschland;52.569350;8.997290;https://hofladen.info/hofladen/spargel-und-erdbeerhof-nuttelmann
Spargelhof Giese;Blumenweg 5;16230;Sydower Fließ;Brandenburg;Deutschland;52.707654;13.721401;https://hofladen.info/hofladen/spargelhof-giese
Straussenland Nedlitz;Am Bahnhof 10a,;39291;Nedlitz;Sachsen-Anhalt;Deutschland;52.140690;11.838590;https://hofladen.info/hofladen/straussenland-nedlitz
Blumenstock;Eichwasen 1;74599;Wallhausen - Roßbürg;Baden-Württemberg;Deutschland;49.231591;10.083663;https://hofladen.info/hofladen/blumenstock
Neumanns Erntegarten;Am Heineberg 2;14469;Potsdam;Brandenburg;Deutschland;52.433099;12.993364;https://hofladen.info/hofladen/neumanns-erntegarten
Hofladen Frank GbR;Steinbacher Weg 35;74653;Künzelsau;Baden-Württemberg;Deutschland;49.287300;9.709260;https://hofladen.info/hofladen/hofladen-frank-gbr
Spargelhof Strampe;Lüneburger Landstr. 1 a;21398;Neetze;Niedersachsen;Deutschland;53.264790;10.623445;https://hofladen.info/hofladen/spargelhof-strampe
Herbst-Hof;Kreischaer Str. 6;4758;Oschatz;Sachsen;Deutschland;51.280122;13.091758;https://hofladen.info/hofladen/herbst-hof
Klosterhofspargel;Zand 1;47638;Straelen;Nordrhein-Westfalen;Deutschland;51.435140;6.267920;https://hofladen.info/hofladen/klosterhofspargel
Die Ziegerei;Eschenhorst 7;27330;Asendorf;Niedersachsen;Deutschland;52.752580;8.955320;https://hofladen.info/hofladen/die-ziegerei
Früchtle vom Schmidener Feld;Höhe 1;70736;Fellbach;Baden-Württemberg;Deutschland;48.818891;9.254811;https://hofladen.info/hofladen/fruchtle-vom-schmidener-feld
Kattendorfer Hof;Dorfstraße 1a;24568;Kattendorf;Schleswig-Holstein;Deutschland;53.845270;10.022620;https://hofladen.info/hofladen/kattendorfer-hof
Spargel- & Erdbeerhof Hirsch;Oberach 2;65468;Trebur;Rheinland-Pfalz;Deutschland;49.922059;8.436438;https://hofladen.info/hofladen/spargel-erdbeerhof-hirsch
Demeterhof Breit;Hinter der Breit;54516;Wittlich;Rheinland-Pfalz;Deutschland;49.968200;6.857930;https://hofladen.info/hofladen/demeterhof-breit
Gut Bliesdorf;Hauptstraße 40;23847;Bliestorf;Schleswig-Holstein;Deutschland;53.765680;10.576820;https://hofladen.info/hofladen/gut-bliesdorf
Hofladen Falkensee;Dallgower Straße 1;14624;Dallgow-Döberitz;Brandenburg;Deutschland;52.544070;13.091080;https://hofladen.info/hofladen/hofladen-falkensee
Obstbau Menzel;Hauptstraße 55 ;01877 ;Rammenau;Sachsen;Deutschland;51.151516;14.148441;https://hofladen.info/hofladen/obstbau-menzel-2
Elbers Hof;An der Kirche 5;29559;Nettelkamp;Niedersachsen;Deutschland;52.881220;10.583570;https://hofladen.info/hofladen/elbers-hof
Vulkanhof Ziegenkäserei;Vulkanstr. 29;54558;Gillenfeld;Rheinland-Pfalz;Deutschland;50.128380;6.914380;https://hofladen.info/hofladen/vulkanhof-ziegenkaserei
Grüne Oase GmbH;Zur Grünen Oase 1;14656;Brieselang;Brandenburg;Deutschland;52.589345;12.918014;https://hofladen.info/hofladen/grune-oase-gmbh
Alte Büdnerei Kühlungsborn;Doberaner Landweg 8;18225;Kühlungsborn;Mecklenburg-Vorpommern;Deutschland;54.131320;11.772550;https://hofladen.info/hofladen/alte-budnerei-kuhlungsborn
Weingut Braun;Scheuerntorstr. 20;97980;Bad Mergentheim;Baden-Württemberg;Deutschland;49.475000;9.830821;https://hofladen.info/hofladen/weingut-braun
Geflügelfarm Welbsleben ;Hauptstr. 21 ;6333;Welbsleben;Sachsen-Anhalt;Deutschland;51.716758;11.400070;https://hofladen.info/hofladen/geflugelfarm-welbsleben
Spargelhof Pasch;Brüxkener-Str. 24;47638;Straelen;Nordrhein-Westfalen;Deutschland;51.401090;6.249820;https://hofladen.info/hofladen/spargelhof-pasch
Leitzachtaler Ziegenhof;Sandbichl 2+4;83730;Fischbachau;Bayern;Deutschland;47.716190;11.945220;https://hofladen.info/hofladen/leitzachtaler-ziegenhof
RosaKuh;Am Pfannenfeld 2;90587 ;Obermichelbach;Bayern;Deutschland;49.527176;10.919997;https://hofladen.info/hofladen/rosakuh
Schümannhof;Kreuzweg 1;25364;Brande;Niedersachsen;Deutschland;53.849510;9.719680;https://hofladen.info/hofladen/schumannhof
Zeiselbacherhof;Hirschhornring 53;67435;Neustadt an der Weinstraße;Rheinland-Pfalz;Deutschland;49.387550;8.157910;https://hofladen.info/hofladen/zeiselbacherhof
Schäferhof Seb & Karla Schäfer;Rehbergstr. 63;51709;Marienheide;Nordrhein-Westfalen;Deutschland;51.088220;7.515640;https://hofladen.info/hofladen/schaferhof-seb-karla-schafer
Bauers Hofladen;Klotzscher Straße 30;1465;Langebrück;Sachsen;Deutschland;51.132195;13.838638;https://hofladen.info/hofladen/bauers-hofladen
Imker Marchel Reetz;Henkinshainer Weg 24;17268;Templin;Brandenburg;Deutschland;53.156978;13.626995;https://hofladen.info/hofladen/imker-marchel-reetz
Obstkelterei Fläminggarten;Triftstraße 3;06895;Zahna;Sachsen-Anhalt;Deutschland;51.916206;12.784003;https://hofladen.info/hofladen/obstkelterei-flaminggarten
Hof Kruse;Sarninghausen 24;31595;Steyerberg;Niedersachsen;Deutschland;52.567620;8.977520;https://hofladen.info/hofladen/hof-kruse
Bauernhof Steinert;Bockmühlenstraße 71 ;01848 ;Hohnstein;Sachsen;Deutschland;51.010423;14.139799;https://hofladen.info/hofladen/bauernhof-steinert
Engelnhof;Lerchenweg 12;26871;Papenburg;Niedersachsen;Deutschland;53.049600;7.427370;https://hofladen.info/hofladen/engelnhof
Straußenfarm Helmsdorf;Ziegeleistraße 4;01833 ;Stolpen;Sachsen;Deutschland;51.026682;14.032708;https://hofladen.info/hofladen/strau%C3%9Fenfarm-helmsdorf
Highlanderhof Kiene;Alte Dorfstrasse  31;24321;Behrensdorf/Ostsee ;Schleswig-Holstein;Deutschland;54.349708;10.604576;https://hofladen.info/hofladen/highlanderhof-kiene
Guidohof;Am Ullersberg 31;9212;Limbach Oberfrohna;Sachsen;Deutschland;50.881911;12.652457;https://hofladen.info/hofladen/guidohof
Weingut Walz;Seehau 1;71665 ;Vaihingen/Enz;Baden-Württemberg;Deutschland;48.974644;8.940684;https://hofladen.info/hofladen/weingut-walz
Gut Sambach;Gutsstrasse 1;99974;Mühlhausen;Thüringen;Deutschland;51.223330;10.420480;https://hofladen.info/hofladen/gut-sambach
Nickis Bio-Hofladen;Siedlungsstraße 6;01471 ;Radeburg;Sachsen;Deutschland;51.187599;13.721160;https://hofladen.info/hofladen/nickis-bio-hofladen
Pröhl's Hofladen;Dorfstraße 22;21407;Deutsch Evern;Niedersachsen;Deutschland;53.201127;10.438892;https://hofladen.info/hofladen/prohl-s-hofladen
Westerhäuser Käsehof;Unter dem Mühlenberg 410;6502;Thale;Sachsen-Anhalt;Deutschland;51.802320;11.049960;https://hofladen.info/hofladen/westerhauser-kasehof
Obsthof Bey;Groß Hove 136 ;21635;Jork;Niedersachsen;Deutschland;53.530790;9.761020;https://hofladen.info/hofladen/obsthof-bey
Inselkäserei Usedom;Welzin 30;17406;Usedom;Mecklenburg-Vorpommern;Deutschland;53.852206;13.963268;https://hofladen.info/hofladen/inselkaserei-usedom
Weinbau Ruser;Sodgasse 7;79539;Lörrach;Baden-Württemberg;Deutschland;47.603198;7.644787;https://hofladen.info/hofladen/weinbau-ruser
Biogut Bauck;Bergstraße 30;29389 ;Bad Bodenteich;Niedersachsen;Deutschland;52.830260;10.656725;https://hofladen.info/hofladen/biogut-bauck
Straußenfarm Ostseeblick;Ostseering 11;24257;Hohenfelde;Schleswig-Holstein;Deutschland;54.374960;10.521820;https://hofladen.info/hofladen/strau%C3%9Fenfarm-ostseeblick
Hofladen Stackkamp;Stackkamp 1;28309;Bremen;Bremen;Deutschland;53.043940;8.905220;https://hofladen.info/hofladen/hofladen-stackkamp
Domäne Fredeburg;Domänenweg 1;23909;Fredeburg;Schleswig-Holstein;Deutschland;53.675130;10.726310;https://hofladen.info/hofladen/domane-fredeburg
Weingut Hofmann;Strüther Str.7;97285;Röttingen;Bayern;Deutschland;49.512800;9.967770;https://hofladen.info/hofladen/weingut-hofmann
Schafskäserei Hof Ahmen;Wacholder Weg 1;24376;Kappeln;Schleswig-Holstein;Deutschland;54.636540;9.954810;https://hofladen.info/hofladen/schafskaserei-hof-ahmen
Biohof Tacke;Kletziner Str. 1a;23972;Dorf Mecklenburg;Mecklenburg-Vorpommern;Deutschland;53.843240;11.474120;https://hofladen.info/hofladen/biohof-tacke
Imkerei Majas Schlaraffenland;Augustenweg 9;82140;Olching;Bayern;Deutschland;48.213716;11.349945;https://hofladen.info/hofladen/imkerei-majas-schlaraffenland
Siemers Hofladen;Böttcherei 10;28844;Weyhe;Niedersachsen;Deutschland;52.985784;8.827134;https://hofladen.info/hofladen/siemers-hofladen
Hofladen und Hofcafe Dahmen;Dorfstraße 2;17166;Dahmen;Mecklenburg-Vorpommern;Deutschland;53.662510;12.612810;https://hofladen.info/hofladen/hofladen-und-hofcafe-dahmen
Hofgut Hohenwald;Oberurseler Str. 69;61476;Kronberg im Taunus;Hessen;Deutschland;50.183720;8.548840;https://hofladen.info/hofladen/hofgut-hohenwald
Jagsttalranch;Großforst 5;74582;Gerabronn-Großforst;Baden-Württemberg;Deutschland;49.225063;9.878575;https://hofladen.info/hofladen/jagsttalranch
Jüttes Weidberg-Hof;Am Weidberg 1;34233;Fuldatal;Hessen;Deutschland;51.379280;9.499170;https://hofladen.info/hofladen/juttes-weidberg-hof
Weingut Gaufer;Mariannenstr. 24;74653;Ingelfingen;Baden-Württemberg;Deutschland;49.299785;9.656159;https://hofladen.info/hofladen/weingut-gaufer
Hofkäserei Horn;Hauptstraße 81;9430;Drebach;Sachsen;Deutschland;50.672840;13.019110;https://hofladen.info/hofladen/hofkaserei-horn
Forellengut Rosengarten;Untere Neumühle 48-57;54441;Trassem;Rheinland-Pfalz;Deutschland;49.565513;6.522870;https://hofladen.info/hofladen/forellengut-rosengarten
Obsthof Hornemann;Am Schachtteich 1;39171;Sülzetal;Sachsen-Anhalt;Deutschland;52.009500;11.513450;https://hofladen.info/hofladen/obsthof-hornemann
Schiebers Bauernhof;Lindich 2;74523;Schwäbisch Hall;Baden-Württemberg;Deutschland;49.084360;9.696640;https://hofladen.info/hofladen/schiebers-bauernhof
Obsthof Schröder;Hinterbrack 6 ;21635;Jork;Niedersachsen;Deutschland;53.545770;9.762280;https://hofladen.info/hofladen/obsthof-schroder
Biohof Rzehak;Holander Allee 24;24214;Tüttendorf;Schleswig-Holstein;Deutschland;54.378470;9.968880;https://hofladen.info/hofladen/biohof-rzehak
Hof Dannwisch;Dannwisch 1;25358;Horst;Niedersachsen;Deutschland;53.798350;9.615310;https://hofladen.info/hofladen/hof-dannwisch
Vilstal Schäfer;Spitzenberg 48;84137;Vilsbiburg;Bayern;Deutschland;48.475600;12.322760;https://hofladen.info/hofladen/vilstal-schafer
Käsehof  Biss;Hofkamp;24326;Dersau;Schleswig-Holstein;Deutschland;54.126235;10.311770;https://hofladen.info/hofladen/kasehof-biss
Erdbeerparadies Krähenwinkel;Hainhäuser Weg 60 Ecke Sportplatzweg ;30855;Langenhagen;Niedersachsen;Deutschland;52.473429;9.740839;https://hofladen.info/hofladen/erdbeerparadies-krahenwinkel
Damwildgehege Waldenburg;Hauptstraße 102;74638;Waldenburg;Baden-Württemberg;Deutschland;49.185860;9.639140;https://hofladen.info/hofladen/damwildgehege-waldenburg
KEKILA Fruchtsäfte;Grüne Aue 18;02708;Lawalde-Lauba;Sachsen;Deutschland;51.080022;14.576125;https://hofladen.info/hofladen/kekila-fruchtsafte
Milchhof Werning;Heideweg 24;33154;Salzkotten;Nordrhein-Westfalen;Deutschland;51.718760;8.625230;https://hofladen.info/hofladen/milchhof-werning
Hof Sackern;Albringhauser Str. 22;58300;Wetter;Nordrhein-Westfalen;Deutschland;51.375380;7.330470;https://hofladen.info/hofladen/hof-sackern
Seefelder Landmilch;Seefeld 31;23843;Bad Oldesloe;Schleswig-Holstein;Deutschland;53.849270;10.372910;https://hofladen.info/hofladen/seefelder-landmilch
Mosterei Kühlmanns Hof;Mühlenstr. 11;38889 ;Blankenburg;Sachsen-Anhalt;Deutschland;51.794233;10.965418;https://hofladen.info/hofladen/mosterei-kuhlmanns-hof
Hof Rengstorf;Benzen 6 ;29664 ;Walsrode;Niedersachsen;Deutschland;52.832866;9.580981;https://hofladen.info/hofladen/hof-rengstorf
Ranch am Torfmoor;Törf 4;18586;Göhren;Mecklenburg-Vorpommern;Deutschland;54.338440;13.728620;https://hofladen.info/hofladen/ranch-am-torfmoor
Biolandhof Schulze Wethmar;Waldweg 3;44534;Lünen;Nordrhein-Westfalen;Deutschland;51.623910;7.558530;https://hofladen.info/hofladen/biolandhof-schulze-wethmar
Baumbachhof;Baumbachweg 9;75438;Kleinvillars;Baden-Württemberg;Deutschland;48.998660;8.747750;https://hofladen.info/hofladen/baumbachhof
Hitscherhof;Hitscherhof 3;66506;Massweiler;Baden-Württemberg;Deutschland;49.250250;7.529670;https://hofladen.info/hofladen/hitscherhof
Maries Ziegen- und Schafhof;Büdinger Straße 10;66663;Merzig-Silwingen;Saarland;Deutschland;49.424450;6.569630;https://hofladen.info/hofladen/maries-ziegen-und-schafhof
Cohrs Hofladen ;Rutenbeck 5 ;21640;Bliedersdorf;Niedersachsen;Deutschland;53.464210;9.555410;https://hofladen.info/hofladen/cohrs-hofladen
Agrargesellschaft Chemnitz;Gartenstraße 1;17039;Chemnitz;Mecklenburg-Vorpommern;Deutschland;53.582020;13.157340;https://hofladen.info/hofladen/agrargesellschaft-chemnitz
Büffelhof Steinwand;Schalmenhagweg 4;72172;Sulz-Dürrenmettstetten;Baden-Württemberg;Deutschland;48.386010;8.577660;https://hofladen.info/hofladen/buffelhof-steinwand
Röpers Hof;Am Kirchweg 6 ;27383 ;Scheeßel;Niedersachsen;Deutschland;53.128642;9.464701;https://hofladen.info/hofladen/ropers-hof-2
Hofladen Maas GbR;Kirchstr. 34;74544;Michelbach an der Bilz;Baden-Württemberg;Deutschland;49.067890;9.764269;https://hofladen.info/hofladen/hofladen-maas-gbr
Dahmer Landmilch;Kellenhusener Weg 26;23747;Dahme;Schleswig-Holstein;Deutschland;54.205120;11.078410;https://hofladen.info/hofladen/dahmer-landmilch
Weingut Weihbrecht.de;Hauptstr.20;74626;Bretzfeld;Baden-Württemberg;Deutschland;49.183064;9.404048;https://hofladen.info/hofladen/weingut-weihbrecht-de
Hagenester Hofladen;Hagenest 38;4565;Regis-Breitingen;Sachsen;Deutschland;51.087954;12.357775;https://hofladen.info/hofladen/hagenester-hofladen
van Nahmen;Diersfordter Straße 27;46499;Hamminkeln;Nordrhein-Westfalen;Deutschland;51.728544;6.586693;https://hofladen.info/hofladen/van-nahmen
Obsthof Drechsle;Feldbergstrasse 22;79639;Grenzach-Wyhlen;Baden-Württemberg;Deutschland;47.567811;7.705064;https://hofladen.info/hofladen/obsthof-drechsle
Hofkäserei Klostersee;;23743;Grömitz;Schleswig-Holstein;Deutschland;54.186490;10.968820;https://hofladen.info/hofladen/hofkaserei-klostersee
Weingartenhof Denzer;Läufelbergstraße 7;79592;Fischingen;Baden-Württemberg;Deutschland;47.651285;7.599741;https://hofladen.info/hofladen/weingartenhof-denzer
Sonnenei;Lützelfeldstraße 14;36211;Alheim;Hessen;Deutschland;51.045056;9.666334;https://hofladen.info/hofladen/sonnenei
Limousinhof Klemm;Hauptstrasse 70A;1762;Hartmannsdorf;Sachsen;Deutschland;50.886638;12.800979;https://hofladen.info/hofladen/limousinhof-klemm
Milchhof Fiedler;Pirnaer Str. 19 ;01829 ;Dorf Wehlen;Sachsen;Deutschland;50.963007;14.003009;https://hofladen.info/hofladen/milchhof-fiedler
Obsthof Bahlinger;Weiherweg 5;79588;Efringen-Kirchen;Baden-Württemberg;Deutschland;47.690207;7.539935;https://hofladen.info/hofladen/obsthof-bahlinger
Bauernladen am Kirschberg;Bortewitzer Straße 2 b;4774;Dahlen;Sachsen;Deutschland;51.366420;12.991930;https://hofladen.info/hofladen/bauernladen-am-kirschberg
Gut Gollin;Gut Gollin 1;17268;Templin;Brandenburg;Deutschland;53.053938;13.571398;https://hofladen.info/hofladen/gut-gollin
Straußenhof Angermünde;Schmargendorferweg 23;16278;angermünde;Brandenburg;Deutschland;52.996979;13.980293;https://hofladen.info/hofladen/strau%C3%9Fenhof-angermunde
Obstproduktion Höhnstedt ;Langenbogener Str. 18 ;6198;Salzatal;Sachsen-Anhalt;Deutschland;51.500630;11.748040;https://hofladen.info/hofladen/obstproduktion-hohnstedt
Hofkäserei Schönborn;Langebrückerstr. 11;1465;Schönborn;Sachsen;Deutschland;51.145790;13.863040;https://hofladen.info/hofladen/hofkaserei-schonborn
Sulzburghof Kuch;Max Leuze Str. 10-16;73252;Lenningen;Baden-Württemberg;Deutschland;48.564590;9.454760;https://hofladen.info/hofladen/sulzburghof-kuch
Geflügelhof Stutz e.K.;Bibersstr. 17;74523;Schwäbisch Hall;Baden-Württemberg;Deutschland;49.079810;9.688520;https://hofladen.info/hofladen/geflugelhof-stutz-e-k
Knospenhof;Bergstraße 8;54317;Herl;Rheinland-Pfalz;Deutschland;49.731270;6.823390;https://hofladen.info/hofladen/knospenhof
Hausler Hof;Garchinger Weg 72;85399;Hallbergmoos;Bayern;Deutschland;48.290416;11.720592;https://hofladen.info/hofladen/hausler-hof
Havelländische Hofkäserei;Neues Ende 14A;14715;Märkisch Luch;Brandenburg;Deutschland;52.566475;12.561283;https://hofladen.info/hofladen/havellandische-hofkaserei
Geflügelhof Berger;Grünhainichener Str. 51;9573;Leubsdorf;Sachsen;Deutschland;50.790930;13.135032;https://hofladen.info/hofladen/geflugelhof-berger
Giek GbR;Im Kornfeld 7;71696;Möglingen;Baden-Württemberg;Deutschland;48.864990;9.133890;https://hofladen.info/hofladen/giek-gbr
AGP Lübesse;An der Kartoffelhalle 3;19077;Sülte;Mecklenburg-Vorpommern;Deutschland;53.504870;11.424640;https://hofladen.info/hofladen/agp-lubesse
Stendaler Scheunenladen ;Osterburger Str. 63 ;39576;Stendal;Sachsen-Anhalt;Deutschland;52.620160;11.845290;https://hofladen.info/hofladen/stendaler-scheunenladen
Rosenhof;Rosenbühl 21;74424;Bühlertann;Baden-Württemberg;Deutschland;49.038540;9.908920;https://hofladen.info/hofladen/rosenhof
Kräutergärtnerei Helenion;Kleine Straße 2a;17291;Grünow;Brandenburg;Deutschland;53.318240;13.948710;https://hofladen.info/hofladen/krautergartnerei-helenion
Obst- und Beerenanbau Pfizenmaier;Kohlhof 1;74629;Pfedelbach;Baden-Württemberg;Deutschland;49.121296;9.587327;https://hofladen.info/hofladen/obst-und-beerenanbau-pfizenmaier
Rittergut Binsförth;Rittergut 1;34326;Morschen;Hessen;Deutschland;51.070980;9.572000;https://hofladen.info/hofladen/rittergut-binsforth
Windberghof;Windberghof;79837;St. Blasien;Baden-Württemberg;Deutschland;47.764200;8.108890;https://hofladen.info/hofladen/windberghof
Kellers Hofladen;Harrbacher Weg 41;97753;Karlstadt;Bayern;Deutschland;49.994190;9.730790;https://hofladen.info/hofladen/kellers-hofladen
Hof Meyer-Roselius;Beppener Bruchweg 4;27321;Thedinghausen;Niedersachsen;Deutschland;52.954090;9.019140;https://hofladen.info/hofladen/hof-meyer-roselius
"Natur Damwild Gehege ""Torfstich"" ";Temps Mühle 2 ;39359;Calvörde;Sachsen-Anhalt;Deutschland;52.396100;11.315410;https://hofladen.info/hofladen/natur-damwild-gehege-torfstich
Weingut Birkert;Unterheimbacher Str. 28;74626;Bretzfeld;Baden-Württemberg;Deutschland;49.163954;9.450162;https://hofladen.info/hofladen/weingut-birkert
Hofgut Schleinkofer;Amtmännenwiesen 3;76199;Karlsruhe-Rüppurr;Baden-Württemberg;Deutschland;48.965740;8.387610;https://hofladen.info/hofladen/hofgut-schleinkofer
Untermühlbachhof;Mühlbach 1;78112;Peterzell;Baden-Württemberg;Deutschland;48.147400;8.361220;https://hofladen.info/hofladen/untermuhlbachhof
Gut Neu Sacro;Neu Sacro 13;3149;Forst (Lausitz);Brandenburg;Deutschland;51.773997;14.623847;https://hofladen.info/hofladen/gut-neu-sacro
Dexter Hof Tammert;Feldstraße 34;17498;Hinrichshagen;Mecklenburg-Vorpommern;Deutschland;54.078475;13.321329;https://hofladen.info/hofladen/dexter-hof-tammert
Hagsfelder Hofladen;In der Karl-Pfizer-Anlage;76139;Karlruhe;Baden-Württemberg;Deutschland;49.026185;8.461424;https://hofladen.info/hofladen/hagsfelder-hofladen
Alhusen Spargelplantagen;Mahlen 2;27324;Eystrup;Niedersachsen;Deutschland;52.785253;9.200345;https://hofladen.info/hofladen/alhusen-spargelplantagen
Hofkäserei Vetter;Weifaer Str. 1 ;02689 ;Sohland;Sachsen;Deutschland;51.055302;14.380513;https://hofladen.info/hofladen/hofkaserei-vetter
Gärtnerhof Staudenmüller; Askanische Straße 1;17268;Templin;Brandenburg;Deutschland;53.052932;13.528121;https://hofladen.info/hofladen/gartnerhof-staudenmuller
Landgut Naundorf;Grillenburger Straße 54;9627;Bobritzsch-Hilbersdorf;Sachsen;Deutschland;50.936980;13.423330;https://hofladen.info/hofladen/landgut-naundorf
Erdhof Seewalde;Seewalde 2;17255;Wustrow;Mecklenburg-Vorpommern;Deutschland;53.226200;12.932600;https://hofladen.info/hofladen/erdhof-seewalde
Zur Tabakblüte;Dorfstraße 27a;16307;Gartz/O;Brandenburg;Deutschland;53.158860;14.346370;https://hofladen.info/hofladen/zur-tabakblute
Berbigs Hofladen ;Dorfstr. 7 ;6632;Balgstädt;Sachsen-Anhalt;Deutschland;51.206089;11.687547;https://hofladen.info/hofladen/berbigs-hofladen
Hofladen Heß;Ziegelstr. 3;71720;Oberstenfeld;Baden-Württemberg;Deutschland;49.022806;9.325062;https://hofladen.info/hofladen/hofladen-he%C3%9F
Geflügelzucht Josef Schulte;Klettenbach 1;72654;Neckartenzlingen;Baden-Württemberg;Deutschland;48.580756;9.248585;https://hofladen.info/hofladen/geflugelzucht-josef-schulte
Geflügelhof Föll;Sauserhof 24;71723;Großbottwar;Baden-Württemberg;Deutschland;49.014246;9.308271;https://hofladen.info/hofladen/geflugelhof-foll
Martinshof Beck;;67373;Dudenhofen;Rheinland-Pfalz;Deutschland;49.316220;8.389352;https://hofladen.info/hofladen/martinshof-beck
Gut Kerkow;Greifenberger Strasse 8;16278;Angermünde;Brandenburg;Deutschland;53.619192;10.147893;https://hofladen.info/hofladen/gut-kerkow
Bisonhof Nuß;Lindenstraße 24;97980;Bad Mergentheim;Baden-Württemberg;Deutschland;49.444627;9.752011;https://hofladen.info/hofladen/bisonhof-nu%C3%9F
Landräucherei Glut & Späne;Dorfmitte 11;17268;Gerswalde;Brandenburg;Deutschland;53.169570;13.748990;https://hofladen.info/hofladen/landraucherei-glut-spane
Lädle;Riegenhof 4;74535;Mainhardt;Baden-Württemberg;Deutschland;49.078014;9.571451;https://hofladen.info/hofladen/ladle
Biohof Hausmann;Mühlweg, 8;09306;Rochlitz;Sachsen;Deutschland;51.030993;12.732276;https://hofladen.info/hofladen/biohof-hausmann
Gut Wilhelmsdorf;Verler Straße 248;33689;Bielefeld;Nordrhein-Westfalen;Deutschland;51.925860;8.552270;https://hofladen.info/hofladen/gut-wilhelmsdorf
Käserei Natürlich vom Höchsten;Unterlimpach 7;88693;Deggenhausertal;Baden-Württemberg;Deutschland;47.786920;9.424180;https://hofladen.info/hofladen/kaserei-naturlich-vom-hochsten
Hof Frien;Höfen 13;31600;Uchte;Niedersachsen;Deutschland;52.474333;8.908718;https://hofladen.info/hofladen/hof-frien
Wild & Taste;Neudessauer Straße 12;14715;Milower Land;Brandenburg;Deutschland;52.511980;12.304400;https://hofladen.info/hofladen/wild-taste
Hof im Winkel;Thomsdorf 17 ;17268 ;Boitzenburger Land;Brandenburg;Deutschland;53.295531;13.447555;https://hofladen.info/hofladen/hof-im-winkel
Gurken Paule;Schlossinsel Hafen 1;15907;Lübben;Brandenburg;Deutschland;51.940169;13.899049;https://hofladen.info/hofladen/gurken-paule
Ziegenhof Eichelborn;Dorfstr. 37;99198;Eichelborn;Thüringen;Deutschland;50.941860;11.180630;https://hofladen.info/hofladen/ziegenhof-eichelborn
Hof Kley;Römerstraße 81;53332;Bornheim;Nordrhein-Westfalen;Deutschland;50.792014;7.027498;https://hofladen.info/hofladen/hof-kley
Prokräuter;Widmannsried 1b;87480;Weitnau - Wengen;Bayern;Deutschland;47.679520;10.166500;https://hofladen.info/hofladen/prokrauter
Spargelhof Kiefer;Schmachtenhagener Straße 11;16515;Oranienburg;Brandenburg;Deutschland;52.779031;13.358958;https://hofladen.info/hofladen/spargelhof-kiefer
Familie Dangel;Dangelhof 1;89174;Altheim/Alb;Baden-Württemberg;Deutschland;48.570701;10.024990;https://hofladen.info/hofladen/familie-dangel
Ölmühle Gut Blankensee;Blankensee 23;17268;Mittenwalde;Brandenburg;Deutschland;53.193361;13.703202;https://hofladen.info/hofladen/olmuhle-gut-blankensee
Finther Obstlädchen;Kurmainzstr. 10;55126;Mainz;Rheinland-Pfalz;Deutschland;49.983526;8.176025;https://hofladen.info/hofladen/finther-obstladchen
Anettes Hofladen;Pfarrstr. 25;76189;Karlruhe;Baden-Württemberg;Deutschland;49.006113;8.328703;https://hofladen.info/hofladen/anettes-hofladen
Spargelhof am Storchennest;Riebener Dorfstr. 25;14547;Beelitz;Brandenburg;Deutschland;52.192313;13.037892;https://hofladen.info/hofladen/spargelhof-am-storchennest
Hofgut Pulsitz;Pulsitzer Hauptstraße 14;4749;Ostrau;Sachsen;Deutschland;51.216120;13.168590;https://hofladen.info/hofladen/hofgut-pulsitz
Birkenhof;Birkenhof 1;57234;Wilnsdorf-Wilgersdorf;Nordrhein-Westfalen;Deutschland;50.826620;8.141890;https://hofladen.info/hofladen/birkenhof-2
Hof Prangendorf;Siedlungsweg 4;18195;Cammin;Mecklenburg-Vorpommern;Deutschland;54.007930;12.389520;https://hofladen.info/hofladen/hof-prangendorf
Wildwirtschaft;Buchenhain 33;17268;Boitzenburger Land;Brandenburg;Deutschland;53.307120;13.548070;https://hofladen.info/hofladen/wildwirtschaft
Sonnenberg Spargel;Granseer Straße 8;16775 ;Sonnenberg;Brandenburg;Deutschland;53.030883;13.124181;https://hofladen.info/hofladen/sonnenberg-spargel
Biohof Hausmann;Hauptstraße 59;86678;Ehingen;Bayern;Deutschland;48.596192;10.793435;https://hofladen.info/hofladen/biohof-hausmann-2
Boitzenburger Früchtezauber;Wichmannsdorfer Straße 4;17268;Boitzenburger Land;Brandenburg;Deutschland;53.260023;13.611497;https://hofladen.info/hofladen/boitzenburger-fruchtezauber
Seenfischerei Trellert;Fischereiweg 1;17291;Nordwestuckermark;Brandenburg;Deutschland;53.247340;13.773860;https://hofladen.info/hofladen/seenfischerei-trellert
Lämmerhof;Dorfstraße 10 ;23896 ;Panten;Schleswig-Holstein;Deutschland;53.663458;10.617959;https://hofladen.info/hofladen/lammerhof
"Alpacahof ""Zwei Eichen"" ";Grüne Str. 9 ;39264;Zernitz;Sachsen-Anhalt;Deutschland;52.014233;12.085856;https://hofladen.info/hofladen/alpacahof-zwei-eichen
Hof Hottbarg;Preetzer Str. 12A;24211;Kührsdorf;Schleswig-Holstein;Deutschland;54.175680;10.265950;https://hofladen.info/hofladen/hof-hottbarg
Vogelsberger-Stutenmilch Manufaktur;Hüttengasse 2;74653;Künzelsau;Baden-Württemberg;Deutschland;49.261825;9.786453;https://hofladen.info/hofladen/vogelsberger-stutenmilch-manufaktur
Biolandhof Burger;Zum Flecken 18;91189 ;Rohr;Bayern;Deutschland;49.342775;10.883601;https://hofladen.info/hofladen/biolandhof-burger
Brennerei Strecker;Zum süßen Wasen 18;74523;Schwäbisch Hall;Baden-Württemberg;Deutschland;49.059142;9.645356;https://hofladen.info/hofladen/brennerei-strecker
Biohof Butz;Viehhausen 2 ;84056;Rottenburg;Bayern;Deutschland;48.681610;12.017080;https://hofladen.info/hofladen/biohof-butz
Bauernhof Pitschke ;Hauptstraße 17 ;6429;Gerbitz;Sachsen-Anhalt;Deutschland;51.841606;11.826253;https://hofladen.info/hofladen/bauernhof-pitschke
Agrarhandel Dürrenhofe Hofladen;Lübbener Str. 7a;15913;Märkische Heide;Brandenburg;Deutschland;52.022578;13.943309;https://hofladen.info/hofladen/agrarhandel-durrenhofe-hofladen
Brennerei Fritz Lösch;Adolzfurter Straße 33;74629;Pfedelbach-Windischenbach;Baden-Württemberg;Deutschland;49.180238;9.483753;https://hofladen.info/hofladen/brennerei-fritz-losch
Westerhäuser Käsehof ;Unter dem Mühlenberg 410 ;6484;Westerhausen;Sachsen-Anhalt;Deutschland;51.802330;11.049962;https://hofladen.info/hofladen/westerhauser-kasehof-2
Heumis Hof;Iglinger Straße 48;86857;Hurlach;Bayern;Deutschland;48.110640;10.816780;https://hofladen.info/hofladen/heumis-hof
Schillings Hofladen;Hafenweg 45;18569;Schaprode;Mecklenburg-Vorpommern;Deutschland;54.513060;13.165660;https://hofladen.info/hofladen/schillings-hofladen
Erlebnishof Kützkow;Fährstraße 7;14798;Havelsee;Brandenburg;Deutschland;52.488990;12.445300;https://hofladen.info/hofladen/erlebnishof-kutzkow
Lohmannshof;Eichenstraße 24;27313;Westen;Niedersachsen;Deutschland;52.836670;9.302690;https://hofladen.info/hofladen/lohmannshof
Hof Meyerholz;Holzbaden 34   ;28832 ;Achim;Niedersachsen;Deutschland;53.002805;9.094964;https://hofladen.info/hofladen/hof-meyerholz
Hofladen Bähr;Dorfstraße 25a;99334;Rehestädt;Thüringen;Deutschland;50.870130;10.925100;https://hofladen.info/hofladen/hofladen-bahr
Biolandhof Reimer;Flurstr. 6;74405;Gaildorf;Baden-Württemberg;Deutschland;48.967658;9.751485;https://hofladen.info/hofladen/biolandhof-reimer
Richards Wild;Fürstenberger Straße 2;16775;Gransee;Brandenburg;Deutschland;53.076518;13.181918;https://hofladen.info/hofladen/richards-wild
Spargelkulturen H.-J. Brautmeier;Am Bauhof 1;33129;Delbrück;Niedersachsen;Deutschland;51.754730;8.550050;https://hofladen.info/hofladen/spargelkulturen-h-j-brautmeier
Brünings Scheune;Landstraße 22 ;28870 ;Fischerhude;Niedersachsen;Deutschland;53.116575;9.054533;https://hofladen.info/hofladen/brunings-scheune
Hallertauer Ziegenhof;Nandlstädterstr. 37;84104;Tegernbach;Bayern;Deutschland;48.565070;11.810220;https://hofladen.info/hofladen/hallertauer-ziegenhof
Gärtnerei Ortmann;Bremerstraße 4;27339;Thedinghausen;Niedersachsen;Deutschland;52.988737;8.932402;https://hofladen.info/hofladen/gartnerei-ortmann
Biohof Kaemena;Niederblockland 6 2;28357;Bremen;Bremen;Deutschland;53.154428;8.838718;https://hofladen.info/hofladen/biohof-kaemena
Spargel– und Erlebnishof Klaistow;Glindower Str. 28;14547;Beelitz;Brandenburg;Deutschland;52.296368;12.859755;https://hofladen.info/hofladen/spargel%E2%80%93-und-erlebnishof-klaistow
Hof Lehnmühle;Hof Lehnmühle 2;55444;Dörrebach;Rheinland-Pfalz;Deutschland;49.941410;7.717690;https://hofladen.info/hofladen/hof-lehnmuhle
Gut Wulfsdorf;Bornskampweg 39;22926;Ahrensburg;Schleswig-Holstein;Deutschland;53.659180;10.192540;https://hofladen.info/hofladen/gut-wulfsdorf
Biokiste Weißmeyer;Langenweddinger Straße 6;39164;Wanzleben;Sachsen-Anhalt;Deutschland;52.104006;11.508502;https://hofladen.info/hofladen/biokiste-wei%C3%9Fmeyer
Hofladen Späth;Späthstraße 80/81;12437;Berlin;Brandenburg;Deutschland;52.454336;13.473725;https://hofladen.info/hofladen/hofladen-spath
Sunnehof;Lettenweg 12;79689;Maulburg;Baden-Württemberg;Deutschland;47.639817;7.780956;https://hofladen.info/hofladen/sunnehof
Spargel- und Heidelbeerhof Backhaus;Lange Straße 35;31628;Landesbergen;Niedersachsen;Deutschland;52.557900;9.119645;https://hofladen.info/hofladen/spargel-und-heidelbeerhof-backhaus
Mosterei Ketzür;Unter den Linden 11;14778;Beetzseeheide;Brandenburg;Deutschland;52.495370;12.632168;https://hofladen.info/hofladen/mosterei-ketzur
Ziegenhof Ensmad;Ensmad 2;88515;Langenenslingen;Baden-Württemberg;Deutschland;48.193560;9.343640;https://hofladen.info/hofladen/ziegenhof-ensmad
Die Fischerkate;Mainhardter Weg 8;71577;Großerlach;Baden-Württemberg;Deutschland;49.057791;9.524557;https://hofladen.info/hofladen/die-fischerkate
Milchtankstelle Schwante;Dorfstraße 1b;16727 ;Oberkrämer;Brandenburg;Deutschland;52.729782;13.092473;https://hofladen.info/hofladen/milchtankstelle-schwante
Obstbau Schleicher;Hinterespig 9;74629;Pfedelbach;Baden-Württemberg;Deutschland;49.153301;9.520108;https://hofladen.info/hofladen/obstbau-schleicher
Hofladen Gerbitz;Hauptstraße 17;6429;Nienburg/Saale;Sachsen-Anhalt;Deutschland;51.841606;11.826253;https://hofladen.info/hofladen/hofladen-gerbitz
Hof Petschl;Reutpfädle 1;71672 ;Marbach am Neckar;Baden-Württemberg;Deutschland;48.933990;9.269920;https://hofladen.info/hofladen/hof-petschl
Schloss Benzenhofen;Benzenhofen 1;88276;Berg;Baden-Württemberg;Deutschland;47.834988;9.565973;https://hofladen.info/hofladen/schloss-benzenhofen
C. v. Laer - Erdbeer- und Spargelkulturen;Senderstraße 23;32049;Herford;Niedersachsen;Deutschland;52.133234;8.729746;https://hofladen.info/hofladen/c-v-laer-erdbeer-und-spargelkulturen
Hofladen Kampe;Glockenstr. 24 ;28857 ;Syke;Niedersachsen;Deutschland;52.937468;8.823623;https://hofladen.info/hofladen/hofladen-kampe
Borgfelder Milchmanufaktur;Borgfelder Landstraße 4;28357;Bremen;Bremen;Deutschland;53.126893;8.903985;https://hofladen.info/hofladen/borgfelder-milchmanufaktur
Kedenburgs Schweinerei;Hintzendorf-Stellenfelde 45;28870;Ottersberg;Niedersachsen;Deutschland;53.035620;9.186980;https://hofladen.info/hofladen/kedenburgs-schweinerei
Detzels Hofladen;Wiesenholz 1;88267;Vogt;Baden-Württemberg;Deutschland;48.094524;11.798933;https://hofladen.info/hofladen/detzels-hofladen
Weingut Fürst zu Hohenlohe-Oehringen;Wiesenkelter;74613;Öhringen;Baden-Württemberg;Deutschland;49.188155;9.473860;https://hofladen.info/hofladen/weingut-furst-zu-hohenlohe-oehringen
Püllens Hofladen;Hermannshof;52388;Nörvenich;Nordrhein-Westfalen;Deutschland;50.810913;6.577609;https://hofladen.info/hofladen/pullens-hofladen
Mühlenladen;Talstraße 25;88427;Bad schussenried-Reichenbach;Baden-Württemberg;Deutschland;48.024867;9.619237;https://hofladen.info/hofladen/muhlenladen
Bio Hofmarktanner;Marktanner 1;88267;Vogt;Baden-Württemberg;Deutschland;47.759930;9.757700;https://hofladen.info/hofladen/bio-hofmarktanner
Apfelgarten Meyer ;Fährdeich 18 ;21129;Hamburg;Hamburg;Deutschland;53.525950;9.801940;https://hofladen.info/hofladen/apfelgarten-meyer
Bioland Hofladen Seibold;Hofbühlweg 1;74589;Satteldorf;Baden-Württemberg;Deutschland;49.171175;10.082076;https://hofladen.info/hofladen/bioland-hofladen-seibold
Bauer Lange;Lieschow Hof Nr. 37;18569;Ummanz;Mecklenburg-Vorpommern;Deutschland;54.436090;13.180370;https://hofladen.info/hofladen/bauer-lange
Seenfischerei Angermünde;Bleiche 1;16278;Angermünde;Brandenburg;Deutschland;53.019564;14.009749;https://hofladen.info/hofladen/seenfischerei-angermunde
Obstbau Robert Rüdiger;Wesenitzstr. 9;1833;Stolpen;Sachsen;Deutschland;51.040020;14.046480;https://hofladen.info/hofladen/obstbau-robert-rudiger
Obsthof Wagner;Dieglishofen 1;88069;Dieglishofen;Baden-Württemberg;Deutschland;47.685142;9.601889;https://hofladen.info/hofladen/obsthof-wagner
H4C Ranch Fleischverkauf;Berthelsdorfer Str. 6;09661 ;Hainichen;Sachsen;Deutschland;50.960274;13.119667;https://hofladen.info/hofladen/h4c-ranch-fleischverkauf
Spargelhof Ulrich;Walschenkampsweg 3;27801;Dötlingen;Niedersachsen;Deutschland;52.939387;8.374492;https://hofladen.info/hofladen/spargelhof-ulrich
Naturhof Engel;Schönnbronn 4;74426;Bühlerzell-Schönbronn;Baden-Württemberg;Deutschland;48.986320;9.954682;https://hofladen.info/hofladen/naturhof-engel
Hofladen G.Rapp;Im Schollengarten 19b;76646;Untergrombach;Baden-Württemberg;Deutschland;49.096050;8.561330;https://hofladen.info/hofladen/hofladen-g-rapp
Familie Sprich;Große Gaß 36;79576;Weil-Haltingen;Baden-Württemberg;Deutschland;47.613330;7.619468;https://hofladen.info/hofladen/familie-sprich
Obsthof Rüdiger;Wesenitzstraße 9  ;01833 ;Stolpen;Sachsen;Deutschland;51.040020;14.046480;https://hofladen.info/hofladen/obsthof-rudiger
Gemüsebau Lang;Hintere Dorfstraße 7;79588;Wintersweiler ;Baden-Württemberg;Deutschland;47.674708;7.565801;https://hofladen.info/hofladen/gemusebau-lang
VITAshrimp;Starcholtstrasse 7;86495;Eurasburg;Bayern;Deutschland;48.332500;11.131270;https://hofladen.info/hofladen/vitashrimp
Hofladen Melder;Karlsruher Str. 55;76676;Graben-Neudorf;Baden-Württemberg;Deutschland;49.155173;8.482825;https://hofladen.info/hofladen/hofladen-melder
Rümelinsmühle Murrhardt;Siegelsberger Str.23;71540;Murrhardt;Baden-Württemberg;Deutschland;48.982521;9.581380;https://hofladen.info/hofladen/rumelinsmuhle-murrhardt
Weingut Heinrich;Kümmelstr. 2;74182;Obersulm-Sülzbach;Baden-Württemberg;Deutschland;49.145420;9.343420;https://hofladen.info/hofladen/weingut-heinrich
Hof Bolte;Alter Schulweg 14a ;31634 ;Lichtenhorst;Niedersachsen;Deutschland;52.722230;9.391300;https://hofladen.info/hofladen/hof-bolte
Spargel & Kartoffelhof Kühnlein;Hans-Traut-Straße 23;90455 ;Nürnberg;Bayern;Deutschland;49.349682;11.057322;https://hofladen.info/hofladen/spargel-kartoffelhof-kuhnlein
Griesels Milchhof;Oberster Riedsweg 1;34281;Gudensberg;Hessen;Deutschland;51.166202;9.342907;https://hofladen.info/hofladen/griesels-milchhof
Franken-Genuss;Gonnersdorf 6;90556 ;Cadolzburg;Bayern;Deutschland;49.464897;10.820451;https://hofladen.info/hofladen/franken-genuss
Hof Bostel;Benzen 7;29664 ;Walsrode;Niedersachsen;Deutschland;52.833364;9.581356;https://hofladen.info/hofladen/hof-bostel
Hofladen Joost; Hamwiede 14;29664 ;Walsrode;Niedersachsen;Deutschland;52.896655;9.460039;https://hofladen.info/hofladen/hofladen-joost
Wiesenhof;Wiednitzer Str. 17;2991;Leippe-Torno;Sachsen;Deutschland;51.413890;14.064790;https://hofladen.info/hofladen/wiesenhof
Ziegenhof Wolfsschlucht;Pusack 1;3159;Neiße-Malxetal;Brandenburg;Deutschland;51.589380;14.732620;https://hofladen.info/hofladen/ziegenhof-wolfsschlucht
Agrargenossenschaft Querfurt ;Ahornstraße 27 ;6268;Querfurt;Sachsen-Anhalt;Deutschland;51.377396;11.614395;https://hofladen.info/hofladen/agrargenossenschaft-querfurt
Biohof Stövesandt;Hagen 8;29303;Bergen;Niedersachsen;Deutschland;52.824396;9.966916;https://hofladen.info/hofladen/biohof-stovesandt
Weingut Gruber;Tannenhof 1;74182;Obersulm-Eschenau;Baden-Württemberg;Deutschland;49.136200;9.399030;https://hofladen.info/hofladen/weingut-gruber
Hoflädle Wannenwetsch;Oskar - Bamberg Str. 18;74405;Gaildorf;Baden-Württemberg;Deutschland;48.979560;9.778384;https://hofladen.info/hofladen/hofladle-wannenwetsch
Hofladen Kleeblatt;Am Kloster 1;63683;Ortenberg;Hessen;Deutschland;50.344804;9.022831;https://hofladen.info/hofladen/hofladen-kleeblatt
Voelckes Hofladen;Wernigeröder Str. 61 ;39118;Magdeburg;Sachsen-Anhalt;Deutschland;52.099030;11.597470;https://hofladen.info/hofladen/voelckes-hofladen
Landmetzgerei Wieland;Dürrnast 4;74535;Mainhardt;Baden-Württemberg;Deutschland;49.113162;9.566831;https://hofladen.info/hofladen/landmetzgerei-wieland
Biohof Wildung;Wenzinger Straße 16;29699 ;Bomlitz;Niedersachsen;Deutschland;52.889676;9.682599;https://hofladen.info/hofladen/biohof-wildung
Biohof Wöhler;Lange Str. 15;30938 ;Burgwedel;Niedersachsen;Deutschland;52.561083;9.845351;https://hofladen.info/hofladen/biohof-wohler
Marienteichbaude;Marienteichbaude 1, An der B4;38667;Bad Harzburg;Niedersachsen;Deutschland;51.835833;10.526944;https://hofladen.info/hofladen/marienteichbaude
Sternhof;Weikersholz 8;74585;Rot am See;Baden-Württemberg;Deutschland;49.251290;10.108178;https://hofladen.info/hofladen/sternhof
Le Quartier Christ;Hornbach 5;67433;Neustadt / Weinstraße;Rheinland-Pfalz;Deutschland;49.342096;8.167032;https://hofladen.info/hofladen/le-quartier-christ
Hofgut Amalienberg;Amalienberg 1;76571 ;Gaggenau;Baden-Württemberg;Deutschland;48.802960;8.317267;https://hofladen.info/hofladen/hofgut-amalienberg
Bauernhof Weggun;Fürstenauer Satraße 29;17291;Nordwestuckermark;Brandenburg;Deutschland;53.323275;13.562787;https://hofladen.info/hofladen/bauernhof-weggun
Biolandhof Klischewski;Loch 1;91235;Hartenstein;Bayern;Deutschland;49.566800;11.537040;https://hofladen.info/hofladen/biolandhof-klischewski
Hofgut Ratzenberg;Sedanstr. 55;88161;Lindenberg im Allgäu;Bayern;Deutschland;47.609090;9.875924;https://hofladen.info/hofladen/hofgut-ratzenberg
Hofgut Friedelhausen;Friedelhausen 2;35457;Lollar;Hessen;Deutschland;50.671496;8.711032;https://hofladen.info/hofladen/hofgut-friedelhausen
Sonnengut Gerster;Dietrichsroda 16;6632;Balgstädt;Sachsen-Anhalt;Deutschland;51.175750;11.622670;https://hofladen.info/hofladen/sonnengut-gerster
Milchschafhof Pimpinelle;Lindenstraße 20;15320;Quappendorf;Brandenburg;Deutschland;52.619520;14.265710;https://hofladen.info/hofladen/milchschafhof-pimpinelle
Weingut Thürkind ;Neue Dorfstraße 9 ;6632;Gröst;Sachsen-Anhalt;Deutschland;51.259640;11.845790;https://hofladen.info/hofladen/weingut-thurkind
Moosbeerhütte;Kötnerende 11;29690;Gilten;Niedersachsen;Deutschland;52.706801;9.531181;https://hofladen.info/hofladen/moosbeerhutte
Dülfershof;Dülfershof 26;34537;Bad Wildungen;Hessen;Deutschland;51.091663;8.998565;https://hofladen.info/hofladen/dulfershof
Biohof Stürmer;Ortsstraße 17;90574 ;Roßtal;Bayern;Deutschland;49.362860;10.908416;https://hofladen.info/hofladen/biohof-sturmer
Kreatoffel;Siegburgerstraße 12;56170 ;Bendorf ;Rheinland-Pfalz;Deutschland;50.423949;7.576227;https://hofladen.info/hofladen/kreatoffel
Rattstadter Milch- und Käsehof;Haldenstraße 2/1;73479;Ellwangen;Baden-Württemberg;Deutschland;48.975580;10.168520;https://hofladen.info/hofladen/rattstadter-milch-und-kasehof
Landhof „Am Ziegenried“;Dosdorf 63;99310;Arnstadt;Thüringen;Deutschland;50.791890;10.915280;https://hofladen.info/hofladen/landhof-%E2%80%9Eam-ziegenried%E2%80%9C
Spargelhof Lampe;Katzhagen 9;38176;Wendeburg;Niedersachsen;Deutschland;52.293330;10.405290;https://hofladen.info/hofladen/spargelhof-lampe
Biolandhof Krug;Knallhütterstrasse 32;34225;Baunatal;Hessen;Deutschland;51.258212;9.451680;https://hofladen.info/hofladen/biolandhof-krug
Reisens Hofladen;Borsteler Dorfstraße 64;273283;Verden (Aller);Niedersachsen;Deutschland;52.920920;9.262390;https://hofladen.info/hofladen/reisens-hofladen
Anna Winter;Schafstrift 2;16928;Groß Pankow;Brandenburg;Deutschland;53.148147;11.927259;https://hofladen.info/hofladen/anna-winter
Naturhof Scherhag;Hauptstraße 84;56332;Dieblich/Mosel;Rheinland-Pfalz;Deutschland;50.315913;7.473606;https://hofladen.info/hofladen/naturhof-scherhag
Obsthof Romer;Martin-Schleyer-Straße 23a;78465;Konstanz;Baden-Württemberg;Deutschland;47.713639;9.173364;https://hofladen.info/hofladen/obsthof-romer
Fischhaus-Rosenkranz ;Dessauer Str. 106 ;6366;Köthen;Sachsen-Anhalt;Deutschland;51.764013;11.985700;https://hofladen.info/hofladen/fischhaus-rosenkranz
Lampl Hof;Kirchplatz 2 ;85235 ;Pfaffenhofen an der Glonn;Bayern;Deutschland;48.296775;11.163536;https://hofladen.info/hofladen/lampl-hof
Bienes Hofladen;Waldstraße 9;9557;Flöha;Sachsen;Deutschland;50.846950;13.064540;https://hofladen.info/hofladen/bienes-hofladen
Hof Pleus;Henstedter Str. 15;27243 ;Prinzhöfte;Niedersachsen;Deutschland;52.967382;8.556820;https://hofladen.info/hofladen/hof-pleus
Hofladen Medewege;Hauptstraße 16;19055;Schwerin;Mecklenburg-Vorpommern;Deutschland;53.660480;11.398680;https://hofladen.info/hofladen/hofladen-medewege
Hof Luna;Im Siek 10;31084;Freden;Niedersachsen;Deutschland;51.948900;9.917290;https://hofladen.info/hofladen/hof-luna
Silvis Hofladen ;Harbrookweg 3 100 m In den Harbrookweg, direkt von der L76 ab;25494;Borstel Hohenraden;Schleswig-Holstein;Deutschland;53.702189;9.831526;https://hofladen.info/hofladen/silvis-hofladen
Erdbeer & Kartoffelhof Wendenborstel;Alte Dorfstraße 1;31634 ;Steimbke;Niedersachsen;Deutschland;52.646558;9.441532;https://hofladen.info/hofladen/erdbeer-kartoffelhof-wendenborstel
Tierfairbrik;Falkenberger Str. 2;34576;Hombergshausen;Hessen;Deutschland;51.071430;9.439320;https://hofladen.info/hofladen/tierfairbrik
Geflügelhof Walker;Ludwigsburger Steige 100;71686;Remseck-Aldingen;Baden-Württemberg;Deutschland;48.870681;9.239503;https://hofladen.info/hofladen/geflugelhof-walker
Biolandhof Voigt;Willschütz 13;7619;Schkölen;Thüringen;Deutschland;51.017770;11.821660;https://hofladen.info/hofladen/biolandhof-voigt
Casa Calina;Im Busch 1;16928;Groß Pankow (Prignitz);Brandenburg;Deutschland;53.190027;11.976507;https://hofladen.info/hofladen/casa-calina
Hof Zorn;An der Ganswiese 1;65321;Heidenrod;Hessen;Deutschland;50.163370;7.919160;https://hofladen.info/hofladen/hof-zorn
Harkopfs Hofladen;Rodenberger Straße 20;31655;Stadthagen;Niedersachsen;Deutschland;52.315677;9.237331;https://hofladen.info/hofladen/harkopfs-hofladen
OHNEKUNST;Im Dorfe 14;38489;Beetzendorf;Niedersachsen;Deutschland;52.649590;10.988130;https://hofladen.info/hofladen/ohnekunst
Weingut Heinz J. Schwab;Wassergasse 4;74626;Bretzfeld;Baden-Württemberg;Deutschland;49.169473;9.386116;https://hofladen.info/hofladen/weingut-heinz-j-schwab
Milchhof Zinna;Am Anger 7;4860;Torgau;Sachsen;Deutschland;51.569920;12.954220;https://hofladen.info/hofladen/milchhof-zinna
Hof und Höfle;Weilerstraße 42;73061;Ebersbach;Baden-Württemberg;Deutschland;48.703310;9.504650;https://hofladen.info/hofladen/hof-und-hofle
Kräuterwerkstatt;Zum Brunnenbiegel 8;74585;Rot am See;Baden-Württemberg;Deutschland;49.243810;9.969750;https://hofladen.info/hofladen/krauterwerkstatt
Jungbauernhof;Dietenbach 3;79199;Kirchzarten;Baden-Württemberg;Deutschland;47.953740;7.945800;https://hofladen.info/hofladen/jungbauernhof
Heesehof;Schöninger Str. 4;38382;Beierstedt;Niedersachsen;Deutschland;52.073620;10.858720;https://hofladen.info/hofladen/heesehof
Biolandhof Dicke Eiche;Dicke Eiche 9;49143;Bissendorf;Niedersachsen;Deutschland;52.278540;8.268150;https://hofladen.info/hofladen/biolandhof-dicke-eiche
Jugendlandhof Crussow;Felchower Strasse 15;16278;Angermünde;Brandenburg;Deutschland;53.005672;14.080434;https://hofladen.info/hofladen/jugendlandhof-crussow
Biolandhof Petrik;Am Heulenberg 1;76327;Pfinztal;Baden-Württemberg;Deutschland;49.000788;8.545499;https://hofladen.info/hofladen/biolandhof-petrik
Hennehof;Zur Abgunst 40;34388;Trendelburg;Hessen;Deutschland;51.583910;9.435430;https://hofladen.info/hofladen/hennehof
Landi GmbH;Stapelburger Straße 12;38871;Veckenstedt;Sachsen-Anhalt;Deutschland;51.900760;10.721530;https://hofladen.info/hofladen/landi-gmbh
Stoffers Hoff;Im Dicken Ort 22;27283;Verden (Aller);Niedersachsen;Deutschland;52.907364;9.277905;https://hofladen.info/hofladen/stoffers-hoff
Geflügelhof Burkau;Schulstraße 5 ;01906 ;Burkau;Sachsen;Deutschland;51.179832;14.179376;https://hofladen.info/hofladen/geflugelhof-burkau
Schafscheune Vietschow;Ringstraße 28;17168;Vietschow;Mecklenburg-Vorpommern;Deutschland;53.904170;12.539860;https://hofladen.info/hofladen/schafscheune-vietschow
Bauernhof Franz;Dorfstraße 12;1156;Dresden;Sachsen;Deutschland;51.094630;13.642750;https://hofladen.info/hofladen/bauernhof-franz
LDZ GmbH ;Siedlungsstraße 17a ;6231;Bad Dürrenberg;Sachsen-Anhalt;Deutschland;51.307647;12.071955;https://hofladen.info/hofladen/ldz-gmbh
Marstall Boitzenburg;Templiner Straße 5;17268;Boitzenburger Land;Brandenburg;Deutschland;53.262174;13.604238;https://hofladen.info/hofladen/marstall-boitzenburg
Hofladen Metz;Gaisbacher Str. 18;74632;Neuenstein;Baden-Württemberg;Deutschland;49.276679;9.688127;https://hofladen.info/hofladen/hofladen-metz
Agrar GmbH Kraatz;Buberower Weg 10;16775;Gransee;Brandenburg;Deutschland;52.973950;13.187977;https://hofladen.info/hofladen/agrar-gmbh-kraatz
Villa Kunterbunt;Zinnowitzer Str. 6 ;17440 ;Neuendorf;Mecklenburg-Vorpommern;Deutschland;54.034612;13.889078;https://hofladen.info/hofladen/villa-kunterbunt
Hof Peter Soltau;Höfnerwinkel 15;29358;Eicklingen;Niedersachsen;Deutschland;52.560210;10.180020;https://hofladen.info/hofladen/hof-peter-soltau
Müritzhof Knust;Dorfstraße 9;17192;Klink-Sembzin;Mecklenburg-Vorpommern;Deutschland;53.463410;12.606670;https://hofladen.info/hofladen/muritzhof-knust
Schafmilchkäserei Jaare ;Wiesenweg 1 ;39264;Lindau;Sachsen-Anhalt;Deutschland;52.040594;12.114655;https://hofladen.info/hofladen/schafmilchkaserei-jaare
Stapflehus;Mühlenstrasse 2;79589;Binzen;Baden-Württemberg;Deutschland;47.631669;7.624656;https://hofladen.info/hofladen/stapflehus
Regenbogenhof;Alte Bahnhofstraße 6;17291;Nordwestuckermark;Brandenburg;Deutschland;53.396419;13.692768;https://hofladen.info/hofladen/regenbogenhof
Bauer Stolze;An der Kapelle 5 ;31311 ;Uetze;Niedersachsen;Deutschland;52.411770;10.137750;https://hofladen.info/hofladen/bauer-stolze
Geflügelzucht Egon Müller;Steinfeld 2;75146;Aspach;Baden-Württemberg;Deutschland;49.014800;9.368570;https://hofladen.info/hofladen/geflugelzucht-egon-muller
Hof Stolze Kuh;Weinbergstraße 6a;16248;Lunow;Brandenburg;Deutschland;52.945482;14.100840;https://hofladen.info/hofladen/hof-stolze-kuh
Käsehof Rozenburg-Pilsum;Tjücherweg 1;26736;Pilsum;Niedersachsen;Deutschland;53.475630;7.077320;https://hofladen.info/hofladen/kasehof-rozenburg-pilsum
Bauer Lipp;Steinbrücker Hof;64331;Weiterstadt;Hessen;Deutschland;49.899280;8.588100;https://hofladen.info/hofladen/bauer-lipp
Ziegenhof Lauterbach;Dorfstraße 110;1833;Stolpen;Sachsen;Deutschland;51.067180;14.128050;https://hofladen.info/hofladen/ziegenhof-lauterbach
Jesser Mühle;Neuenstadter Str.21;74239;Hardthausen - Kochersteinsfeld;Baden-Württemberg;Deutschland;49.240492;9.399277;https://hofladen.info/hofladen/jesser-muhle
Weinbau Seeliger;Gestewitzer Straße 1;06618;Naumburg;Sachsen-Anhalt;Deutschland;51.088650;11.842490;https://hofladen.info/hofladen/weinbau-seeliger
Hofladen Großzöbern;Plauener Landstr. 12;8538;Weischlitz ;Sachsen;Deutschland;50.448688;12.058307;https://hofladen.info/hofladen/hofladen-gro%C3%9Fzobern
Siegel Kaffeerösterei;Sulzdorfer Str. 34;74523;Schwäbisch Hall;Baden-Württemberg;Deutschland;49.107733;9.778130;https://hofladen.info/hofladen/siegel-kaffeerosterei
Ostseebienen;;;;;;;;https://hofladen.info/hofladen/ostseebienen
Biolandhof Thomas Hägele;Ziegelstr.8;74424;Bühlertann;Baden-Württemberg;Deutschland;49.040340;9.908450;https://hofladen.info/hofladen/biolandhof-thomas-hagele
Ostermeierhof;Ostermeierstraße 24;27324;Hassel;Niedersachsen;Deutschland;52.797760;9.209250;https://hofladen.info/hofladen/ostermeierhof
Hof Haltermann;Am Hodenberger Deich 36;28355;Bremen;Bremen;Deutschland;53.089186;8.950200;https://hofladen.info/hofladen/hof-haltermann
Biolandhof Gutheiß;Stegwiesenstraße 93;74423;Obersontheim;Baden-Württemberg;Deutschland;49.071460;9.882327;https://hofladen.info/hofladen/biolandhof-guthei%C3%9F
Spargelhof Simianer;In den Steegwiesen 1;14547;Beelitz;Brandenburg;Deutschland;52.291444;12.831494;https://hofladen.info/hofladen/spargelhof-simianer
AschauTeiche;Aschauteiche 1;29348;Eschede;Niedersachsen;Deutschland;52.751234;10.265268;https://hofladen.info/hofladen/aschauteiche
Müllers Hausmacher Lädle;Schloss Schmiedelfeld 2;74429;Sulzbach - Laufen;Baden-Württemberg;Deutschland;48.965877;9.852850;https://hofladen.info/hofladen/mullers-hausmacher-ladle
Lenzbauer Naturland-Hof;Landshuter Straße 18;93354;Siegenburg;Bayern;Deutschland;48.752730;11.852270;https://hofladen.info/hofladen/lenzbauer-naturland-hof
Wasserbüffelhof Warpe;Haus Nr. 9;27333;Warpe;Niedersachsen;Deutschland;53.793070;7.901690;https://hofladen.info/hofladen/wasserbuffelhof-warpe
Arche Warder;Langwedeler Weg 11;24646 ;Warder;Schleswig-Holstein;Deutschland;54.217864;9.906339;https://hofladen.info/hofladen/arche-warder
Die Dobbertiner;Schulstraße 17;19399;Dobbertin;Mecklenburg-Vorpommern;Deutschland;53.619925;12.062931;https://hofladen.info/hofladen/die-dobbertiner
Schafhof Landwehr;Landwehr 21;15938;Golßen;Brandenburg;Deutschland;51.961810;13.588970;https://hofladen.info/hofladen/schafhof-landwehr
Geflügelhof Breisch;Binselberg 22;74582;Gerabronn;Baden-Württemberg;Deutschland;49.233881;9.881460;https://hofladen.info/hofladen/geflugelhof-breisch
Obst- und Gemüsehof Schopferer;In der Breite 1;79588;Egringen;Baden-Württemberg;Deutschland;47.663999;7.597759;https://hofladen.info/hofladen/obst-und-gemusehof-schopferer
Böhringer Obst;Mainhardter Str.23;74629;Untersteinbach;Baden-Württemberg;Deutschland;49.138602;9.571006;https://hofladen.info/hofladen/bohringer-obst
Siebengiebelhof;Alte Dorfstraße 10;19376;Drenkow;Mecklenburg-Vorpommern;Deutschland;53.316810;12.007170;https://hofladen.info/hofladen/siebengiebelhof
Korn-Hof;Schleifweg 40;74336;Brackenheim-Brotenheim;Baden-Württemberg;Deutschland;49.057476;9.057408;https://hofladen.info/hofladen/korn-hof
Milchschafhof Brünjes;Ostendorf 51;27432;Bremervörde;Niedersachsen;Deutschland;53.584970;9.148100;https://hofladen.info/hofladen/milchschafhof-brunjes
Winzerhof Stahl;Lange Dorfstraße 21;97215;Auernhofen;Bayern;Deutschland;49.523223;10.104612;https://hofladen.info/hofladen/winzerhof-stahl
Lavendel Grimme;Bergstrasse 1 ;17326 ;Bruessow;Brandenburg;Deutschland;53.399320;14.126720;https://hofladen.info/hofladen/lavendel-grimme
Klausenhof;Waldstetter Weg 1;73529;Schwäbisch Gmünd;Baden-Württemberg;Deutschland;48.752990;9.798730;https://hofladen.info/hofladen/klausenhof
Ziegenhof Matzen;Aussiedlungshof 7;25938;Oevenum;Schleswig-Holstein;Deutschland;54.745100;8.556740;https://hofladen.info/hofladen/ziegenhof-matzen
Ellas Lädchen;Dornburger Str. 26;07778;Neuengönna;Thüringen;Deutschland;50.988593;11.648918;https://hofladen.info/hofladen/ellas-ladchen
Röpers Hof;Am Kirchweg 6;27383;Scheeßel;Niedersachsen;Deutschland;53.128750;9.464550;https://hofladen.info/hofladen/ropers-hof
Thiele's Milchtankstelle;Wehretalstr. 8;37269;Eschwege;Hessen;Deutschland;51.184837;10.004316;https://hofladen.info/hofladen/thiele-s-milchtankstelle
Ökohof Fläming ;Schopsdorfer Dorfstr. 2;39291;Schopsdorf;Sachsen-Anhalt;Deutschland;52.233601;12.227076;https://hofladen.info/hofladen/okohof-flaming
Weingut Busch;Greuthof 1;74626;Bretzfeld;Baden-Württemberg;Deutschland;49.170632;9.375442;https://hofladen.info/hofladen/weingut-busch
Hof EmsAuen;Im Brook 5;26899;Rhede;Niedersachsen;Deutschland;53.073500;7.302710;https://hofladen.info/hofladen/hof-emsauen
Ziegenhof Lauterbach;Dorfstraße 110 ;01833 ;Stolpen;Sachsen;Deutschland;51.067079;14.128531;https://hofladen.info/hofladen/ziegenhof-lauterbach-2
Auentalhof;Alte Landstraße 16;69488;Birkenau;Hessen;Deutschland;49.546305;8.764216;https://hofladen.info/hofladen/auentalhof
Stiftsgut Wilhelmsglücksbrunn;Wilhelmsglücksbrunn;99831;Creuzburg;Thüringen;Deutschland;51.040680;10.230030;https://hofladen.info/hofladen/stiftsgut-wilhelmsglucksbrunn
Weingut Udo Engelhardt;Kirchplatz 18;97285;Röttingen;Bayern;Deutschland;49.509990;9.968060;https://hofladen.info/hofladen/weingut-udo-engelhardt
Kay Reichert;Hohenloher Str. 119;74243;Langenbrettach;Baden-Württemberg;Deutschland;49.184036;9.233035;https://hofladen.info/hofladen/kay-reichert
Hofladen Schloß Eichicht ;Schloßstraße 1;07338;Kaulsdorf ;Thüringen;Deutschland;50.607902;11.440252;https://hofladen.info/hofladen/hofladen-schlo%C3%9F-eichicht
Schafshofkäserei Clodramühle;Clodramühle 2;7980;Berga/Elster;Thüringen;Deutschland;50.759594;12.131404;https://hofladen.info/hofladen/schafshofkaserei-clodramuhle
Agrozuchtfarm Breitenau;Straße des Friedens 90;9569;Oederan;Sachsen;Deutschland;50.843660;13.163360;https://hofladen.info/hofladen/agrozuchtfarm-breitenau
Osterland Teuchern;Straße nach Trebnitz 12;06682;Teuchern;Sachsen-Anhalt;Deutschland;51.110560;12.037260;https://hofladen.info/hofladen/osterland-teuchern
Landmetzgerei Sandritter;Schatzgrundhof 1 20;69168;Wiesloch-Baiertal;Baden-Württemberg;Deutschland;49.294898;8.758030;https://hofladen.info/hofladen/landmetzgerei-sandritter
Landgut Klamroth;Westerhäuser Schützenplatz 1;6502;Thale;Sachsen-Anhalt;Deutschland;51.810460;11.060040;https://hofladen.info/hofladen/landgut-klamroth
Templiner Landprodukte;Lychener Str. 28;17268;Templin;Brandenburg;Deutschland;53.127410;13.486662;https://hofladen.info/hofladen/templiner-landprodukte
Gut Darß;Am Wald 26;18375;Born am Darß;Mecklenburg-Vorpommern;Deutschland;54.387480;12.522090;https://hofladen.info/hofladen/gut-dar%C3%9F
Birkenhof;Birkenhöfe 3;74677;Dörzbach;Baden-Württemberg;Deutschland;49.384540;9.725770;https://hofladen.info/hofladen/birkenhof-3
Lepkeshof;Mühlenstraße 128;46047;Oberhausen;Nordrhein-Westfalen;Deutschland;51.472223;6.898647;https://hofladen.info/hofladen/lepkeshof
Ilken Milchautomat;Wildunger Strasse 2;34549;Edertal;Hessen;Deutschland;51.156613;9.122725;https://hofladen.info/hofladen/ilken-milchautomat
Hof Brüning;Moorender Str. 32;2885 ;Lilienthal;Bremen;Deutschland;53.192026;8.962496;https://hofladen.info/hofladen/hof-bruning
Hofbäckerei Schmidt;Dornwiesenhof 1;74427;Fichtenberg;Baden-Württemberg;Deutschland;48.988090;9.747720;https://hofladen.info/hofladen/hofbackerei-schmidt
Rokitta's Kaffeemanufaktur;Gremersdorfer Str. 7;18461;Gremersdorf-Buchholz;Mecklenburg-Vorpommern;Deutschland;54.129832;12.883409;https://hofladen.info/hofladen/rokitta-s-kaffeemanufaktur
Hof Wittschap;Rendsburger Landtraße 510 ;24111 ;Kiel;Schleswig-Holstein;Deutschland;54.303490;10.046810;https://hofladen.info/hofladen/hof-wittschap
Hofladen Wittingen-Darrigsdorf;Darrigsdorf 7;29378;Wittingen;Niedersachsen;Deutschland;52.734028;10.700974;https://hofladen.info/hofladen/hofladen-wittingen-darrigsdorf
Stautenhof;Darderhöfe 1a;47877 ;Willich;Nordrhein-Westfalen;Deutschland;51.282524;6.472568;https://hofladen.info/hofladen/stautenhof
Straußenhof Heidekreis;Vierde 4 ;29683 ;Bad Fallingbostel;Niedersachsen;Deutschland;52.883541;9.734521;https://hofladen.info/hofladen/strau%C3%9Fenhof-heidekreis
Hofladen Probst ;Siebigeröder Straße 2 ;6308;Benndorf;Sachsen-Anhalt;Deutschland;51.567601;11.482820;https://hofladen.info/hofladen/hofladen-probst
Obsthof Hertle;Ludwigshafener Str. 34;78333;Stockach;Baden-Württemberg;Deutschland;47.843673;9.017962;https://hofladen.info/hofladen/obsthof-hertle
Kartoffelhof Moorschlatt;Wildeshauser Landstraße 103;27777;Ganderkesee;Niedersachsen;Deutschland;52.975449;8.523530;https://hofladen.info/hofladen/kartoffelhof-moorschlatt
Spargelgut Meyer;Sattelhof 8;29693;Kirchwahlingen;Niedersachsen;Deutschland;52.783760;9.414290;https://hofladen.info/hofladen/spargelgut-meyer
Hofladen zum Storchennest;Dorfstr. 20;14715;Nennhausen;Brandenburg;Deutschland;52.608791;12.502042;https://hofladen.info/hofladen/hofladen-zum-storchennest
Biohof Franke;Leipziger Straße 215;8451;Crimmitschau;Sachsen;Deutschland;50.838738;12.390645;https://hofladen.info/hofladen/biohof-franke
Arpshof;Am Schulberg 6 ;21279 ;Dierstorf;Niedersachsen;Deutschland;53.348046;9.759489;https://hofladen.info/hofladen/arpshof
Hof Schünemann;Barmer Kirchweg 3;27313;Dörverden;Niedersachsen;Deutschland;52.835260;9.205200;https://hofladen.info/hofladen/hof-schunemann
Sigrid Fleisch GbR;Geddelsbacher Str. 20;74629;Pfedelbach ;Baden-Württemberg;Deutschland;49.155024;9.498478;https://hofladen.info/hofladen/sigrid-fleisch-gbr
Stapf's Hoflädle;Birkenhöfe 2;74626;Bretzfeld ;Baden-Württemberg;Deutschland;49.189550;9.426070;https://hofladen.info/hofladen/stapf-s-hofladle
Bauckhof Amelinghausen;Triangel 2;21385;Amelinghausen;Niedersachsen;Deutschland;53.133650;10.219770;https://hofladen.info/hofladen/bauckhof-amelinghausen
Schluchters Weinstube;Ruländerweg 3;74629;Pfedelbach;Baden-Württemberg;Deutschland;49.170958;9.527179;https://hofladen.info/hofladen/schluchters-weinstube
Hofladen Hohnhorst;Hauptstr. 25 ;31559 ;Nenndorf;Niedersachsen;Deutschland;52.368518;9.372931;https://hofladen.info/hofladen/hofladen-hohnhorst
Stellshagen&Meer;Ostseeallee 110;23946;Boltenhagen;Mecklenburg-Vorpommern;Deutschland;53.979320;11.233260;https://hofladen.info/hofladen/stellshagen-meer
Obsthof Brändlin;Lindenstraße 1;79588;Efringen-Kirchen;Baden-Württemberg;Deutschland;47.672488;7.547778;https://hofladen.info/hofladen/obsthof-brandlin
Dorfkäserei Geifertshofen;Bachstraße 2;74426;Bühlerzell;Baden-Württemberg;Deutschland;49.007451;9.894228;https://hofladen.info/hofladen/dorfkaserei-geifertshofen
Feddersens Farm;Westerende 9;25885;Immenstedt;Schleswig-Holstein;Deutschland;54.538180;9.156910;https://hofladen.info/hofladen/feddersens-farm
Ritters Gemüsekiste;Mühlenbachweg 6;21227;Bendestorf;Niedersachsen;Deutschland;53.330090;9.982446;https://hofladen.info/hofladen/ritters-gemusekiste
Hof Gletzow;Dorfstraße 35;19217;Gletzow;Mecklenburg-Vorpommern;Deutschland;53.804634;11.045092;https://hofladen.info/hofladen/hof-gletzow
Frische Eier;Lichtentann 42;15838;Am Mellensee;Brandenburg;Deutschland;52.172300;13.394240;https://hofladen.info/hofladen/frische-eier
Jambo Straußenfarm;Kreblitzer Straße 3;15926;Luckau;Brandenburg;Deutschland;51.903850;13.689837;https://hofladen.info/hofladen/jambo-strau%C3%9Fenfarm
Bio Ranch Zempow;Birkenallee 12;16909;Wittstock;Brandenburg;Deutschland;53.212705;12.728837;https://hofladen.info/hofladen/bio-ranch-zempow
Forellenhof Ermisch;Anbau 66 ;01844 ;Neustadt;Sachsen;Deutschland;51.006735;14.224725;https://hofladen.info/hofladen/forellenhof-ermisch
Kräuter Heidi;Kammeroder Weg 4;14548 ;Schwielowsee;Brandenburg;Deutschland;52.312055;12.918663;https://hofladen.info/hofladen/krauter-heidi
Landschaftspflege- und Ziegenhof ;Friedeburger Straße 9 ;6347;Gerbstedt;Sachsen-Anhalt;Deutschland;51.630893;11.704296;https://hofladen.info/hofladen/landschaftspflege-und-ziegenhof
Landimkerei Garten;Oberersdorfer Str. 2;01920;Haselbachtal;Sachsen;Deutschland;51.225068;14.058530;https://hofladen.info/hofladen/landimkerei-garten
Braunsberger Höfe;Dorfstraße 26;16818;Braunsberg;Brandenburg;Deutschland;53.049232;12.834325;https://hofladen.info/hofladen/braunsberger-hofe
Naturhof Vogtland;Weststraße 51;08485;Lengenfeld;Sachsen;Deutschland;50.566020;12.341018;https://hofladen.info/hofladen/naturhof-vogtland
Straussenfarm Bose;Kastanienweg 7;06295;Eisleben;Sachsen-Anhalt;Deutschland;51.465785;11.513725;https://hofladen.info/hofladen/straussenfarm-bose
Vielfruchthof Domstiftsgut Mötzow;Gutshof 1;14778;Beetzseeheide;Brandenburg;Deutschland;52.463790;12.591530;https://hofladen.info/hofladen/vielfruchthof-domstiftsgut-motzow
Marienhof Erfurt;Leipziger Str. 158;99085;Erfurt;Thüringen;Deutschland;50.996357;11.071478;https://hofladen.info/hofladen/marienhof-erfurt
Hofladen Vaterstetten;Baldhamer Str. 99;85591 ;Vaterstetten;Bayern;Deutschland;48.112190;11.783053;https://hofladen.info/hofladen/hofladen-vaterstetten
Ökodorf Brodowin Dorfladen;Weißensee 1;16230;Chorin;Brandenburg;Deutschland;52.915410;13.941750;https://hofladen.info/hofladen/okodorf-brodowin-dorfladen
Hof Mügge;Postberg 1;27313;Dörverden;Niedersachsen;Deutschland;52.848850;9.227236;https://hofladen.info/hofladen/hof-mugge
Hofladen Vorsee;Vorsee 12;88284;Wolpertswende;Baden-Württemberg;Deutschland;47.889005;9.582330;https://hofladen.info/hofladen/hofladen-vorsee
Schoderhof;Edensbach 191;88289;Waldburg;Baden-Württemberg;Deutschland;47.755820;9.739440;https://hofladen.info/hofladen/schoderhof
Ziegenalm Sophienhof;Dorfstr. 44;99768;Sophienhof ;Thüringen;Deutschland;51.633270;10.789960;https://hofladen.info/hofladen/ziegenalm-sophienhof
Imkerei Voigthof;Paulmannshavekost 2b;29358;Eicklingen;Niedersachsen;Deutschland;52.542336;10.230992;https://hofladen.info/hofladen/imkerei-voigthof
Gärtnerei Sommerfeld ;Kuhzer Weg 5;17268;Boitzenburger Land;Brandenburg;Deutschland;53.243019;13.645601;https://hofladen.info/hofladen/gartnerei-sommerfeld
Stimbekhof;Oberhaverbeck 2;29646;Bispingen;Niedersachsen;Deutschland;53.145021;9.920885;https://hofladen.info/hofladen/stimbekhof
Meyerdierks Hofladen;Moor­hau­ser Land­straße 33 ;28865;Lili­en­thal;Niedersachsen;Deutschland;53.153781;8.912653;https://hofladen.info/hofladen/meyerdierks-hofladen
Hofladen Brodowin;Brodowiner Dorfstraße 89;16230;Chorin;Brandenburg;Deutschland;52.914842;13.956062;https://hofladen.info/hofladen/hofladen-brodowin
Herzapfelhof Lühs ;Osterjork 102 ;21635;Jork;Niedersachsen;Deutschland;53.528730;9.697730;https://hofladen.info/hofladen/herzapfelhof-luhs
Hof Havelsee;Kaltenhausen 3;14798;Havelsee;Brandenburg;Deutschland;52.416793;12.431438;https://hofladen.info/hofladen/hof-havelsee
Demeter Hofladen Hermersberg;Hermergsberg 7;74676;Niedernhall;Baden-Württemberg;Deutschland;49.275366;9.600738;https://hofladen.info/hofladen/demeter-hofladen-hermersberg
Werner - Der Spargelhof;Kirchweg 6;21717;Deinste;Niedersachsen;Deutschland;53.522434;9.443105;https://hofladen.info/hofladen/werner-der-spargelhof
Gemüsebaubetrieb Spreewald Marcel Mich;Lübbenauer Str. 12;03222;Lübbenau;Brandenburg;Deutschland;51.869425;13.883366;https://hofladen.info/hofladen/gemusebaubetrieb-spreewald-marcel-mich
Bio-Hof Mayer;Hengelgasse 1;74423;Obersontheim;Baden-Württemberg;Deutschland;49.024702;9.846387;https://hofladen.info/hofladen/bio-hof-mayer
Spargelgut Wasserschloss;Wasserschloßweg 20;74921;Helmstadt-Bargen;Baden-Württemberg;Deutschland;49.323110;8.979160;https://hofladen.info/hofladen/spargelgut-wasserschloss
Gut Hirschaue;An der Hirschaue 2;15848;Rietz-Neuendorf;Brandenburg;Deutschland;52.200218;14.192690;https://hofladen.info/hofladen/gut-hirschaue
Seebodenhof;Seeboden 1;79588;Efringen-Kirchen;Baden-Württemberg;Deutschland;47.662246;7.571484;https://hofladen.info/hofladen/seebodenhof
Hofgut Rüttehof;Rüttehof 1;79400;Kandern-Wollbach;Baden-Württemberg;Deutschland;47.680270;7.651377;https://hofladen.info/hofladen/hofgut-ruttehof
Obst- und Gemüsehof Müller;Große Gaß 11;79576;Weil a. Rh.;Baden-Württemberg;Deutschland;47.615521;7.617894;https://hofladen.info/hofladen/obst-und-gemusehof-muller
Landgut Schönwalde;Dorfstraße 31;14621;Schönwalde-Glien;Brandenburg;Deutschland;52.621542;13.126038;https://hofladen.info/hofladen/landgut-schonwalde
Familie Wegner;Schwarzweiler 12;74670;Forchtenberg;Baden-Württemberg;Deutschland;49.270279;9.567786;https://hofladen.info/hofladen/familie-wegner
Gut Pesterwitz;An der Winzerei 1b;1705;Freital ;Sachsen;Deutschland;51.027130;13.651151;https://hofladen.info/hofladen/gut-pesterwitz
Bauernhof Hertel;Teichweg 18;8371;Glauchau;Sachsen;Deutschland;50.821539;12.499067;https://hofladen.info/hofladen/bauernhof-hertel
Hedwigshof;Durlacherstrasse 36;76275;Ettlingen;Baden-Württemberg;Deutschland;48.958120;8.430439;https://hofladen.info/hofladen/hedwigshof
Straußenfarm Lohsa;Am Park 12;2999;Lohsa;Sachsen;Deutschland;51.394209;14.397211;https://hofladen.info/hofladen/strau%C3%9Fenfarm-lohsa
Schäferei Schuster;Ostorfer Straße 2;39615;Beuster;Brandenburg;Deutschland;52.938184;11.790883;https://hofladen.info/hofladen/schaferei-schuster
Reutebachhof Milchschafspezialitäten;Reutebachhof 1;74426;Bühlerzell - Geifertshofen;Baden-Württemberg;Deutschland;49.004423;9.884847;https://hofladen.info/hofladen/reutebachhof-milchschafspezialitaten
Spreewaldkiste;Maiberg 1A;03054;Cottbus;Brandenburg;Deutschland;51.840590;14.344659;https://hofladen.info/hofladen/spreewaldkiste
Jakobs-Hof Beelitz;Kähnsdorfer Weg 1a;14547;Beelitz;Brandenburg;Deutschland;52.251992;12.987603;https://hofladen.info/hofladen/jakobs-hof-beelitz
Landgeschmack;Göriker Dorfstraße 13;16866;Görike;Brandenburg;Deutschland;52.943858;12.203530;https://hofladen.info/hofladen/landgeschmack
Ziegenkäserei und Wiesencafe Karolinenhof;Karolinenhof 1;16766;Kremmen;Brandenburg;Deutschland;52.712698;12.867927;https://hofladen.info/hofladen/ziegenkaserei-und-wiesencafe-karolinenhof
Hofladen am Rotdorn;Rosenstr.4;29386;Obernholz;Niedersachsen;Deutschland;52.744115;10.602284;https://hofladen.info/hofladen/hofladen-am-rotdorn
Familie Grässlin;Dorfstrasse 42a;79597;Schallbach;Baden-Württemberg;Deutschland;47.656740;7.627303;https://hofladen.info/hofladen/familie-grasslin
Seenfischerei Krempig;Beenzhof 1;17279;Lychen;Brandenburg;Deutschland;53.253579;13.343673;https://hofladen.info/hofladen/seenfischerei-krempig
Kloster Pforta;Saalberge 73;06628;Bad Kösen;Sachsen-Anhalt;Deutschland;51.150990;11.731877;https://hofladen.info/hofladen/kloster-pforta
Straußenhof Scholz ;Stichelsdorfer Weg 24 ;6188;Landsberg;Sachsen-Anhalt;Deutschland;51.501435;12.035664;https://hofladen.info/hofladen/strau%C3%9Fenhof-scholz
Gut Glüsig;Dorfstraße 109;39343;Ackendorf;Sachsen-Anhalt;Deutschland;52.244416;11.450405;https://hofladen.info/hofladen/gut-glusig
Wildhof Müncheberg;Florastraße 21;15374;Müncheberg;Brandenburg;Deutschland;52.505095;14.115982;https://hofladen.info/hofladen/wildhof-muncheberg
CHÄS CHUCHI ;Wehratalstr 12;79650;Schopfheim;Baden-Württemberg;Deutschland;47.697898;7.932462;https://hofladen.info/hofladen/chas-chuchi
Pension Moritz & Hofladen;Schwedter Straße 1;16306;Berkholz-Meyenburg;Brandenburg;Deutschland;53.041534;14.248748;https://hofladen.info/hofladen/pension-moritz-hofladen
So Bio Laden-Weckelweiler Werkstätten;Heinstr. 16;74592 ;Kirchberg/Jagst;Baden-Württemberg;Deutschland;49.206091;9.983054;https://hofladen.info/hofladen/so-bio-laden-weckelweiler-werkstatten
Obsthof Harms ;Hohenwischer Straße 107 ;21129;Hamburg;Hamburg;Deutschland;53.507910;9.872630;https://hofladen.info/hofladen/obsthof-harms
Hofladen Fuchs;Hauptstr 42;66957;Trulben;Rheinland-Pfalz;Deutschland;49.138941;7.542388;https://hofladen.info/hofladen/hofladen-fuchs
Arnhofer Stadl;Gut Arnhofen;86570;Inchenhofen;Bayern;Deutschland;48.508219;11.103637;https://hofladen.info/hofladen/arnhofer-stadl
Heermanns Blaubeerland;Grethemer Hauptstraße 35;29690;Grethem;Niedersachsen;Deutschland;52.728220;9.571970;https://hofladen.info/hofladen/heermanns-blaubeerland
Simons Hofladen;Unterer Weiler 3;74545;Michelfeld;Baden-Württemberg;Deutschland;49.129029;9.597007;https://hofladen.info/hofladen/simons-hofladen
Winzerhof Gussek ;Kösener Straße 66 ;6618;Naumburg;Sachsen-Anhalt;Deutschland;51.151460;11.787502;https://hofladen.info/hofladen/winzerhof-gussek
Bürgin Hof Binzen;Rümmingerstrasse 10;79589;Binzen;Baden-Württemberg;Deutschland;47.616858;7.654304;https://hofladen.info/hofladen/burgin-hof-binzen
Rebenhof Ferdinand Fröscher;Weißbacher Str.6;74670;Forchtenberg;Baden-Württemberg;Deutschland;49.289343;9.565147;https://hofladen.info/hofladen/rebenhof-ferdinand-froscher
Werner Brosi;Im Kornfeld 5;71696;Möglingen;Baden-Württemberg;Deutschland;48.863420;9.138290;https://hofladen.info/hofladen/werner-brosi
Spargelhof Walter;Ludwigstr. 50;67161;Gönnheim;Rheinland-Pfalz;Deutschland;49.447905;8.238913;https://hofladen.info/hofladen/spargelhof-walter
Gut Ogrosen;Ogrosener Dorfstr. 35;03226;Vetschau;Brandenburg;Deutschland;51.711900;14.040980;https://hofladen.info/hofladen/gut-ogrosen
Schmidt´s Most Besen;Eckarrot 3;74586;Frankenhardt;Baden-Württemberg;Deutschland;49.053260;10.064160;https://hofladen.info/hofladen/schmidt%C2%B4s-most-besen
Dreiseithof Sohra;Ortsstraße 28;9627;Sohra;Sachsen;Deutschland;50.885620;13.479930;https://hofladen.info/hofladen/dreiseithof-sohra
Weingut Konrad Schlör;Martin-SchlörStraße 22;97877;Wertheim-Reicholzheim;Baden-Württemberg;Deutschland;49.727130;9.535260;https://hofladen.info/hofladen/weingut-konrad-schlor
Nöhrenhof;Im Jägerwinkel 2;31275;Lehrte;Niedersachsen;Deutschland;52.369990;9.984920;https://hofladen.info/hofladen/nohrenhof
Weinmanufaktur Ingelfinger Fass;Schloßstr. 14;74653;Ingelfingen;Baden-Württemberg;Deutschland;49.300802;9.652167;https://hofladen.info/hofladen/weinmanufaktur-ingelfinger-fass
Agrar- und Absatzgenossenschaft eG Naumburg;Hallesche Str. 73;06618;Naumburg;Sachsen-Anhalt;Deutschland;51.161760;11.820090;https://hofladen.info/hofladen/agrar-und-absatzgenossenschaft-eg-naumburg
Martinshof;In der Brombach 6;66606;St. Wendel;Saarland;Deutschland;49.493210;7.272490;https://hofladen.info/hofladen/martinshof
Der kleine Hofladen in Altmühlfranken/Schlungenhof;Ansbacher Str.48;91710;Gunzenhausen;Bayern;Deutschland;49.126343;10.750490;https://hofladen.info/hofladen/der-kleine-hofladen-in-altmuhlfranken-schlungenhof
Spargelhof Santelmann;Burgstr. 20;29342;Wienhausen;Niedersachsen;Deutschland;52.576847;10.281899;https://hofladen.info/hofladen/spargelhof-santelmann
Hofladen Landgut Pretschen;Am Landgut 2;15913;Märkische Heide;Brandenburg;Deutschland;52.090390;13.997780;https://hofladen.info/hofladen/hofladen-landgut-pretschen
Weingut Krebs;Birkenweg 48;79589;Binzen;Baden-Württemberg;Deutschland;47.633940;7.611742;https://hofladen.info/hofladen/weingut-krebs
Hof Icken;Hörn 4 · ;27607 ;Geestland-Sievern;Niedersachsen;Deutschland;53.647820;8.598523;https://hofladen.info/hofladen/hof-icken
Föhrer Inselkäse;Hauptstraße 9;25938;Alkersum;Schleswig-Holstein;Deutschland;54.708690;8.507300;https://hofladen.info/hofladen/fohrer-inselkase
Schäferhof Neuenkirchen;Hauptstrasse 1-3 ;29643 ;Neuenkirchen;Niedersachsen;Deutschland;53.032447;9.707922;https://hofladen.info/hofladen/schaferhof-neuenkirchen
Früchte-Frank;Erlenbacher Weg 45;74189;Weinsberg;Baden-Württemberg;Deutschland;49.173700;9.290560;https://hofladen.info/hofladen/fruchte-frank
Rhönhof Henkel;Mahlertsmühle 3;36145;Hofbieber;Hessen;Deutschland;50.607660;9.938930;https://hofladen.info/hofladen/rhonhof-henkel
Juchems Hof;Lindenstraße 15;56357;Niederwallmenach;Rheinland-Pfalz;Deutschland;50.166190;7.811830;https://hofladen.info/hofladen/juchems-hof
Milchschafhof Bärenstein;Feilenweg 3;1773;Altenberg;Sachsen;Deutschland;50.807750;13.774220;https://hofladen.info/hofladen/milchschafhof-barenstein
Laaser Einkaufscenter;Klingenhainer Straße 1;4758;Liebschützberg;Sachsen;Deutschland;51.367540;13.146420;https://hofladen.info/hofladen/laaser-einkaufscenter
Straußenhof Berkenlatten;Berkenlatten 7;17268;Gerswalde;Brandenburg;Deutschland;53.140410;13.758550;https://hofladen.info/hofladen/strau%C3%9Fenhof-berkenlatten
Lübbes Kartoffelscheune;Dorfstr. 29;31303;Burgdorf;Niedersachsen;Deutschland;52.443710;9.976520;https://hofladen.info/hofladen/lubbes-kartoffelscheune
Hofgut Sonnenschein;Dorfstr. 33;79592;Fischingen;Baden-Württemberg;Deutschland;47.651305;7.597112;https://hofladen.info/hofladen/hofgut-sonnenschein
Lotta Landmilch;Memelweg 1;37284;Waldkappel;Hessen;Deutschland;51.117723;9.819347;https://hofladen.info/hofladen/lotta-landmilch
Schäferei Hullerbusch;Hullerbusch 2;17258;Feldberger Seenlandschaft;Mecklenburg-Vorpommern;Deutschland;53.321330;13.444240;https://hofladen.info/hofladen/schaferei-hullerbusch
Hielscher Hof;Krähwinkel 4;42799;Leichlingen;Nordrhein-Westfalen;Deutschland;51.112954;7.100069;https://hofladen.info/hofladen/hielscher-hof
Spargelhof Kremmen;Groß-Ziethener Weg 2;16766;Kremmen;Brandenburg;Deutschland;52.755949;13.033614;https://hofladen.info/hofladen/spargelhof-kremmen
Haus Lichtenhain;Lichtenhain 25;17268;Boitzenburger Land;Brandenburg;Deutschland;53.232016;13.596506;https://hofladen.info/hofladen/haus-lichtenhain
Hof Ziegelhütte;Ziegelhütte 1/1;73266;Bissingen;Baden-Württemberg;Deutschland;48.570150;9.527020;https://hofladen.info/hofladen/hof-ziegelhutte
Mosterei Klimmek;Parkweg 4;16278;Angermünde;Brandenburg;Deutschland;53.004639;13.968545;https://hofladen.info/hofladen/mosterei-klimmek
Klangens Hof;Höperhöfen 15 ;27367 ;Bötersen;Niedersachsen;Deutschland;53.142419;9.301961;https://hofladen.info/hofladen/klangens-hof
Freitaler Milchtanke;Lübauer Str.5;1705;Freital ;Sachsen;Deutschland;50.974200;13.604500;https://hofladen.info/hofladen/freitaler-milchtanke
Brennerei Fritz-Martin Mozer;Lerchenhof 1;74629;Pfedelbach;Baden-Württemberg;Deutschland;49.173740;9.518520;https://hofladen.info/hofladen/brennerei-fritz-martin-mozer
Kilbs Bauernlädle;Weltersberg 29;74214;Schöntal-Bieringen;Baden-Württemberg;Deutschland;49.341560;9.524754;https://hofladen.info/hofladen/kilbs-bauernladle
Hof im Greth ;Im Greth 1 - Lesser Straße;31185;Söhlde;Niedersachsen;Deutschland;52.183440;10.233400;https://hofladen.info/hofladen/hof-im-greth
Hof Butendiek;Reitlander Strasse 1;26937;Seefeld;Niedersachsen;Deutschland;53.441910;8.338880;https://hofladen.info/hofladen/hof-butendiek
Kemppels;Baad 12/1;74535;Mainhardt;Baden-Württemberg;Deutschland;49.078054;9.557513;https://hofladen.info/hofladen/kemppels
Royal Spargel Gut Plätz ;Plätz 12 ;39596;Goldbeck;Sachsen-Anhalt;Deutschland;52.740371;11.887832;https://hofladen.info/hofladen/royal-spargel-gut-platz
Schwerdtners Spreewaldmarkt;Dammstr. 81;03222;Lübbenau;Brandenburg;Deutschland;51.867938;13.971898;https://hofladen.info/hofladen/schwerdtners-spreewaldmarkt
Wabenhonigimker Olaf Schacht;Dorfstraße 54;34298;Helsa;Hessen;Deutschland;51.219649;9.644643;https://hofladen.info/hofladen/wabenhonigimker-olaf-schacht
Hofladen vom Lettenbödle;Lettenbödle 4 ;71706 ;Markgröningen;Baden-Württemberg;Deutschland;48.912265;9.075811;https://hofladen.info/hofladen/hofladen-vom-lettenbodle
Elisabethhof;Goethestraße 9  ;14542 ;Werder(Havel);Brandenburg;Deutschland;52.348160;12.881150;https://hofladen.info/hofladen/elisabethhof
Obsthof Schörlin;Am Tischligweg 40;79588;Efringen-Kirchen;Baden-Württemberg;Deutschland;47.676567;7.549666;https://hofladen.info/hofladen/obsthof-schorlin
Weingut Johann August Sack;Bahnhofstraße 30;97922;Lauda-Königshofen;Baden-Württemberg;Deutschland;49.567207;9.706921;https://hofladen.info/hofladen/weingut-johann-august-sack
Bauer Ziegs;Chemnitzer Str. 78;9387;Jahnsdorf;Sachsen;Deutschland;50.744556;12.852183;https://hofladen.info/hofladen/bauer-ziegs
Erdbeerplantage Habenicht;Donnerstedter Weg 4;27321;Thedinghausen;Niedersachsen;Deutschland;52.952481;8.972898;https://hofladen.info/hofladen/erdbeerplantage-habenicht
Hof Göllner;Gadesbünden 7;31622;Heemsen;Niedersachsen;Deutschland;52.713870;9.273587;https://hofladen.info/hofladen/hof-gollner
Gut Werrabronn;Werrabronn;76356;Weingarten;Baden-Württemberg;Deutschland;49.032211;8.516622;https://hofladen.info/hofladen/gut-werrabronn
Porschendorfer Mühle;Lindenstraße 17 ;01833 ;Dürrröhrsdorf-Dittersbach;Sachsen;Deutschland;51.012369;13.999027;https://hofladen.info/hofladen/porschendorfer-muhle
Hofladen Lienert;Neue Chaussee;14641;Wustermark;Brandenburg;Deutschland;52.511286;12.967405;https://hofladen.info/hofladen/hofladen-lienert
Talhof Usingen;Talhof;61250;Usingen;Hessen;Deutschland;50.356060;8.561500;https://hofladen.info/hofladen/talhof-usingen
Bio-Imkerei Ullrich Burmeister;Berliner Allee 18;14547;Beelitz;Brandenburg;Deutschland;52.272229;12.896538;https://hofladen.info/hofladen/bio-imkerei-ullrich-burmeister
Edelrot;Hausen 2;41751;Viersen;Nordrhein-Westfalen;Deutschland;51.229753;6.344151;https://hofladen.info/hofladen/edelrot
Hof Steinrausch;Zamescheid 12;54595;Wascheid bei Prüm;Rheinland-Pfalz;Deutschland;50.254340;6.412520;https://hofladen.info/hofladen/hof-steinrausch
Johannishof;Johannishof 1;66640;Namborn-Furschweiler;Saarland;Deutschland;49.514030;7.186010;https://hofladen.info/hofladen/johannishof
Hof Hoher Schönberg;Kalkhorster Straße 37;23948;Hoher Schönberg;Mecklenburg-Vorpommern;Deutschland;53.978170;11.096440;https://hofladen.info/hofladen/hof-hoher-schonberg
Luisenhof Wiebendorf;Lange Straße 30;19258;Wiebendorf;Mecklenburg-Vorpommern;Deutschland;53.406581;10.816096;https://hofladen.info/hofladen/luisenhof-wiebendorf
Weingut Hanke ;Alte Schweinitzer Straße 80 ;6917;Jessen;Sachsen-Anhalt;Deutschland;51.792601;12.978791;https://hofladen.info/hofladen/weingut-hanke
Hofladen Gernewitz;Rausdorfer Straße 10;7646;Stadtroda;Thüringen;Deutschland;50.867882;11.693216;https://hofladen.info/hofladen/hofladen-gernewitz
Bruckrainhof ;Alte Kanderner Str. 2;79595;Rümmingen;Baden-Württemberg;Deutschland;47.643200;7.635333;https://hofladen.info/hofladen/bruckrainhof
Gut Herrenhölzer;Gutsstraße 1;14789;Bensdorf;Brandenburg;Deutschland;52.402042;12.336489;https://hofladen.info/hofladen/gut-herrenholzer
Regionalmarkt Hohenlohe;Birkichstr. 10;74549;Wolpertshausen;Baden-Württemberg;Deutschland;49.169313;9.859870;https://hofladen.info/hofladen/regionalmarkt-hohenlohe
Hof Brandt;Schneeheide 1;29664 ;Walsrode;Niedersachsen;Deutschland;52.851352;9.550492;https://hofladen.info/hofladen/hof-brandt
Cafe Obsthof PuurtenQuast ;Nincoper Straße 45 ;21129;Hamburg;Hamburg;Deutschland;53.513400;9.815370;https://hofladen.info/hofladen/cafe-obsthof-puurtenquast
Obsthof Strodel;Rothkreuz 2;88138;Weißensberg;Bayern;Deutschland;47.591057;9.729905;https://hofladen.info/hofladen/obsthof-strodel
Vinothek & Hofladen;Roter Rain 2 ;97900 ;Külsheim;Baden-Württemberg;Deutschland;49.684010;9.509276;https://hofladen.info/hofladen/vinothek-hofladen
Tannenburg GbR;Tannenburg 1;74424;Bühlertann;Baden-Württemberg;Deutschland;49.030729;9.927444;https://hofladen.info/hofladen/tannenburg-gbr
Imkerei Gempp;Wehratalstr. 3;79650;Schopfheim;Baden-Württemberg;Deutschland;47.697278;7.932587;https://hofladen.info/hofladen/imkerei-gempp
Bioladen Kanzleilehngut;Loßnitzer Weg 1;9633;Halsbrücke;Sachsen;Deutschland;50.945570;13.334570;https://hofladen.info/hofladen/bioladen-kanzleilehngut
Hofgemeinschaft Löstrup;Löstruo 4;24966;Sörup;Schleswig-Holstein;Deutschland;54.725380;9.686410;https://hofladen.info/hofladen/hofgemeinschaft-lostrup
Uckerkaas;;17337;Uckerland;Brandenburg;Deutschland;53.450395;13.804727;https://hofladen.info/hofladen/uckerkaas
Hofladen Nestler;Thomas-Müntzer-Weg 1;8359;Breitenbrunn;Sachsen;Deutschland;50.473891;12.811276;https://hofladen.info/hofladen/hofladen-nestler
Meisterhonig Christine & Ivan Curic;In der Aue 10;37213;Witzenhausen;Hessen;Deutschland;51.338274;9.866100;https://hofladen.info/hofladen/meisterhonig-christine-ivan-curic
Biohof Groß-Bölting;Borkener Strasse 10;46499;Hamminkeln;Nordrhein-Westfalen;Deutschland;51.754920;6.669930;https://hofladen.info/hofladen/biohof-gro%C3%9F-bolting
Hof Röhrkasten;Höfen 17;31600;Uchte;Niedersachsen;Deutschland;52.473898;8.910849;https://hofladen.info/hofladen/hof-rohrkasten
Milchziegenhof Schuhmann;Hauptstraße 60;1665;Taubenheim;Sachsen;Deutschland;51.095420;13.462305;https://hofladen.info/hofladen/milchziegenhof-schuhmann
Hofgemeinschaft Fargemiel;Siggener Weg 2;23777;Fargemiel;Schleswig-Holstein;Deutschland;54.279530;11.032040;https://hofladen.info/hofladen/hofgemeinschaft-fargemiel
Ziegenhof Loretto;Loretto 6;88529;Zwiefalten;Baden-Württemberg;Deutschland;48.249980;9.461130;https://hofladen.info/hofladen/ziegenhof-loretto
Imkerei Mark Philipp;Riedichen-Bürchbühl 6;79669;Zell im Wiesental;Baden-Württemberg;Deutschland;47.705230;7.887479;https://hofladen.info/hofladen/imkerei-mark-philipp
Schafraffenland;Balzhofener Str. 21;77815;Bühl;Baden-Württemberg;Deutschland;48.712310;8.092030;https://hofladen.info/hofladen/schafraffenland
Obstbau Menzel;Hauptstraße 55;1877;Rammenau;Sachsen;Deutschland;51.151516;14.148441;https://hofladen.info/hofladen/obstbau-menzel
Mühle Zänker ;Dorfstraße 18 ;39288;Burg-Gütter;Sachsen-Anhalt;Deutschland;52.267300;11.908029;https://hofladen.info/hofladen/muhle-zanker
Jepp´s Hoflädele;Am Dreschschopf / Ecke Altgasse;79112;Freiburg;Baden-Württemberg;Deutschland;47.998484;7.714086;https://hofladen.info/hofladen/jepp%C2%B4s-hofladele
Hofkäserei Büttner;Oststraße 2;7958;Hohenleuben;Thüringen;Deutschland;50.711741;12.058525;https://hofladen.info/hofladen/hofkaserei-buttner
Spanferkel und Obsthof Wagner GbR;Bruhweg 37;74080;Heilbronn;Baden-Württemberg;Deutschland;49.132671;9.150302;https://hofladen.info/hofladen/spanferkel-und-obsthof-wagner-gbr
Bioland Gemüsehof Norbert Meyer;Dielingdorfer Str. 19;49324;Melle;Niedersachsen;Deutschland;52.160167;8.358914;https://hofladen.info/hofladen/bioland-gemusehof-norbert-meyer
Weinhof Dieroff;Brunnengasse 17/3;74613;Öhringen;Baden-Württemberg;Deutschland;49.175739;9.554371;https://hofladen.info/hofladen/weinhof-dieroff
Hof Kaemena;Gustav-Brandes-Weg 19;28355;Bremen;Bremen;Deutschland;53.108410;8.912300;https://hofladen.info/hofladen/hof-kaemena
Haltinger Winzer;Winzerweg 8;79576;Weil-Haltingen;Baden-Württemberg;Deutschland;47.616695;7.618256;https://hofladen.info/hofladen/haltinger-winzer
Obsthof Hauschildt ;Westerladekop 1 ;21635;Jork;Niedersachsen;Deutschland;53.518440;9.670540;https://hofladen.info/hofladen/obsthof-hauschildt
Oesehof Seifersdorf;Am Steinberg 1;1454;Wachau;Sachsen;Deutschland;51.157813;13.887460;https://hofladen.info/hofladen/oesehof-seifersdorf
Domäne Mechtildshausen;Hasengartenstr. 12;65205;Wiesbaden;Hessen;Deutschland;50.065700;8.256100;https://hofladen.info/hofladen/domane-mechtildshausen
Hof Tangsehl;Tangsehl 2;21369;Nahrendorf;Niedersachsen;Deutschland;53.175030;10.880750;https://hofladen.info/hofladen/hof-tangsehl
Holler-Hof;Dorfstraße 41;4626;Jonaswalde;Thüringen;Deutschland;50.841250;12.290370;https://hofladen.info/hofladen/holler-hof
Hofladen und Cafe Lore Feindt ;Westerjork 57 ;21635;Jork;Niedersachsen;Deutschland;53.534930;9.670150;https://hofladen.info/hofladen/hofladen-und-cafe-lore-feindt
Geflügelhof Janshen;Moselweg 11;54552 ;Ellscheid;Rheinland-Pfalz;Deutschland;50.147611;6.918249;https://hofladen.info/hofladen/geflugelhof-janshen
Honhardter Demeterhöfe;Ostweg 15;74586;Frankenhardt;Baden-Württemberg;Deutschland;49.069930;10.044490;https://hofladen.info/hofladen/honhardter-demeterhofe
Fahner Frucht;Große Hecke 2;99100;Gierstädt;Thüringen;Deutschland;51.043501;10.824788;https://hofladen.info/hofladen/fahner-frucht
Fischer-Trimborn;Große Gaß 21;79576;Weil-Haltingen;Baden-Württemberg;Deutschland;47.613496;7.620453;https://hofladen.info/hofladen/fischer-trimborn
Spargel Lüters; Visselhöveder Straße 14 ;29683 ;Bad Fallingbostel ;Niedersachsen;Deutschland;52.904935;9.758140;https://hofladen.info/hofladen/spargel-luters
Spargelhof Falkenthal;Kietz 31;14547;Beelitz;Brandenburg;Deutschland;52.245790;13.021000;https://hofladen.info/hofladen/spargelhof-falkenthal
Scholl Ziegenalarm;Ansbacher Str. 20;91578;Leutershausen;Bayern;Deutschland;49.298590;10.483750;https://hofladen.info/hofladen/scholl-ziegenalarm
Hofgut Oberfeld;Erbacher Straße 125 ;64287 ;Darmstadt;Hessen;Deutschland;49.872849;8.683204;https://hofladen.info/hofladen/hofgut-oberfeld
Landschlachterei Wolters;Hoyaer Str. 16;27327 ;Martfeld;Niedersachsen;Deutschland;52.858014;9.086999;https://hofladen.info/hofladen/landschlachterei-wolters
Probst;Rathausstrasse 1;79400;Kandern-Wollbach;Baden-Württemberg;Deutschland;47.669549;7.653835;https://hofladen.info/hofladen/probst
Grethermühle;Mühleweg 20;79689;Maulburg;Baden-Württemberg;Deutschland;47.644164;7.767919;https://hofladen.info/hofladen/grethermuhle
Spargelhof Genter;Tannenallee 8;38528;Adenbüttel;Niedersachsen;Deutschland;52.399206;10.433668;https://hofladen.info/hofladen/spargelhof-genter
Pankratiushof Mainz;Lindenplatz 6 ;55129 ;Mainz;Rheinland-Pfalz;Deutschland;49.960310;8.280537;https://hofladen.info/hofladen/pankratiushof-mainz
Gartenbau Hauke;Oskar von Arnim Straße 12;17291;Nordwestuckermark;Brandenburg;Deutschland;53.274088;13.688236;https://hofladen.info/hofladen/gartenbau-hauke
Obsthof Hentschel;Großkrausniker Straße 2B;3249;Sonnewalde;Brandenburg;Deutschland;51.715212;13.631234;https://hofladen.info/hofladen/obsthof-hentschel
Gut Dobersdorf;Gut Dobersdorf ;24232 ;Dobersdorf;Schleswig-Holstein;Deutschland;54.322820;10.289247;https://hofladen.info/hofladen/gut-dobersdorf
Bauer Schulze;Görziger Strasse 67;15848;Rietz-Neuendorf;Brandenburg;Deutschland;52.239282;14.202014;https://hofladen.info/hofladen/bauer-schulze
Geflügelfarm Lommatzsch;Schwochau 13;1623;Lommatzsch;Sachsen;Deutschland;51.182200;13.292940;https://hofladen.info/hofladen/geflugelfarm-lommatzsch
Hof Hacke;Hannoverische Straße 44 ;27330 ;Asendorf;Niedersachsen;Deutschland;52.728038;9.042244;https://hofladen.info/hofladen/hof-hacke
Hofladen Bergland;Hauptstraße 13;9623;Rechenberg-Bienenmühle;Sachsen;Deutschland;50.748196;13.493650;https://hofladen.info/hofladen/hofladen-bergland
Gutsladen;Dorfstraße 18;17506;Owstin;Mecklenburg-Vorpommern;Deutschland;53.928532;13.468189;https://hofladen.info/hofladen/gutsladen
Gut Gamig;Gamig Nr 2;01809;Dohna;Sachsen;Deutschland;50.961629;13.842014;https://hofladen.info/hofladen/gut-gamig
Linumer Landhof;Nauener Straße 50;16833;Linum;Brandenburg;Deutschland;52.758690;12.879150;https://hofladen.info/hofladen/linumer-landhof
Trebnitzer Beeren- und Straußenhof ;Birkenweg 6 ;6722;Wetterzeube;Sachsen-Anhalt;Deutschland;50.998480;11.983920;https://hofladen.info/hofladen/trebnitzer-beeren-und-strau%C3%9Fenhof
Ökohof Kuhhorst;Dorfstraße 9 ;16818 ;Kuhhorst;Brandenburg;Deutschland;52.719009;12.850807;https://hofladen.info/hofladen/okohof-kuhhorst
Bioland-Imkerei Ralf Berghane;Laurentiusstr. 5;45899;Gelsenkirchen;Nordrhein-Westfalen;Deutschland;51.525070;7.025900;https://hofladen.info/hofladen/bioland-imkerei-ralf-berghane
Obsthof Müller ;Bauernsiedlung 5 ;6268;Querfurt;Sachsen-Anhalt;Deutschland;51.374140;11.587820;https://hofladen.info/hofladen/obsthof-muller
Rixmanns Hof;Nauener Str. 23 a;16833;Linum;Brandenburg;Deutschland;52.758870;12.875300;https://hofladen.info/hofladen/rixmanns-hof
Kartoffelhof Lienig;Zum Kartoffelhof 13;4509;Delitzsch;Sachsen;Deutschland;51.506460;12.348370;https://hofladen.info/hofladen/kartoffelhof-lienig
MainAeppelHaus;Klingenweg 90 ;60389 ;Frankfurt a.M.;Hessen;Deutschland;50.151480;8.733281;https://hofladen.info/hofladen/mainaeppelhaus
Bruns Beerenobst;Köbens 1;28876;Oyten;Niedersachsen;Deutschland;53.072324;9.093278;https://hofladen.info/hofladen/bruns-beerenobst
Breitenwegerhof;Endingerstraße 55;79356;Eichstetten;Baden-Württemberg;Deutschland;48.101980;7.731060;https://hofladen.info/hofladen/breitenwegerhof
Waldziegenhof;Schloßstraße 19;89446;Ziertheim;Bayern;Deutschland;48.650990;10.396800;https://hofladen.info/hofladen/waldziegenhof
Alpacahof Altes Pfarrhaus;Große Dorfstr. 20 ;6386;Scheuder;Sachsen-Anhalt;Deutschland;51.768950;12.079810;https://hofladen.info/hofladen/alpacahof-altes-pfarrhaus
Fischzucht Pilgram;Kieselhöhe 15;53797;Lohmar;Nordrhein-Westfalen;Deutschland;50.839570;7.216130;https://hofladen.info/hofladen/fischzucht-pilgram
Landwirtschaft Lindenhof;Hauptstr. 10;2829;Pfaffendorf;Sachsen;Deutschland;51.129460;14.904020;https://hofladen.info/hofladen/landwirtschaft-lindenhof
Rahlf;Mehrower Dorfstraße 1;16356;Ahrensfelde;Brandenburg;Deutschland;52.570797;13.614465;https://hofladen.info/hofladen/rahlf
Inselhof;Am Mühlplatz 18;37318;Dietzenrode;Thüringen;Deutschland;51.298240;10.015240;https://hofladen.info/hofladen/inselhof
Brunkshof, Hofladen und Milchtankstelle;Eichenstraße 13 ;27389 ;Stemmen;Niedersachsen;Deutschland;53.223263;9.551247;https://hofladen.info/hofladen/brunkshof-hofladen-und-milchtankstelle
Havelfischerei Betge;Margaretenhof 7 ;14774 ;Brandenburg an der Havel;Brandenburg;Deutschland;52.406310;12.425670;https://hofladen.info/hofladen/havelfischerei-betge
Hof Ilmeaue;Ilmestraße 5;37586;Dassel;Niedersachsen;Deutschland;51.797993;9.700854;https://hofladen.info/hofladen/hof-ilmeaue
Hof Sallach;Partschefeld 15;7407;Uhlstädt-Kirchhasel;Thüringen;Deutschland;50.755390;11.439150;https://hofladen.info/hofladen/hof-sallach
Marias Marschenmilch;Bundesstr.53;25719 ;Barlt;Schleswig-Holstein;Deutschland;54.011447;9.029411;https://hofladen.info/hofladen/marias-marschenmilch
Hofladen Labahn;Greifswalder Chaussee 11;17509;Groß Ernsthof;Mecklenburg-Vorpommern;Deutschland;54.084479;13.737006;https://hofladen.info/hofladen/hofladen-labahn
Capriolenhof;Schleusenhof Regow 1;16798;Fürstenberg;Brandenburg;Deutschland;53.131940;13.296760;https://hofladen.info/hofladen/capriolenhof
Sonnenhof;Astwiesen 2;73087;Bad Boll;Baden-Württemberg;Deutschland;48.645210;9.600070;https://hofladen.info/hofladen/sonnenhof
Hof Löbenhain;Goetheweg 120;9247;Chemnitz;Sachsen;Deutschland;50.860600;12.809800;https://hofladen.info/hofladen/hof-lobenhain
Hofgemeinschaft Weide-Hardebek;Hauptstraße 32–34  ;24616 ;Hardebek;Schleswig-Holstein;Deutschland;53.988726;9.872614;https://hofladen.info/hofladen/hofgemeinschaft-weide-hardebek
Weingut Neubauer;Brückentor 30;97837;Erlenbach;Bayern;Deutschland;49.817240;9.623910;https://hofladen.info/hofladen/weingut-neubauer
Pflanzenmarkt und Hofladen Hesse ;Calenberger Dorfstraße 1a ;39114;Magdeburg;Sachsen-Anhalt;Deutschland;52.065290;11.739470;https://hofladen.info/hofladen/pflanzenmarkt-und-hofladen-hesse
Obsthof Am Süßen See ;Am Seefeld 1 ;6317;Seegebiet Mansfelder Land;Sachsen-Anhalt;Deutschland;51.496580;11.659090;https://hofladen.info/hofladen/obsthof-am-su%C3%9Fen-see
Brennerei Günter Hammel;Landenbacher Str. 1;97996;Niederstetten;Baden-Württemberg;Deutschland;49.421520;9.919145;https://hofladen.info/hofladen/brennerei-gunter-hammel
Neue Meere;An der Chaussee 2;31028;Gronau;Niedersachsen;Deutschland;52.086798;9.786251;https://hofladen.info/hofladen/neue-meere
Hofladen Bißbort;Hochwaldstr. 5;66954;Pirmasens;Rheinland-Pfalz;Deutschland;49.213129;7.537476;https://hofladen.info/hofladen/hofladen-bi%C3%9Fbort
Müllerhof;Gösers 195;87474;Buchenberg;Baden-Württemberg;Deutschland;47.691610;10.263610;https://hofladen.info/hofladen/mullerhof
Imkerei Franz Pfluger;Unterschönegg 12;87727;Babenhausen;Bayern;Deutschland;48.160857;10.221612;https://hofladen.info/hofladen/imkerei-franz-pfluger
Reutebachhof;Reutebachhof 1;74426;Geifertshofen;Baden-Württemberg;Deutschland;49.004420;9.884840;https://hofladen.info/hofladen/reutebachhof
Imkerei Mattfeld;Grünstr. 6;29664;Walsrode;Niedersachsen;Deutschland;52.865043;9.588132;https://hofladen.info/hofladen/imkerei-mattfeld
Armin Wacker;Bogenstr.5;74599;Wallhausen-Asbach;Baden-Württemberg;Deutschland;49.227280;10.094750;https://hofladen.info/hofladen/armin-wacker
Der Hofladen;Dorfstr.10;74423;Obersontheim;Baden-Württemberg;Deutschland;49.041358;9.861959;https://hofladen.info/hofladen/der-hofladen
Imkerei Stechlin;Dorfstraße 51;16775;Stechlin;Brandenburg;Deutschland;53.077669;13.011808;https://hofladen.info/hofladen/imkerei-stechlin
Bauernhof am Mühlenblick;Neubrandenburger Chaussee 13;17348;Woldegk;Mecklenburg-Vorpommern;Deutschland;53.463010;13.567380;https://hofladen.info/hofladen/bauernhof-am-muhlenblick
Apfelhof Wähnert;Gartenweg 1;16775;Löwenberger Land;Brandenburg;Deutschland;52.920902;13.114698;https://hofladen.info/hofladen/apfelhof-wahnert
Märkischer Hofladen;Dorfstraße 1a ;14641 ;Paulinenaue;Brandenburg;Deutschland;52.633410;12.714422;https://hofladen.info/hofladen/markischer-hofladen
Birkenhof;Birkenhof;72411;Bodelshausen;Baden-Württemberg;Deutschland;48.405540;8.972970;https://hofladen.info/hofladen/birkenhof
Fischerhof am Kerner See ;Am Kernersee 3 ;6317;Seegebiet Mansfelder Land;Sachsen-Anhalt;Deutschland;51.480126;11.740843;https://hofladen.info/hofladen/fischerhof-am-kerner-see
Gärtnerei Ueckermünde;Reeperbahn 1;17373;Ueckermünde;Mecklenburg-Vorpommern;Deutschland;53.734920;14.034030;https://hofladen.info/hofladen/gartnerei-ueckermunde
Fischerei Schröder;Gahlberg 2 ;14715 ;Havelaue ;Brandenburg;Deutschland;52.749790;12.225157;https://hofladen.info/hofladen/fischerei-schroder
Geflügelhof Michael Pfefferle;Emil Thoma Str. 35;75031;Eppingen;Baden-Württemberg;Deutschland;49.143181;8.902020;https://hofladen.info/hofladen/geflugelhof-michael-pfefferle
Der Obergrashof;Obergrashof 1;85221;Dachau;Bayern;Deutschland;48.254380;11.491970;https://hofladen.info/hofladen/der-obergrashof
Hof Niemeyer;Mardorfer Str. 22;31535 ;Neustadt;Niedersachsen;Deutschland;52.489326;9.293269;https://hofladen.info/hofladen/hof-niemeyer
Hofladen Familie Sperling;Hofsträßle 40;70378;Stuttgart;Baden-Württemberg;Deutschland;48.856370;9.220160;https://hofladen.info/hofladen/hofladen-familie-sperling
Weingut Gundling;Apfelbacher Straße 3;97980;Bad Mergentheim;Baden-Württemberg;Deutschland;49.470760;9.829530;https://hofladen.info/hofladen/weingut-gundling
Milchschafhof-Schafgarbe;Ogrosener Dorfstraße 35;3226;Vetschau;Brandenburg;Deutschland;51.711900;14.040980;https://hofladen.info/hofladen/milchschafhof-schafgarbe
Lütte Meierie Hofladen & CafÃ©;Dorfstraße 5;17237;Kratzeburg;Mecklenburg-Vorpommern;Deutschland;53.429532;12.946220;https://hofladen.info/hofladen/lutte-meierie-hofladen-cafa%C2%A9
Knolle & Bolle;Ziemkendorfer Straße 10;17291;Grünow;Brandenburg;Deutschland;53.313000;13.984313;https://hofladen.info/hofladen/knolle-bolle
Lapinchen;Dompfaffstraße 34;53881;Euskirchen;Nordrhein-Westfalen;Deutschland;50.617761;6.852103;https://hofladen.info/hofladen/lapinchen
Wild Hofladen Brodowin;Brodowiner Dorfstr. 40a;16230;Chorin;Brandenburg;Deutschland;52.901159;13.954620;https://hofladen.info/hofladen/wild-hofladen-brodowin
Hof Buschsieweke;Westring 21;33397;Rietberg;Nordrhein-Westfalen;Deutschland;51.832420;8.388190;https://hofladen.info/hofladen/hof-buschsieweke
Risstalimker Maier Bioland;Grotteweg 1;88433;Schemmerhofen;Baden-Württemberg;Deutschland;48.176402;9.796562;https://hofladen.info/hofladen/risstalimker-maier-bioland
Hof Rickmann;Peiner Str. 10 b;38176;Wendeburg;Niedersachsen;Deutschland;52.327319;10.391852;https://hofladen.info/hofladen/hof-rickmann
Hof Höcker;Hohner Mark 39;49525;Lengerich;Nordrhein-Westfalen;Deutschland;52.149780;7.866130;https://hofladen.info/hofladen/hof-hocker
Mennes Nieheimer Schaukäserei;Hospitalstraße 22;33039;Nieheim;Nordrhein-Westfalen;Deutschland;51.803390;9.103550;https://hofladen.info/hofladen/mennes-nieheimer-schaukaserei
Frauenhofer;Langquaider Str. 4;84085 ;Langquaid;Bayern;Deutschland;48.786564;12.015621;https://hofladen.info/hofladen/frauenhofer
Spargel & Kürbis Scheune;Altenhäger Straße 93 ;31558 ;Hagenburg;Niedersachsen;Deutschland;52.439615;9.346228;https://hofladen.info/hofladen/spargel-kurbis-scheune
Gläserne Waldimkerei;Am Wolfsgarten 5;16792;Zehdenick;Brandenburg;Deutschland;52.997494;13.349892;https://hofladen.info/hofladen/glaserne-waldimkerei
Spargel-Erdbeeren Springensguth;Rodenweg 36;33415;Verl;Niedersachsen;Deutschland;51.875218;8.592108;https://hofladen.info/hofladen/spargel-erdbeeren-springensguth
Bauernho f- Eis Wanner;Hag 2;74424;Bühlertann;Baden-Württemberg;Deutschland;49.042725;9.896560;https://hofladen.info/hofladen/bauernho-f-eis-wanner
Froschkönig;Profener Bahnhofstrasse 2;06728;Elsteraue;Sachsen-Anhalt;Deutschland;51.129220;12.215077;https://hofladen.info/hofladen/froschkonig
Agrofarm Nauen;Brandenburger Chaussee 19 ;14641 ;Nauen;Brandenburg;Deutschland;52.596578;12.838605;https://hofladen.info/hofladen/agrofarm-nauen
Sanddorn-Garten Petzow;Fercher Straße 60;14542;Werder;Brandenburg;Deutschland;52.345290;12.943790;https://hofladen.info/hofladen/sanddorn-garten-petzow
Kellerwaldhof;Heideweg 1;34596;Bad Zwesten;Hessen;Deutschland;51.029310;9.162170;https://hofladen.info/hofladen/kellerwaldhof
Hofladen Kraut und Rüben;Steiermärkerstr.16a;76227;Karlruhe;Baden-Württemberg;Deutschland;48.985904;8.456501;https://hofladen.info/hofladen/hofladen-kraut-und-ruben
Bauernhof Möking;;88690;Uhldingen;Baden-Württemberg;Deutschland;47.734846;9.242572;https://hofladen.info/hofladen/bauernhof-moking
Hof Zandershagen;Dorfstraße 20;18461;Richtenberg;Mecklenburg-Vorpommern;Deutschland;54.197030;12.919980;https://hofladen.info/hofladen/hof-zandershagen
Destillerie;Dorfstraße 16;16356;Werneuchen;Brandenburg;Deutschland;52.596499;13.691942;https://hofladen.info/hofladen/destillerie
Fischland Scharmützelsee;Schwarzhorner Weg 26;15864;Wendisch Rietz;Brandenburg;Deutschland;52.220800;14.016334;https://hofladen.info/hofladen/fischland-scharmutzelsee
AGROKLI;Lebuser Chaussee 16;15234;Frankfurt (Oder);Brandenburg;Deutschland;52.372975;14.523226;https://hofladen.info/hofladen/agrokli
Schwalbenhof;Rathausstr. 37;55608;Berschweiler;Rheinland-Pfalz;Deutschland;49.772410;7.387420;https://hofladen.info/hofladen/schwalbenhof
Lärchenhof;Lärchenhof 1;88633;Heiligenberg;Baden-Württemberg;Deutschland;47.829220;9.310350;https://hofladen.info/hofladen/larchenhof
Erdesbacher Ziegenkäse;Eckweg 2;66887;Erdesbach;Rheinland-Pfalz;Deutschland;49.574220;7.443520;https://hofladen.info/hofladen/erdesbacher-ziegenkase
Altschulzenhof;Lautertalstr.50;72534;Hayingen-Münzdorf;Baden-Württemberg;Deutschland;48.308300;9.480360;https://hofladen.info/hofladen/altschulzenhof
Bauernhof Ruden;Gellertstraße 3;14476;Potsdam;Brandenburg;Deutschland;52.457105;13.038914;https://hofladen.info/hofladen/bauernhof-ruden
Ulmenhof;Zwerweg 57;75378;Bad Liebenzell;Baden-Württemberg;Deutschland;48.784440;8.719440;https://hofladen.info/hofladen/ulmenhof
Hönig Hof;Reißmühle 1;78357;Mühlingen;Baden-Württemberg;Deutschland;47.921943;9.022484;https://hofladen.info/hofladen/honig-hof
Eggs-klusiv;Stöcken 5 ;96215 ;Lichtenfels;Bayern;Deutschland;50.173943;11.072859;https://hofladen.info/hofladen/eggs-klusiv
Galloway vom Preußenhof;Am Dröbel 10;16909;Heiligengrabe;Brandenburg;Deutschland;53.141510;12.343040;https://hofladen.info/hofladen/galloway-vom-preu%C3%9Fenhof
Hofleben Gräben;Kreuzbrucher Str. 12;16559 ;Liebenwalde;Brandenburg;Deutschland;52.836350;13.411907;https://hofladen.info/hofladen/hofleben-graben
Obstgut Marquardt;Dorfstraße 10;14476;Potsdam;Brandenburg;Deutschland;52.475982;12.988163;https://hofladen.info/hofladen/obstgut-marquardt
Hofgemeinschaft Marienhöhe;Marienhöhe 3;15526;Bad Saarow;Brandenburg;Deutschland;52.291480;14.023580;https://hofladen.info/hofladen/hofgemeinschaft-marienhohe
Hofladen Quitzow;Buchholzer Chaussee 16;19348;Perleberg;Brandenburg;Deutschland;53.103435;11.835136;https://hofladen.info/hofladen/hofladen-quitzow
Hofladen Kirsch;Witzschdorfer Hauptstrasse 14;9437;Gornau;Sachsen;Deutschland;50.774560;13.073450;https://hofladen.info/hofladen/hofladen-kirsch
Anderlbauer;Hauptstr. 4;83112;Frasdorf;Bayern;Deutschland;47.803120;12.289700;https://hofladen.info/hofladen/anderlbauer
Weidenhof;Weidenstraße 5-7;63607;Wächtersbach;Hessen;Deutschland;50.266084;9.315570;https://hofladen.info/hofladen/weidenhof
Drei Jahreszeiten;Hauptstraße 22;15838 ;Mellensee;Brandenburg;Deutschland;52.185630;13.416726;https://hofladen.info/hofladen/drei-jahreszeiten
Landmarkt Memmendorf;Am Memmendorfer Park 1;9569;Oederan;Sachsen;Deutschland;50.886451;13.186524;https://hofladen.info/hofladen/landmarkt-memmendorf
Singers Bauernladen;Heroldsbacher Straße 42a;91353 ;Hausen;Bayern;Deutschland;49.693250;11.027832;https://hofladen.info/hofladen/singers-bauernladen
Hof Domanja;Hoske 44;2997;Wittichenau;Sachsen;Deutschland;51.364382;14.264740;https://hofladen.info/hofladen/hof-domanja
Hofladen Wiedemann;Breite Straße 1;38159 ;Vechelde;Niedersachsen;Deutschland;52.258161;10.339761;https://hofladen.info/hofladen/hofladen-wiedemann
Fuchshof;Im Langenberg 1;78465;Konstanz;Baden-Württemberg;Deutschland;47.728432;9.160514;https://hofladen.info/hofladen/fuchshof
Hofladen;Dorfstraße 1;15345;Altlandsberg;Brandenburg;Deutschland;52.605910;13.807340;https://hofladen.info/hofladen/hofladen
Biolandhof Nagengast;Bergstr. 18 ;91352 ;Hallerndorf;Bayern;Deutschland;49.774141;10.995298;https://hofladen.info/hofladen/biolandhof-nagengast
Fischer Zahn;Am Bollwerk 15;16303;Schwedt;Brandenburg;Deutschland;53.053269;14.287966;https://hofladen.info/hofladen/fischer-zahn
Spargelhof Heuer;Trülldamm 5;30938;Burgwedel;Niedersachsen;Deutschland;52.560710;9.843290;https://hofladen.info/hofladen/spargelhof-heuer
Wegeners Hof;Leinechaussee 44;31515 ;Wunstorf;Niedersachsen;Deutschland;52.448877;9.458269;https://hofladen.info/hofladen/wegeners-hof
Gurken Hirscher;Laufenen 6;88074;Meckenbeuren;Baden-Württemberg;Deutschland;47.718567;9.558364;https://hofladen.info/hofladen/gurken-hirscher
Laakenhof;Ennigerstrasse 41;59269;Beckum;Nordrhein-Westfalen;Deutschland;51.805750;7.997690;https://hofladen.info/hofladen/laakenhof
Käserei Elisabethenhof;Elisabethenhof;35794;Probbach;Hessen;Deutschland;50.545940;8.200439;https://hofladen.info/hofladen/kaserei-elisabethenhof
Bio-Gärtnerei Watzkendorf;Zum Mühlenbach 2;17237;Blankensee;Mecklenburg-Vorpommern;Deutschland;53.393340;13.312530;https://hofladen.info/hofladen/bio-gartnerei-watzkendorf
Hof Bünkemühle;Bünkemühle 33 ;27333 ;Warpe;Niedersachsen;Deutschland;52.766242;9.090732;https://hofladen.info/hofladen/hof-bunkemuhle
Voigt Baumschulen ;Raguhner Straße 14a ;6779;Priorau;Sachsen-Anhalt;Deutschland;51.730290;12.284850;https://hofladen.info/hofladen/voigt-baumschulen
Heger‘s Hofladen;;;;;;;;https://hofladen.info/hofladen/heger%E2%80%98s-hofladen
Biohofladen Zwei Eichen;Grenzweg 32 ;29699 ;Bomlitz ;Niedersachsen;Deutschland;52.900081;9.601086;https://hofladen.info/hofladen/biohofladen-zwei-eichen
Wirth's Hof;Brühl 2;91056 ;Dechsendorf;Bayern;Deutschland;49.626789;10.937867;https://hofladen.info/hofladen/wirth-s-hof
Kreuzhecker Hof;Kreuzhecker Hof;65529;Waldems;Hessen;Deutschland;50.239591;8.302748;https://hofladen.info/hofladen/kreuzhecker-hof
Mühlenbach Hofladen;Gottschalskmühlenweg 22;56637 ;Plaidt ;Rheinland-Pfalz;Deutschland;50.382843;7.384645;https://hofladen.info/hofladen/muhlenbach-hofladen
Biolandhof Kramer ;Hauptstraße 1;27324;Hassel;Niedersachsen;Deutschland;52.784199;9.211924;https://hofladen.info/hofladen/biolandhof-kramer
Ringlihof;Katzentalweg 1;79289;Horben;Baden-Württemberg;Deutschland;47.937610;7.844010;https://hofladen.info/hofladen/ringlihof
Zick de Hohenlohe;Klingenstraße 23;74532;Ilshofen-Unteraspach;Baden-Württemberg;Deutschland;49.142722;9.893672;https://hofladen.info/hofladen/zick-de-hohenlohe
Biohof Eilte;Großer Garten 6;29693;Ahlden;Niedersachsen;Deutschland;52.761280;9.498260;https://hofladen.info/hofladen/biohof-eilte
Hofcafe Lenhardt;Am Kirchborn 10;63303;Dreieich;Hessen;Deutschland;50.006501;8.744240;https://hofladen.info/hofladen/hofcafe-lenhardt
Hof Schwalbennest;Pehlitz 3;16230;Chorin;Brandenburg;Deutschland;52.909380;13.993550;https://hofladen.info/hofladen/hof-schwalbennest
Hofladen Rittergut;Im Rittergut 1;4626;Schwanditz;Thüringen;Deutschland;50.953561;12.338279;https://hofladen.info/hofladen/hofladen-rittergut
Damwildhof Jäger;Bergweg 5;97514 ;Oberaurach;Bayern;Deutschland;49.928420;10.650820;https://hofladen.info/hofladen/damwildhof-jager
Kehrbachs Hof;An Der Alpe 1 ;31535 ;Neustadt am Rübenberge;Niedersachsen;Deutschland;52.626306;9.484925;https://hofladen.info/hofladen/kehrbachs-hof
Biohof Jockel;Rabenstein 5;36396;Steinau an der Straße;Hessen;Deutschland;50.377210;9.375790;https://hofladen.info/hofladen/biohof-jockel
Hof Cordes;Neubauer Heide 4;27367 ;Sottrum;Niedersachsen;Deutschland;53.106881;9.186892;https://hofladen.info/hofladen/hof-cordes
Weingut Ungerer;Harsberger Str. 15;74629;Pfedelbach;Baden-Württemberg;Deutschland;49.147460;9.551540;https://hofladen.info/hofladen/weingut-ungerer
Mosterei Satow;An der Mosterei 1;18239;Satow;Mecklenburg-Vorpommern;Deutschland;53.975380;11.865690;https://hofladen.info/hofladen/mosterei-satow
Agraset Naundorf e.G. - Landmarkt;Am Lagerhaus 1;9306;Erlau;Sachsen;Deutschland;51.017220;12.901040;https://hofladen.info/hofladen/agraset-naundorf-e-g-landmarkt
Honigladen;Hauptstraße 5;9474;Crottendorf;Sachsen;Deutschland;50.534307;12.944380;https://hofladen.info/hofladen/honigladen
Finkennest;Zillham 12;83137;Schonstett;Bayern;Deutschland;47.984838;12.266161;https://hofladen.info/hofladen/finkennest
Scheferhof;Bubenreuther Str. 8 ;91094 ;Bräuningshof;Bayern;Deutschland;49.630681;11.036741;https://hofladen.info/hofladen/scheferhof
Landgut Kemmler;Hauptstraße 34;72127;Kusterdingen;Baden-Württemberg;Deutschland;48.498278;9.101297;https://hofladen.info/hofladen/landgut-kemmler
Weiße Hube;Hohe Strasse 72;64732;Bad König;Hessen;Deutschland;49.727173;9.015471;https://hofladen.info/hofladen/wei%C3%9Fe-hube
Grünhagen Hofladen;Im Orth 4 ;29690 ;Buchholz;Niedersachsen;Deutschland;52.672184;9.711648;https://hofladen.info/hofladen/grunhagen-hofladen
Klosterhöfer Ziegenkäse;Gomfritz 3;36381;Schlüchtern;Hessen;Deutschland;50.385778;9.540698;https://hofladen.info/hofladen/klosterhofer-ziegenkase
Uckermärker LandKörbchen;Ludwigsburg 6;17291;Schenkenberg;Brandenburg;Deutschland;53.355707;13.981670;https://hofladen.info/hofladen/uckermarker-landkorbchen
Weingut Erich Hirth;Löwensteiner Str. 76;74182;Obersulm;Baden-Württemberg;Deutschland;49.130580;9.360340;https://hofladen.info/hofladen/weingut-erich-hirth
Gärtnerei Koblentz;Dorfstraße 14;17309;Koblentz;Mecklenburg-Vorpommern;Deutschland;53.525630;14.135110;https://hofladen.info/hofladen/gartnerei-koblentz
Gut Adolphshof;;31275;Lehrte;Niedersachsen;Deutschland;52.374620;9.978420;https://hofladen.info/hofladen/gut-adolphshof
Bullerbeekshoff;Achimer Str. 38;27283;Verden (Aller);Niedersachsen;Deutschland;52.957950;9.226620;https://hofladen.info/hofladen/bullerbeekshoff
Biotopia ;Winkel 7 ;6456;Arnstein;Sachsen-Anhalt;Deutschland;51.683330;11.466660;https://hofladen.info/hofladen/biotopia
Obstbauer Haller;Gossetsweiler 17;88263;Horgenzell;Baden-Württemberg;Deutschland;47.796392;9.505242;https://hofladen.info/hofladen/obstbauer-haller
Tante Hedwig;Wiesenweg 8;18565;Vitte/Hiddensee;Mecklenburg-Vorpommern;Deutschland;54.568050;13.106170;https://hofladen.info/hofladen/tante-hedwig
Hofladen mit Räucherei;Talmühle 1;9638;Lichtenberg;Sachsen;Deutschland;50.848977;13.399116;https://hofladen.info/hofladen/hofladen-mit-raucherei
Thomahof Brandl;Brandl 4 ;83549 ;Königsdorf;Bayern;Deutschland;47.816392;11.481009;https://hofladen.info/hofladen/thomahof-brandl
Hof Barmbach;Hof Barmbach;65611;Brechen;Hessen;Deutschland;50.368687;8.189853;https://hofladen.info/hofladen/hof-barmbach
Taubertaler Heimatladen;Mörickestraße 16;97990 ;Laudenbach;Baden-Württemberg;Deutschland;49.454459;9.933066;https://hofladen.info/hofladen/taubertaler-heimatladen
Milchschafhof Solterbeck;Sorgwohld 10;24811;Owschlag;Schleswig-Holstein;Deutschland;54.355810;9.571950;https://hofladen.info/hofladen/milchschafhof-solterbeck
Hofkäserei Kremer;Aukenzell 2;93167;Falkenstein;Bayern;Deutschland;49.081880;12.523080;https://hofladen.info/hofladen/hofkaserei-kremer
Räucherhaus Ahrenshoop;Hafenweg 6;18347;Ostseebad Ahrenshoop;Mecklenburg-Vorpommern;Deutschland;54.372580;12.418870;https://hofladen.info/hofladen/raucherhaus-ahrenshoop
Hohenloher Schaumweine;Mühlgasse 4;74595;Langenburg;Baden-Württemberg;Deutschland;49.275193;9.833130;https://hofladen.info/hofladen/hohenloher-schaumweine
Schmidbergers Schaf- u. Ziegenhof;Äußere Straße 6;97996;Niederstetten;Baden-Württemberg;Deutschland;49.402995;9.873753;https://hofladen.info/hofladen/schmidbergers-schaf-u-ziegenhof
Blütenzauber Manufaktur;Alte Steige 14;74595;Langenburg;Baden-Württemberg;Deutschland;49.246356;9.852060;https://hofladen.info/hofladen/blutenzauber-manufaktur
Duske;Potsdamer Str. 7;35085;Ebsdorfergrund;Hessen;Deutschland;50.759329;8.883436;https://hofladen.info/hofladen/duske
Kettenburgs Hof;Alte Dorfstraße 18;27356 ;Rotenburg;Niedersachsen;Deutschland;53.079007;9.351452;https://hofladen.info/hofladen/kettenburgs-hof
Herba Solaris;Alpenstraße 2;78333;Stockach;Baden-Württemberg;Deutschland;47.873811;8.981577;https://hofladen.info/hofladen/herba-solaris
Wildhof am Weinberg;Krahner Straße 7;14797 ;Kloster Lehnin;Brandenburg;Deutschland;52.334808;12.550595;https://hofladen.info/hofladen/wildhof-am-weinberg
Hirschhof Hildebrandt;Küsterland 19;16918;Wittstock;Brandenburg;Deutschland;53.286230;12.350483;https://hofladen.info/hofladen/hirschhof-hildebrandt
Ziegenhof Ems-Aue;Kurtstr. 8;34560;Fritzlar;Hessen;Deutschland;51.159886;9.264043;https://hofladen.info/hofladen/ziegenhof-ems-aue
Hofladen Rühl;Hofgasse 21;36329 ;Romrod;Hessen;Deutschland;50.728756;9.195859;https://hofladen.info/hofladen/hofladen-ruhl
Hofkäserei Heggelbach;Heggelbach 8;88634;Herdwangen;Baden-Württemberg;Deutschland;47.850780;9.139240;https://hofladen.info/hofladen/hofkaserei-heggelbach
Lunetaler;Taben 3;27616;Beverstedt;Niedersachsen;Deutschland;53.429570;8.846350;https://hofladen.info/hofladen/lunetaler
Hof Walden;Große Bauernreihe 6;18317;Saal;Mecklenburg-Vorpommern;Deutschland;54.296150;12.526280;https://hofladen.info/hofladen/hof-walden
Spargel-Hof Lövenich;Schillingsstraße 72;52355;Düren;Nordrhein-Westfalen;Deutschland;50.795484;6.446966;https://hofladen.info/hofladen/spargel-hof-lovenich
Biohof Schumacher;Deichstraße 1;27321;Emtinghausen;Niedersachsen;Deutschland;52.928200;8.982050;https://hofladen.info/hofladen/biohof-schumacher
Milchzapfstelle Flade;Obere Dorfstraße 15;1723;Helbigsdorf;Sachsen;Deutschland;51.030560;13.475220;https://hofladen.info/hofladen/milchzapfstelle-flade
Gemüsehof Pohl;Merzenicher Straße 5;50170;Kerpen;Nordrhein-Westfalen;Deutschland;50.859720;6.579905;https://hofladen.info/hofladen/gemusehof-pohl
Bioluna;Klosterstraße 2;99831;Creuzburg;Thüringen;Deutschland;51.053230;10.248620;https://hofladen.info/hofladen/bioluna
Hopfgartner Honig;Siedlerweg 10;9429;Hopfgarten;Sachsen;Deutschland;50.679843;13.061180;https://hofladen.info/hofladen/hopfgartner-honig
Johns Hofladen;Tuchenbacher Str. 9;90587 ;Veitsbronn;Bayern;Deutschland;49.512777;10.883561;https://hofladen.info/hofladen/johns-hofladen
Hofkäserei Moser;Ittendorfer Straße 16;88697;Bermatingen-Ahausen;Baden-Württemberg;Deutschland;47.721177;9.325096;https://hofladen.info/hofladen/hofkaserei-moser
Wacholderhof;;65346 ;Eltville;Hessen;Deutschland;50.043415;8.048705;https://hofladen.info/hofladen/wacholderhof
Hofmetzgerei Friedrich Hack;Lindelberg 3;74629;Pfedelbach-Windischenbach;Baden-Württemberg;Deutschland;49.178254;9.467223;https://hofladen.info/hofladen/hofmetzgerei-friedrich-hack
Weingut Keil;Altrenzener Weg 2;74629;Pfedelbach;Baden-Württemberg;Deutschland;49.149540;9.555850;https://hofladen.info/hofladen/weingut-keil
Bunte Kuh;Am Hilgen Hof 10a;4286;Spangenberg;Hessen;Deutschland;51.150916;9.695255;https://hofladen.info/hofladen/bunte-kuh
Gut Boltenhof;Lindenallee 14;16798 ;Fürstenberg/Havel;Brandenburg;Deutschland;53.115416;13.255029;https://hofladen.info/hofladen/gut-boltenhof
Eltersdorfer Hofladen;Weinstraße 30 ;91058 ;Erlangen;Bayern;Deutschland;49.552514;11.000640;https://hofladen.info/hofladen/eltersdorfer-hofladen
Der Auenhof;Potsdamer Landstrasse 11;14641;Wustermark;Brandenburg;Deutschland;52.513907;12.934566;https://hofladen.info/hofladen/der-auenhof
Ucker-Ei;Boben Enn 3;17291;Nordwestuckermark;Brandenburg;Deutschland;53.260192;13.847788;https://hofladen.info/hofladen/ucker-ei
Halder macht Bio;Hauptstraße 18;88374;Hoßkirch;Baden-Württemberg;Deutschland;47.940879;9.445284;https://hofladen.info/hofladen/halder-macht-bio
Hof Körner;Auf dem Kamp 13 ;29664 ;Walsrode;Niedersachsen;Deutschland;52.828279;9.623400;https://hofladen.info/hofladen/hof-korner
Bauer Lümmel;Hermann-Löns-Weg 5;42781 ;Haan;Nordrhein-Westfalen;Deutschland;51.179950;6.985930;https://hofladen.info/hofladen/bauer-lummel
Hof Möllenbeck;Waterort 17;48336;Füchtorf;Nordrhein-Westfalen;Deutschland;52.053713;8.017839;https://hofladen.info/hofladen/hof-mollenbeck
Biomarkt Vorwerk Podemus;Podemuser Ring 1;1156;Dresden;Sachsen;Deutschland;51.060560;13.628343;https://hofladen.info/hofladen/biomarkt-vorwerk-podemus
Erlebnishof Hofmann;Alte Dorfstr.9;96215 ;Lichtenfels;Bayern;Deutschland;50.148670;11.040400;https://hofladen.info/hofladen/erlebnishof-hofmann
Melchiorsgrund;Melchiorsgrund 1;36318;Schwalmtal;Hessen;Deutschland;50.691860;9.285830;https://hofladen.info/hofladen/melchiorsgrund
Kürbishof Cordes;Heisterweg 2;27308;Kirchlinteln;Niedersachsen;Deutschland;52.877706;9.309287;https://hofladen.info/hofladen/kurbishof-cordes
Milchscheune;Neuer Weg 10;61137;Schöneck;Hessen;Deutschland;50.195658;8.861685;https://hofladen.info/hofladen/milchscheune
AGROSS Hofladen;Großstolpen Nr. 6;4539;Groitzsch;Sachsen;Deutschland;51.142866;12.327303;https://hofladen.info/hofladen/agross-hofladen
Agrarhandel;Stollberger Straße 47;8297;Zwönitz;Sachsen;Deutschland;50.656011;12.809250;https://hofladen.info/hofladen/agrarhandel
Hardthof;Hardtweg 23;64385;Reichelsheim;Hessen;Deutschland;49.691160;8.813138;https://hofladen.info/hofladen/hardthof
Erlebnisbauernhof Rademer;Langenbrücker Weg 8a;64832;Babenhausen;Hessen;Deutschland;49.959879;8.944704;https://hofladen.info/hofladen/erlebnisbauernhof-rademer
Hohenloher Ziegensalami;Hornungshof 3;74575;Schrozberg;Baden-Württemberg;Deutschland;49.354109;9.889160;https://hofladen.info/hofladen/hohenloher-ziegensalami
Demeter Bauernhof Neuwerder;Kastanienweg 10;14728;Neuwerder;Brandenburg;Deutschland;52.741623;12.419376;https://hofladen.info/hofladen/demeter-bauernhof-neuwerder
Hof Mahlitzsch;Mahlitzsch 1;1683;Nossen;Sachsen;Deutschland;51.078262;13.367106;https://hofladen.info/hofladen/hof-mahlitzsch
