id;name;type;address;websiteUrl;lat;lng
1989;Tante Resi Unverpackt;mobileMember;Dorfmitte, Achstraße 5a, 86875 Waalhaupten, Deutschland;www.tanteresi.de;47.971292;10.790348
1992;lose & gut - food;mobileMember;Gasthausplatz, 46397 Bocholt, Deutschland;www.instagram.com/lose_gut_food;51.8387829;6.6162561
1988;Tante Resi Unverpackt;mobileMember;Seestaller Dorfladen, Ortsstraße, 86925 Fuchstal, Deutschland;www.tanteresi.de;47.9647127;10.8648973
1982;lose & gut - food ;mobileMember;In Der Kickheide 50, 46397 Bocholt, Deutschland;www.instagram.com/lose_gut_food;51.846735;6.657239
1986;Tante Resi Unverpackt;mobileMember; Wochenmarkt Kaufering, Fuggerplatz 1, 86916 Kaufering, Deutschland;www.tanteresi.de;48.089299;10.851287
1975;Heim'isch Mellis Unverpacktladen;storeMember;92360, Mühlhausen, Bayern, Deutschland;www.heim-isch.de;49.174888;11.449797
1977;WindSchief, Marktwagen (in Planung);mobilePlannedMember;48249, Dülmen, Nordrhein-Westfalen, Deutschland;x;51.828368;7.279141
1983;Natürlichfrei Dreieich ;storeMember;Waldstraße 4, 63303 Dreieich, Deutschland;www.natuerlichfrei.kaufen/filiale-dreieich;49.999355;8.711121
1984;Unverpackt Ettlingen (in Planung);plannedMember;Schillerstraße 2, 76275 Ettlingen, Deutschland;;48.94153;8.405472
1990;Tante Resi Unverpackt;mobileMember;Bio-Hofladen & Gärtnerei, Ammerseestraße 31, 86940 Schwifting, Deutschland;www.tanteresi.de;48.045143;10.938508
1979;Unverpackt Merzig (in Planung);plannedMember;66663, Merzig, Saarland, Deutschland;x;49.442702;6.63749
1981;Unverpackt Spahnharrenstätte (in Planung);plannedMember;49751, Sögel, Niedersachsen, Deutschland;-;52.84181;7.519561
1967;Wiegelust - unverpackt einkaufen;mobileMember;75334, Straubenhardt, Baden-Württemberg, Deutschland;www.facebook.com/wiegelust;48.846929;8.532831
1971;Weltfairbesserer GmbH Amberg;storeNoMember;Moritzstraße 26, 92224 Amberg, Deutschland;www.weltfairbesserer.de;49.441873;11.877054
1991;Tante Resi Unverpackt;mobileMember;An der alten Schule, Seestraße 60, 86899 Landsberg am Lech OT Pitzling, Deutschland;www.tanteresi.de;48.011624;10.881269
1987;Tante Resi Unverpackt;mobileMember;Am FuHA, Obergasse 1, 86923 Finning, Deutschland;www.tanteresi.de;48.027702;11.008818
1985;Lecker Unverpackt;storeNoMember;Schulstraße 20, 88131 Lindau, Deutschland;;47.558307;9.70922
1966;Take it easy - Der Unverpacktladen mit Imbiss;storeMember;Hanauer Straße 23, 63755 Alzenau, Deutschland;;50.087004;9.071191
1993;lose & gut - food;plannedMember;Rathausplatz, 46414 Rhede, Deutschland;www.instagram.com/lose_gut_food;51.8391785;6.6950954
1970;JDA Unpacked Gbr;storeMember;An Der Goldgrube 20, 56656 Brohl-Lützing, Deutschland;www.jda-unpacked.de;50.486876;7.323921
1952;Unverpackt Bad Bramstedt (in Planung);plannedMember;24576, Bad Bramstedt, Schleswig-Holstein, Deutschland;x;53.9167;9.88333
1969;Unverpackt Schleiden (in Planung);plannedMember;53937, Schleiden, Nordrhein-Westfalen, Deutschland;x;50.528592;6.476156
1951;Marktwagen Weyhe (in Planung);mobilePlannedMember;Weyhe, Niedersachsen, Deutschland;x;52.982126;8.849564
1955;Einfach Unverpackt, Woll;storeMember;Hauptstraße 3, 59955, Winterberg, Nordrhein-Westfalen, Deutschland;www.facebook.com/profile.php?id=100082994425984;51.193072;8.533847
1962;Unverpackt Datteln (in Planung);plannedMember;45711, Datteln, Nordrhein-Westfalen, Deutschland;;51.651219;7.339301
1974;fairliebt & hüllenlos;storeNoMember;Bergische Landstraße 40, 51375 Leverkusen, Deutschland;;51.034029;7.049728
1947;Unverpackt Emstek (in Planung);plannedMember;49685, Emstek, Niedersachsen, Deutschland;;52.833961;8.15495
1968;Unverpackt Osterholz-Scharmbeck (in Planung);plannedMember;27711, Osterholz-Scharmbeck, Niedersachsen, Deutschland;;53.228176;8.794824
1945;Umbruch Unverpackt (in Planung);plannedMember;21629, Neu Wulmstorf, Niedersachsen, Deutschland;;53.468241;9.791657
1918;Unverpackt Waltershausen (in Planung);plannedMember;99880, Waltershausen, Thüringen, Deutschland;x;50.901315;10.565306
1917;Siegburg Unverpackt GmbH;storeMember;Kaiserstraße 57, 53721 Siegburg, Deutschland;https://www.siegburg-unverpackt.de;50.800521;7.206789
1937;Steffi's Unverpackt Mönchberg;storeNoMember;Hauptstraße 49, 63933 Mönchberg, Deutschland;;49.79249;9.267111
1922;Unverpackt Rheinhessen mobil;mobilePlannedMember;55294, Bodenheim, Rheinland-Pfalz, Deutschland;www.unverpacktrheinhessen.de;49.929609;8.3084
1948;Oma Else's Unverpackt;plannedMember;41836, Hückelhoven, Nordrhein-Westfalen, Deutschland;;51.055237;6.224732
1930;Unverpackt Fürstenau (in Planung);plannedMember;49584, Fürstenau, Niedersachsen, Deutschland;;52.516787;7.674958
1946;Unverpackt Kirchlauter (in Planung);plannedMember;Pettstadter Straße, 96166 Kirchlauter, Deutschland;;50.0436103;10.6896587
1953;Naturlieb - Unverpackt & regional;plannedMember;53783, Eitorf, Nordrhein-Westfalen, Deutschland;www.natur-lieb.de;50.77103;7.450353
1925;Unverpackt Frankfurt (in Planung);plannedMember;60322, Frankfurt am Main, Hessen, Deutschland;;50.123869;8.67645
1935;Unverpackt Heinsberg (in Planung);plannedMember;52525, Heinsberg, Nordrhein-Westfalen, Deutschland;;51.065427;6.098446
1926;Leckerpott gGmbH - Jute Seele Emden;storeMember;Brückstraße 11, 26725 Emden, Deutschland;www.jute-seele.de;53.366952;7.207529
1933;Liese Lose GmbH;plannedMember;Bahnhofstraße 77a, 31655 Stadthagen, Deutschland;xwww.lieselose.de;52.331047;9.189832
1877;fairkaufsladen;storeMember;Untergasse 3, 35325 Mücke, Deutschland;www.klimafairein.de;50.647358;9.031639
1913;Tante Resi Unverpackt;mobileMember;Bahnhofstraße 16, 82269 Geltendorf;www.tanteresi.de;48.120908;11.028402
1905;Unverpackt Neunkirchen (in Planung);plannedMember;66538, Neunkirchen, Saarland, Deutschland;;49.34;7.19
1912;Tante Resi Unverpackt;mobileMember;Am Dorfladen, Marktplatz 3a, 86875 Waal, Deutschland;www.tanteresi.de;47.995649;10.776376
1878;Samariter Unverpackt;storeMember;Schreinerstraße 14, 10247 Berlin, Deutschland; www.instagram.com/samariter_unverpackt/;52.517079;13.466142
1929;Unverpackt Heilbronn (in Planung);plannedMember;74076, Heilbronn, Baden-Württemberg, Deutschland;;49.158506;9.220329
1868;Marktwagen Berlin Hermsdorf (in Planung);mobilePlannedMember;13467, Berlin, Deutschland; ;52.62;13.31
1924;Unverpackt Potsdam (in Planung);plannedMember;14467, Potsdam, Brandenburg, Deutschland;;52.400931;13.05914
1854; grünkern.;storeMember;Meerfeldstraße 24, 68163 Mannheim, Deutschland; gruenkern-unverpackt.de;49.475541;8.468209
1873;Mein Unverpackt-Laden, fair-nachhaltig-regional ;plannedMember;Dr.-Robert-Koch-Straße 19, 09217 Burgstädt, Deutschland; Mandy_Mehner@freenet.de;50.918819;12.806405
1835; Unverpackt Bad Soden (in Planung);plannedMember;65812, Bad Soden am Taunus, Hessen, Deutschland; ;50.16;8.49
1956;Unverpackt Stadtlohn ;plannedMember;48703, Stadtlohn, Nordrhein-Westfalen, Deutschland;unverpackt-stadtlohn.de;51.992835;6.917307
1958;GUT (UN)VERPACKT (in Planung);plannedMember;Löwenburgstraße 30, 51375 Leverkusen, Deutschland;https://www.gutunverpackt.de/;51.027761;7.032861
1941;Beim Moiern z'Straß - Hofladen und NachfüllBar;storeMember;Straß 7, 83410, Laufen, Bayern, Deutschland;;47.942338;12.8973
1859; Unverpackt München Nordwest (in Planung);plannedMember;80995, München, Bayern, Deutschland; https://www.unverpackt-mucnord.de;48.19;11.53
1845;Unverpackt Flieden (in Planung);plannedMember;36103, Flieden, Hessen, Deutschland;;50.419981;9.549568
1852; Unverpackt Augsburg (in Planung);plannedMember;86159, Augsburg, Bayern, Deutschland; ;48.36;10.89
1916;Kruemelladen;storeMember;Dresdener Straße 30b, 01904 Neukirch, Deutschland;https://www.unverpackt-neukirch.de/;51.096861;14.282321
1944;Eichhörnchen Unverpackt UG (in Planung);plannedMember;10551, Berlin, Deutschland;x;52.528621;13.335202
1903;Unverbackt (in Planung);plannedMember;87719, Mindelheim, Bayern, Deutschland;www.unverbackt.de;48.04;10.5
1914;Tante Resi Unverpackt;mobileMember;SEEL Tankstelle, Bahnhofstraße 22, 86925 Fuchstal;www.tanteresi.de;47.935136;10.832486
1908;Unverpackt Irrel (in Planung);plannedMember;54666, Irrel, Rheinland-Pfalz, Deutschland;;49.844824;6.452123
1931;Tante Emmer - unverpackt & bio;storeMember;Grabengasse 23, 94032 Passau, Deutschland;www.tante-emmer.com;48.574186;13.461848
1875;nix umzu;mobileMember;Anna-Seghers-Straße, 28279 Bremen, Deutschland;;53.0443847;8.8482175
1841;Lufthülle ;storeMember;Sportplatzstraße 16 C, 85716, Unterschleißheim, Bayern, Deutschland; www.lufthuelle.de;48.28;11.56
1921;Unverpackt Meppen (in Planung);plannedMember;49716, Meppen, Niedersachsen, Deutschland;;52.694745;7.290982
1857;LosesGlück;storeNoMember;Amselweg 1, 31855 Aerzen, Deutschland;;52.049342;9.256
1831; Unverpackt Werksviertel-Mitte (in Planung);plannedMember;81671, München, Bayern, Deutschland; ;48.12;11.61
1834;Unverpackt-Irrel (in Planung);plannedMember;54666, Irrel, Rheinland-Pfalz, Deutschland; ;49.84669;6.45617
1840; sisu Unverpackt;plannedMember;48249, Dülmen, Nordrhein-Westfalen, Deutschland;sisu-unverpackt.de;51.83;7.29
1900;Unverpackt Mullheim (in Planung);plannedMember;79379, Müllheim, Baden-Württemberg, Deutschland;;47.8;7.63
1887;OF Unverpackt;storeMember;Gabelsbergerstraße 48, 63069 Offenbach am Main, Deutschland;;50.094809;8.762882
1849;nix umzu;mobileMember;Am Winterhafen, 28217 Bremen, Deutschland;;53.0989216;8.7610361
1906;Weltkind eG;storeMember;97440, Werneck, Bayern, Deutschland;www.weltkind.bio;49.981604;10.100153
1862;Unverpackt Gifhorn (in Planung);plannedMember;38518, Gifhorn, Niedersachsen, Deutschland;;52.52;10.53
1884;nix umzu;mobileMember;Colshornstraße 34a, 28307 Bremen, Deutschland;;53.041412;8.91815
1829;Frl. Unverpackt Forchheim UG;storeNoMember;Apothekenstraße 6, 91301 Forchheim, Deutschland;www.frl-unverpackt.de;49.719503;11.059637
1848;nix umzu;mobileMember;Borgfelder Landstraße 1, 28357 Bremen, Deutschland;;53.126534;8.903103
1809;UNVERPACKT;storeMember;Durlacher Allee 75, 76131 Karlsruhe, Deutschland;www.unverpackt.de;49.005564;8.435637
1830;Unverpackt Döbeln (in Planung);plannedMember;04720, Döbeln, Sachsen, Deutschland;;51.12;13.12
1825;proPURE;mobileNoMember;Am Markt, 49419 Wagenfeld, Deutschland;www.propure.de ;52.5538003;8.5842872
1813;das füllwerk Wismar;storeMember;Dankwartstraße 37, 23966 Wismar, Deutschland;www.fuellwerk-wismar.de;53.889707;11.463596
1788; re-Fillstation - Bewusst Einkaufen (in Planung);plannedMember;91154, Roth, Bayern, Deutschland; ;49.21;11.13
1837; TANTE FILDA - Filder unverpackt;storeMember;Bernhäuser Hauptstraße 32, 70794 Filderstadt, Deutschland;www.tante-filda.de;48.679016;9.218207
1711;VEDA Shop unverpackt;storeNoMember;Subbelrather Straße 299, 50825 Köln, Deutschland;;50.955519;6.915402
1760;PUR:PRODUKT gGmbH  ;storeMember;Kirchplatz 14, 32130 Enger, Deutschland;www.purprodukt.de ;52.139253;8.559101
1907;Unverpackt Weiskirchen (in Planung);plannedMember;66709, Weiskirchen, Saarland, Deutschland;;49.54954;6.811067
1856; Unverpackt Emmendingen (in Planung);plannedMember;79312, Emmendingen, Baden-Württemberg, Deutschland; ;48.12;7.87
1821; Unverpackt Ludwigsburg (in Planung);plannedMember;Ludwigsburg, Baden-Württemberg, Deutschland; ;48.8975;9.19194
1850; Siebenäckerhof (in Planung);plannedMember;97464, Niederwerrn, Bayern, Deutschland; www.siebenächkerhof.de;50.06;10.17
1853; greenroot;storeMember;Marktgraben 14, 6020 Innsbruck, Österreich; www.greenroot.bio;47.266794;11.392824
1805;Unverpackt Hammelbach (in Planung);plannedMember;Schulstraße 6, 64689 Grasellenbach, Deutschland;;49.635267;8.831649
1782; Unverpackt Eifel (in Planung);plannedMember;52159, Roetgen, Nordrhein-Westfalen, Deutschland; ;50.666317;6.219372
1741;Sell & ebbes - unverpackt auf Rädern;mobileMember;Sinsheimer Straße, 69226 Nußloch, Deutschland;www.sell-und-ebbes.de;49.3215012;8.7009452
1754;o-Ve - ohne Verpackung;storeMember;Breite Herzogstraße 12, 38300 Wolfenbüttel, Deutschland;www.o-ve.de;52.163845;10.540431
1811;nackt & unverpackt GbR;plannedMember;Bruayplatz 3, 58730 Fröndenberg/Ruhr, Deutschland; ;51.472216;7.764717
1729;Unverpackt Willich (in Planung);plannedMember;47877, Willich, Nordrhein-Westfalen, Deutschland;;51.27;6.52
1699;Unverpackt Wiesloch;plannedMember;69168, Wiesloch, Baden-Württemberg, Deutschland;www.unverpackt-wiesloch.de;49.29426;8.698707
1772;s´Scheifale unverpackt & regional;storeMember;Gutenzeller Straße 12, 88486 Kirchberg an der Iller, Deutschland;www.scheifale-unverpackt.de;48.132577;10.079464
1774; Unverpackt Dachau (in Planung);plannedMember;85221, Dachau, Bayern, Deutschland; ;48.27;11.47
1724;Naturraum Unverpackt (in Planung);storeMember;Bahnhofstraße 15, 01844 Neustadt i. Sa., Deutschland;www.naturraum-unverpackt.de;51.024007;14.214289
1827;proPURE;mobileNoMember;Marktstraße, 49393 Lohne, Deutschland;www.propure.de;52.6656495;8.2362938
1752;Nicht nur Unverpackt (in Planung);plannedMember;47918, Tönisvorst, Nordrhein-Westfalen, Deutschland;;51.32;6.48
1816;Kaffee & Korn - Unverpackt ;storeMember;Treskowallee 88, 10318 Berlin, Deutschland; www.kaffeeundkorn.de;52.484346;13.525873
1691;unverpacktTruck;mobileMember;Hindenburgstraße 9, 27616 Beverstedt, Deutschland;www.unverpackttruck.de;53.432797;8.817592
1803;UnFAIRpackt Essen und Co;storeNoMember;Gemarkenstraße 93, 45147 Essen, Deutschland;;51.440838;6.990641
1750;Unverpackt Holzkirchen (in Planung);plannedMember;83607, Holzkirchen, Bayern, Deutschland;;47.87;11.7
1743;Sell & ebbes - unverpackt auf Rädern;mobileMember;Anton-Wetterer-Straße 4, 76646 Bruchsal, Deutschland;www.sell-und-ebbes.de;49.124505;8.597215
1652;Fülle ohne Hülle (in Planung);mobilePlannedMember;55234, Albig, Rheinland-Pfalz, Deutschland;;49.77;8.12
1677;Am liebsten lose;mobileMember;59075, Hamm, Nordrhein-Westfalen, Deutschland;www.amliebstenlose.com;51.7;7.77
1702;Unverpackt Seelscheid;storeMember;Auf Der Höh 2, 53819 Neunkirchen-Seelscheid, Deutschland;www.unverpackt-seelscheid.de;50.869506;7.321653
1824;Naturfülle - Mein Unverpackt-Laden;plannedMember;Hauptstraße 79, 58332 Schwelm, Deutschland; ;51.284792;7.295882
1684;Unverpackt mit Herz;storeMember;Schanzstraße 4, 66424 Homburg, Deutschland;www.unverpacktmitherz.de;49.321068;7.338946
1796; SUSU- Unverpackt Frankenthal (in Planung);plannedMember;67227, Frankenthal, Rheinland-Pfalz, Deutschland; ;49.54458;8.354006
1808;PURE Unverpackt am Meer;plannedNoMember;Neue Straße 1, 26316 Varel, Deutschland;;53.395214;8.139596
1801;Unverpackt Schermbeck (in Planung);plannedMember;46514, Schermbeck, Nordrhein-Westfalen, Deutschland; ;51.67;6.89
1894;tinaunverpackt (in Planung);mobileMember;66709, Weiskirchen, Saarland, Deutschland;;49.556097;6.818141
1704;GreenDate - Zero Waste;storeNoMember;39, Rue De La Gare, Echternach, Luxemburg;;49.814367;6.417788
1802;Tante M;storeMember;Rintheimer Straße 1, 76131 Karlsruhe, Deutschland;www.tante-m-karlsruhe.de;49.010956;8.423585
1823; Obstparadies Manufaktur (in Planung);plannedMember;Gewerbestraße 19, 79219 Staufen im Breisgau, Deutschland;;47.888013;7.719309
1822; Unverpackt Hamburg Heimfeld (in Planung);plannedMember;21075, Hamburg, Deutschland; ;53.47;9.92
1847; Unverpackt Bad Endorf (in Planung);plannedMember;83093, Bad Endorf, Bayern, Deutschland; ;47.91;12.3
1785;FKK Unverpackt - Freie Konsum Kultur ;storeNoMember;Münzstraße 24, 19055 Schwerin, Deutschland;www.fkk-unverpackt.de;53.630215;11.417489
1690;unverpacktTruck;mobileMember;Von-Marschalk-Straße, 27612 Loxstedt, Deutschland;www.unverpackttruck.de;53.4717078;8.6497704
1758;Unverpackt Vollgepackt;mobileNoMember;89143, Blaubeuren, Baden-Württemberg, Deutschland;;48.4;9.79
1769;Tante Emma Schrobenhausen;storeMember;Lenbachstraße 18, 86529 Schrobenhausen, Deutschland;www.tanteemma-sob.de;48.562326;11.264336
1662;Coesfeld Unverpackt;storeMember;Bernhard-Von-Galen-Straße 8, 48653 Coesfeld, Deutschland;www.unverpackt-coesfeld.de;51.94492;7.167673
1666;KornKammer, natürlich unverpackt;storeMember;Hoffmannallee 114, 47533 Kleve, Deutschland;www.unverpackt-kleve.de;51.776541;6.12109
1675;Umverpackt;storeMember;Leinenweberstraße 67, 70567 Stuttgart, Deutschland;www.umverpackt.shop;48.728661;9.142034
1596;Unverpackt Seeheim-Jugenheim (in Planung);plannedMember;64342, Seeheim-Jugenheim, Hessen, Deutschland;;49.76;8.65
1744;Unverpackt Bruchsal (in Planung);plannedMember;76646, Bruchsal, Baden-Württemberg, Deutschland;;49.12;8.6
1600;Marktwagen Renner & Jandke Unverpackt Süderelbe GbR;mobileMember;Singdrosselweg 5, 21077;www.unverpackt-suederelbe.de;53.4707039;9.853464
1784;Elisabeth's Genussmanufaktur;storeMember;Kölner Straße 95, 41812 Erkelenz, Deutschland;www.elisabeths.shop;51.071077;6.327579
1616;Unverpackt Reinwald;storeMember;Kleiststraße 3, 74193 Schwaigern, Deutschland;www.unverpackt-reinwald.de;49.131022;9.007583
1876;wagen | Nachhaltigkeiten & Ladencafé;storeMember;Nördlinger Straße 10, 86609 Donauwörth, Deutschland; www.wagen-ladencafe.de;48.732407;10.776539
1638;Muttels Unverpackt (in Planung);plannedMember;Maria-Louisen-Straße 2a, 22301 Hamburg, Deutschland;www.muttels.de;53.583864;9.996503
1832;PURE+unverpackt;storeNoMember;Wendenstraße 8, 31785 Hameln, Deutschland; www.pure-unverpackt.de;52.103256;9.354973
1792;Unverpackt Korschenbroich (in Planung);plannedMember;Schwohenend 6, 41352 Korschenbroich, Deutschland;;51.164751;6.575586
1815;natürlich unverpackt Mietingen (in Planung);plannedMember;88487, Mietingen, Baden-Württemberg, Deutschland; ;48.178506;9.896589
1640;Ursprünglich Unverpackt Tonia Knecht ;storeMember;Wentorf, Schleswig-Holstein, Deutschland;https://urspruenglich-unverpackt.de;53.672649;10.474089
1807;Siro unverpackt & regional;plannedMember;58313, Herdecke, Nordrhein-Westfalen, Deutschland;www.siro-unverpackt.de;51.4;7.43
1855;Unverpackt Rheda-Wiedenbrück (in Planung);plannedMember;33378, Rheda-Wiedenbrück, Nordrhein-Westfalen, Deutschland;;51.85;8.29
1634;Herbstkindl;storeNoMember;Kufsteiner Straße 54, 83088 Kiefersfelden, Deutschland;www.herbstkindl.de;47.609561;12.187439
1587;Uvla Unverpackt (in Planung);plannedMember;Clayallee 331, 14169 Berlin, Deutschland;;52.437608;13.261611
1764;Haferflöckchen unverpackt;storeMember;Bahnstraße 24, 53894 Mechernich, Deutschland;www.haferflöcken-unverpackt.de;50.591509;6.652092
1553;Papperlapack - Unverpacktes in Warburg (in Planung);plannedMember;34414, Warburg, Nordrhein-Westfalen, Deutschland;;51.52;9.12
1826;proPURE;mobileNoMember;Mühlenstraße, 49401 Damme, Deutschland;www.propure.de;52.5228896;8.1922212
1585;Unverpackt Fallersleben (in Planung);plannedMember;38442, Wolfsburg, Niedersachsen, Deutschland;;52.42;10.73
1539;FrohNatur I Unverpackt & Regional;storeMember;An Der Eulenburg 28, 21391 Reppenstedt, Deutschland;www.frohnatur-lueneburg.de;53.247543;10.355815
1602;Marktwagen Süderelbe (in Planung);mobilePlannedMember;Berta-Kröger-Platz, 21109 Hamburg, Deutschland;;53.4976592;10.0111407
1572;Nakedshop.ro;storeNoMember;Hermannstadt, Kreis Sibiu, Rumänien;www.nakedshop.ro;45.8;24.15
1565;Unverpackt Gotha (in Planung);plannedMember;99867, Gotha, Thüringen, Deutschland;;50.94;10.7
1592;Glück im Glas;storeMember;Hauptstraße 43, 79650 Schopfheim, Deutschland;www.glueck-im-glas.de;47.650141;7.822044
1577;proPURE;mobileNoMember;49356, Diepholz, Niedersachsen, Deutschland;www.propure.de;52.62;8.36
1580;Lebenswert (in Planung);plannedMember;27628, Hagen im Bremischen, Niedersachsen, Deutschland;;53.36;8.52
1777; Unverpackt Planegg (in Planung);plannedMember;82152, Planegg, Bayern, Deutschland; ;48.1;11.42
1573;Albis Shop (in Planung);plannedMember;79106, Freiburg im Breisgau, Baden-Württemberg, Deutschland;;48.0;7.84
1515;Neustadt isst Hüllenlos;storeNoMember;Parkstraße 6a, 91413 Neustadt an der Aisch, Deutschland;;49.578025;10.606874
1520;natuerlichfrei (in Planung);plannedMember;63500, Seligenstadt, Hessen, Deutschland;www.natuerlichfrei.kaufen;50.04;8.97
1556;Unverpackt Schortens (in Planung);plannedMember;26419, Schortens, Niedersachsen, Deutschland;;53.56;7.983888
1554;naturgerie;storeMember;Lindenstraße 54, 50674 Köln, Deutschland;www.naturgerie.de;50.933558;6.935171
1522;Unverpacktes Glück - Düren;storeMember;Oberstraße 13, 52349 Düren, Deutschland;www.unverpacktes-glueck.de;50.801021;6.484777
1818;BefüllBar - Natürlich Ohne;mobileNoMember;Werler Straße 75, 59457 Werl, Deutschland;;51.583484;7.860606
1491;Marktwagen Emmendingen (in Planung);mobilePlannedMember;Emmendingen, Baden-Württemberg, Deutschland;;48.12139;7.84917
1523;Unverpacktes Glück - Jülich;storeMember;Marktstraße 9, 52428 Jülich, Deutschland;www.unverpacktes-glueck.de;50.921092;6.358233
1694;unverpacktTruck;mobileMember;Hauptstraße 40, 21775 Ihlienworth, Deutschland;www.unverpackttruck.de;53.738668;8.916255
1680;Unverpackt Landsberg (in Planung);plannedMember;Holzhauser, 86899 Landsberg am Lech, Deutschland;;48.0502689;10.8566465
1676;UN.FAIRPAQT Quickborn;plannedMember;25451, Quickborn, Schleswig-Holstein, Deutschland;www.un-fairpaqt.de;53.732895;9.902929
1594;Unverpackt Balve (in Planung);plannedMember;58802, Balve, Nordrhein-Westfalen, Deutschland;;51.343558;7.857258
1569;Unverpackt Mobil (in Planung);plannedMember;82223, Eichenau, Bayern, Deutschland;;48.17;11.32
1637;OAT REBELS;storeMember;Burbacher Straße 209, 53129 Bonn, Deutschland;www.lieberunverpackt.de;50.712082;7.110204
1590;Unverpackt Solingen (in Planung);plannedMember;42699, Solingen, Nordrhein-Westfalen, Deutschland;;51.16;7.02
1586;Unverpackt Recke (in Planung);plannedMember;49509, Recke, Nordrhein-Westfalen, Deutschland;;52.34;7.74
1733;Unverpackt Dorsten (in Planung);plannedMember;46282, Dorsten, Nordrhein-Westfalen, Deutschland;;51.66;6.97
1838; SPEICHER umgedacht;storeMember;Beim Nonnenhaus 3, 72070 Tübingen, Deutschland;www.speicher-tuebingen.de;48.521767;9.055656
1649;Sorglos;storeMember;Berliner Platz 2, 63796 Kahl am Main, Deutschland;www.sorglos-kahl.de;50.079113;9.009189
1709;Unverpackt Jüchen (in Planung);plannedMember;41363, Jüchen, Nordrhein-Westfalen, Deutschland;;51.1;6.52
1612;Unverpackt Schongau (in Planung);plannedMember;86956, Schongau, Bayern, Deutschland;;47.812458;10.894908
1527;Tante M;storeMember;Körnerstraße 26, 76135 Karlsruhe, Deutschland;www.tante-m-karlsruhe.de;49.009137;8.377334
1545;das Dekagramm;storeMember;Joanneumring 16, 8010 Graz, Österreich;www.dasgramm.at/dekagramm;47.067248;15.43959
1497;Die Krämerin ;storeMember;Fuggerstraße 44, 86830 Schwabmünchen, Deutschland;www.diekraemerin-smue.de;48.183497;10.758025
1535;Die Naturie;storeMember;Gerberstraße 1, 71665 Vaihingen/Enz ;www.die-naturie.de;48.96459;9.011089
1584;Eckenhääner Lädchen;storeMember;Reichshofstraße 36, 51580 Reichshof, Deutschland;www.eckenhagen-unverpackt.de;50.987973;7.693991
1480;Derkemer u(n)verpackt;storeMember;Schlosskirchenpassage 4, 67098 Bad Dürkheim, Deutschland;www.derkemer-unverpackt.de;49.461509;8.167333
1411;PARTOUT BIO - Concept Store;storeMember;Kirchweg 50, 34119 Kassel, Deutschland;www.partoutbio.com;51.312996;9.46475
1423;Ohne Schmarrn ;storeMember;Marktplatz 3, 85229 Markt Indersdorf, Deutschland;www.ohne-schmarrn.de;48.36151;11.374513
1453;Unverpackt Schwerte (in Planung);plannedMember;58239, Schwerte, Nordrhein-Westfalen, Deutschland;;51.44;7.56
1424;Krämerei am Markt - Olpe unverpackt!;storeMember;Westfälische Straße 13, 57462 Olpe, Deutschland;www.kraemerei-am-markt.de;51.030251;7.844716
1369;SIMPErL regional&unverpackt;storeMember;Steinkirchener Straße 1, 85221 Dachau, Deutschland;;48.264181;11.435134
1375;Fridi unverpackt GmbH ;storeNoMember;Eisenbahnstraße 31, 72072 Tübingen, Deutschland;www.fridi-unverpackt.de;48.515648;9.076867
1418;Emmas Bioladen;storeNoMember;Poststraße 1, 83435 Bad Reichenhall, Deutschland;www.emmas-bio-laden.de;47.721431;12.874803
1525;Wohl-Füll-Eck;storeMember;Findelmühlstraße 24, 97618 Wülfershausen an der Saale, Deutschland;www.wohl-fuell-eck.de;50.331165;10.343627
1398;Schütte dir ein!;storeMember;Schieringerstraße 20, 74321 Bietigheim-Bissingen, Deutschland;www.schuettedirein.de;48.960236;9.127312
1382;Die Loserei ;plannedMember;Mauernstraße 24, 29221 Celle, Deutschland;www.dieloserei.de;52.623915;10.085131
1391;lotte & klara;storeMember;Rotkreuzgasse 4, 67547 Worms, Deutschland;www.lotteundklara.de;49.631662;8.360351
1345;tante lose.;storeMember;Paradiesstraße 9, 88239 Wangen im Allgäu, Deutschland;www.tantelose.de;47.685663;9.833032
1457;Unverpackt Springe (in Planung);plannedMember;31832, Springe, Niedersachsen, Deutschland;;52.21;9.58
1354;proPURE;mobileNoMember;Lange Straße, 27232 Sulingen, Deutschland;www.propure.de;52.6821433;8.8023912
1446;Wandel.Handel Plattsalat Ost;storeMember;Wagenburgstraße 123, 70186 Stuttgart, Deutschland;www.wandel-handel.de;48.781084;9.205012
1437;Genussfüllerei;storeMember;Dr.-Boecale-Straße 10, 92331 Parsberg, Deutschland;www.genussfüllerei-parsberg.de;49.160357;11.716223
1432;Fantastik ohne Plastik;storeMember;Adam-Houx-Straße 34, 41372 Niederkrüchten, Deutschland;www.fantastikohneplastik.de;51.212029;6.167165
1393;Unverpackt Nürnberg;storeMember;Johannisstraße 151, 90419 Nürnberg, Deutschland;www.unverpackt.es;49.461069;11.052062
1472;PURISST Nienburg;mobileMember;31582, Nienburg, Niedersachsen, Deutschland;www.purisst.net;52.64;9.22
1326;Glas & Beutel - Unverpackt Nürtingen eG;storeMember;Marktstraße 10, 72622 Nürtingen, Deutschland;www.glasundbeutel.de;48.62639;9.33648
1243;Duisburg Unverpackt;storeMember;Blumenstraße 4, 47057 Duisburg, Deutschland;www.duisburg-unverpackt.de;51.429523;6.782419
1261;Unverpackt-Laden Oberland eG;storeMember;Hindenburgstraße 11, 83646 Bad Tölz, Deutschland;www.ois-ohne.de;47.762998;11.562488
1250;NAGGISCH;storeMember;Hauptstraße 43, 69151 Neckargemünd, Deutschland;www.unverpacktneckargemuend.de;49.394128;8.798487
1239;kleegrün | Unverpackt in Fürth;storeMember;Königstraße 44, 90762 Fürth, Deutschland;www.kleegruen.com;49.479388;10.9860388
1316;FAIR unverpackt;storeNoMember;Düsseldorfer Straße 12, 10719 Berlin, Deutschland;;52.4958403;13.3215689
1390;EINKORN unverpackt & mehr;storeMember;Rathausstraße 41b, 68519 Viernheim, Deutschland;www.einkorn-unverpackt.de;49.537301;8.578353
1254;ohnverpackt.;storeMember;Obermarkt 29, 82515 Wolfratshausen, Deutschland;www.ohnverpackt.de;47.912744;11.41764
1233;b:OHNE - besser OHNE Plastik;storeMember;Am Stadtgraben 6, 71332 Waiblingen, Deutschland;www.bohne-waiblingen.de;48.830893;9.314525
1335;kathi & käthe - fair verpackt;storeMember;Garnstraße 20, 14482 Potsdam, Deutschland;www.fairverpackt-babelsberg.de;52.3938454;13.0916023
1161;Füllstation;storeMember;Pfluggasse 3, 88400 Biberach an der Riß, Deutschland;www.fuellstation-biberach.de;48.099102;9.791175
1222;Einfach Unverpackt;storeMember;Könneritzstraße 95, 04229 Leipzig, Deutschland;www.einfach-unverpackt.de;51.319704;12.341678
1203;Lingen Unverpackt eG;storeMember;Kirchstraße 2, 49808 Lingen, Deutschland;www.lingen-unverpackt.de;52.523076;7.316309
1211;Fußabdruck – Villingen unverpackt;storeMember; Obere Straße 24, 78052 Villingen-Schwenningen, Deutschland;www.villingen-unverpackt.de;48.061101;8.459623
1213;ADAM FAIRkaufen;storeMember;Breslauer Straße 28, 63739 Aschaffenburg, Deutschland;www.adam-fairkaufen.de;49.978237;9.155249
1310;einfach leben UNVERPACKT;storeMember;Hinterdorf 8, 97833 Frammersbach, Deutschland;www.einfachleben-unverpackt.de;50.060097;9.47814
1158;Anti-Plasti Rheinbach;storeMember;Vor Dem Voigtstor 9, 53359 Rheinbach, Deutschland;www.anti-plasti-rheinbach.de;50.625873;6.952765
1251;Unverpackt Heroldsberg (in Planung);plannedMember;90562, Heroldsberg, Bayern, Deutschland;;49.54;11.15
1124;freiRAUM Unverpackt;storeMember;Lange Straße 126, 27749 Delmenhorst, Deutschland;www.freiraum-unverpackt.de;53.050068;8.627029
1101;Tante Olga - Deutz (in Planung);plannedNoMember;50679, Köln, Nordrhein-Westfalen, Deutschland;www.tante-olga.de;50.94;6.98
1115;Urginell & Unverpackt im Kaffeehaus;storeMember;Hindenburgstraße 45, 42853 Remscheid, Deutschland;;51.183661;7.179762
1088;das Gramm ;storeMember;Joanneumring 16, 8010 Graz, Österreich;www.dasgramm.at;47.067248;15.43959
1131;streubar;storeMember;Steilshooper Straße 41, 22305 Hamburg, Deutschland;www.streubar.de;53.586556;10.048595
1420;Unverpackt Berlin Charlottenburg (in Planung);plannedMember;Horstweg, 14059 Berlin, Deutschland;;52.5122799;13.2927604
1264;VIEL MEHR unverpackt;storeMember;Annakirchstraße 63, 41063 Mönchengladbach, Deutschland;www.vielmehr-unverpackt.de;51.205032;6.411884
1468;Unverpackt Friedberg (in Planung);plannedMember;86316, Friedberg, Bayern, Deutschland;;48.36;11.0
1479;Alles Ohne - Unverpackt;storeMember;Wangerstraße 4, 26441 Jever, Deutschland;www.alles-ohne-unverpackt.de;53.574307;7.901585
1451;lose & gut frei von Verpackung;storeMember;Markt 19, 46414 Rhede, Deutschland;www.lose-gut.de;51.840633;6.698132
1496;DEINE alternative;storeNoMember;Anzinger Straße 3, 85604 Zorneding, Deutschland;www.deine-alternative.com;48.090688;11.829338
1396;Loses Gut;storeMember;Rathausstraße 15, 26789 Leer, Deutschland;www.loses-gut.de;53.227322;7.450717
1445;KöpManLose;storeMember;Chemnitzstraße 6, 25355 Barmstedt, Deutschland;www.unverpackt-barmstedt.de;53.789059;9.772864
1441;Lulu unverpackt;storeNoMember;Schloßstraße 29, 19288 Ludwigslust, Deutschland;;53.32426;11.493564
1373;Oma Lore;storeMember;Bahnhofstraße29, 72147 Nehren, Deutschland;;48.4260659;9.0668005
1471;Unverpackt Hofheim (in Planung);plannedMember;97461, Hofheim in Unterfranken, Bayern, Deutschland;;50.14;10.53
1313;Lieber Lose;storeNoMember;Weißenfelser Straße 22, 04229 Leipzig, Deutschland;www.lieberlose.de;51.330963;12.338136
1342;Tante Ännie;storeMember;Dollendorfer Straße 46, 53639 Königswinter, Deutschland;www.tante-aennie.de;50.70809;7.273552
1281; u wie unverpackt;storeMember;Wallstraße 81, 51063 Köln, Deutschland;www.uwieunverpackt.de;50.963491;7.000725
1244;Die Auffüllerei GmbH;storeMember;Höhenstraße 40, 60385 Frankfurt am Main, Deutschland;www.dieauffuellerei.de;50.124568;8.700032
1309;Unverpackt in Eppelborn;storeMember;Bahnhofstraße 12, 66571 Eppelborn, Deutschland;www.eppelkischd.de;49.407524;6.967094
1333;WertVoll;storeNoMember;Marktstraße 16, 21423 Winsen (Luhe), Deutschland;;53.36436;10.20624
1156;Lindenhof - Solidarische Landwirtschaft Gelsenkirchen;storeMember;Brauckstraße 154, 45892 Gelsenkirchen, Deutschland;www.lindenhof-gelsenkirchen.de;51.572802;7.100028
1182;Nix-Drum-Rum;storeMember;Marktplatz 9, 61231 Bad Nauheim, Deutschland;www.nix-drum-rum.de;50.363693;8.73508
1357;Unverpackt im Weschnitztal;storeMember;Gymnasiumstraße 12, 64668 Rimbach, Deutschland;www.unverpacktimweschnitztal.de;49.623806;8.758277
1200;eigenhändig unverpackt;storeMember;Lammstraße 1, 73230 Kirchheim unter Teck, Deutschland;www.eigenhaendig.com;48.64982;9.451696
1327;Buchholz endlich unverpackt;storeMember;Ole Wisch 1, 21244 Buchholz in der Nordheide, Deutschland;www.buchholzendlichunverpackt.de;53.3361953;9.885293999999998
1140;d`Kramerei;storeMember;Riedenburger Straße 9, 92345 Dietfurt an der Altmühl, Deutschland;www.kramerei-mühlbach.de;49.021199;11.616836
1117;MITOHNE;storeMember;Langer Anger 60, 69115 Heidelberg, Deutschland;www.unverpackt-bahnstadt.de;49.399523;8.671436
1069;Unverpackt Neuthard;storeMember;Im Entenfang 3, 76689 Karlsdorf-Neuthard, Deutschland;www.unverpackt-neuthard.de;49.135737;8.525091
1383;Unverpackt & Gut;storeMember;Lange Straße 58, 31675 Bückeburg, Deutschland;www.unverpacktundgut.de;52.260531;9.048741
1319;Granél - Unverpackt Lippstadt;storeMember;Beckumer Straße 24, 59555 Lippstadt, Deutschland;www.unverpackt-lp.de;51.678378;8.337558
1287;Servus Resi - natürlich unverpackt;storeMember;Kistlerhofstraße 111, 81379 München, Deutschland;www.servus-resi.de;48.094467;11.519617
1126;Unverpackt Weinheim;storeMember;Hauptstraße 66, 69469 Weinheim, Deutschland;www.unverpacktweinheim.de;49.550944;8.672331
1234;Schüttwerk;storeMember;Tumringer Straße 221, 79539 Lörrach, Deutschland;www.schuettwerk-unverpackt.de;47.61507;7.660657
1255;Füll Mal;mobileMember;Im Wieschen 2, 54570 Berlingen, Deutschland;www.fuellmal.de;50.237898;6.716858
1275;Unverpackt Elmshorn (in Planung);plannedMember;25337, Elmshorn, Schleswig-Holstein, Deutschland;www.unverpackt-elmshorn.de;53.74;9.71
1046;Unverpackt Endingen (in Planung);plannedMember;79346, Endingen am Kaiserstuhl, Baden-Württemberg, Deutschland;;48.133272;7.684999
1133;Tante Erna Unverpackt;storeMember;Schulgasse 3, 64546 Mörfelden-Walldorf, Deutschland;www.tante-erna.de;49.974957;8.569529
1385;LiMa's fairpackte Welt;storeMember;Obere Wilhelmstraße 30, 53225 Bonn, Deutschland;www.limasfairpacktewelt.de;50.739867;7.125442
1435;Oifach ohne;storeMember;Marktstraße 17, 89597 Munderkingen, Deutschland;;48.235946;9.642535
1311;Nachfüllbar;storeNoMember;Wilhelmshöher Allee 178, 34119 Kassel, Deutschland;;51.31308;9.458595
1225;Tante Trude - loseladen buxtehude;storeMember;Lange Straße 39-45, 21614 Buxtehude, Deutschland;www.tante-trude-buxtehude.de;53.475739;9.699018
1005;Randvoll - Café & Unverpacktes;storeNoMember;41564, Kaarst, Nordrhein-Westfalen, Deutschland;;51.23;6.62
1099; Marktplatz4 - bio.unverpackt.regional.fair.;storeNoMember;Marktplatz 4, 87730 Bad Grönenbach, Deutschland;;47.874394;10.222107
953;Kaufladen - Speyer unverpackt;storeMember;Große Greifengasse 1, 67346 Speyer, Deutschland;www.kaufladen-speyer.de;49.318334;8.433728
928;Frau Ernas loser LebensMittelPunkt;storeMember;Arndtstraße 38, 39108 Magdeburg, Deutschland;www.frau-ernas.de;52.126172;11.612516
920;Ohne Gedöns GmbH;storeMember;Kattjahren 1c, 22359 Hamburg, Deutschland;www.ohnegedoenshamburg.de;53.651312;10.162944
1166;Stück vom Glück - Unverpackt einkaufen in Rotenburg;storeMember;Am Neuen Markt 4, 27356 Rotenburg, Deutschland;www.stueckvomglueck.net;53.110919;9.40722
1221;S‘Gläsle Friedrichshafen;storeMember;Charlottenstraße 57, 88045 Friedrichshafen, Deutschland;www.sglaesle.de;47.655058;9.481174
1072;Ulf un:verpackt!;storeMember;Darmstädter Landstraße 44, 60594 Frankfurt am Main, Deutschland;www.unverpackt-laden-frankfurt.de;50.10234;8.690441
1024;Cori's Plastikfreier Laden;storeMember;Wiesleweg 18, 6822 Satteins, Österreich;www.plastikfreier.com;47.222714;9.66877
976;lose & gut frei von Verpackung;storeMember;Europaplatz 22, 46399 Bocholt, Deutschland;www.lose-gut.de;51.839151;6.613671
1054;Monger Store & Deli;storeMember;Wrangelstraße 100, 20253 Hamburg, Deutschland;www.monger.de;53.582752;9.966347
919;Unverpacktes Gießen;storeMember;Johannette-Lein-Gasse 24, 35390 Gießen, Deutschland;www.unverpacktes-giessen.de;50.585709;8.670431
1114;annas;storeMember;Schwanengasse 2, 74821 Mosbach, Deutschland;www.annas-mosbach.de;49.352941;9.146723
940;Speisekammer;storeMember;Fröbelstraße 4, 32791 Lage, Deutschland;www.bio-hof-brinkmann.de;52.015652;8.790074
943;Quäntchen;storeMember;Oschatzer Straße 16, 01127 Dresden, Deutschland;www.quaentchen-dresden.de;51.076047;13.724354
852;Wunderbar Unverpackt - Braunschweig;storeNoMember;Fallersleber Straße 36, 38100 Braunschweig, Deutschland;;52.268939;10.5293
934;Füllgut - Die Mehrwegerei;storeNoMember;Obere Bachgasse 18, 93047, Regensburg, Bayern, Deutschland;www.fuellgutregensburg.de;49.02;12.1
960;Ellas Dubbes;storeMember;Herrnsheimer Hauptstraße 62a, 67550 Worms, Deutschland;www.ellas-dubbes.de;49.654802;8.331802
847;Unverpackt Bamberg;storeMember;Luitpoldstraße 36, 96052 Bamberg, Deutschland;www.unverpackt-bamberg.de;49.898628;10.89614
849;BIOKU;storeNoMember;Huestraße 4, 44787 Bochum, Deutschland;;51.486631;7.214458
876;Tante Emmer - unverpackt & bio;storeNoMember;Grabengasse 23, 94032 Passau, Deutschland;;48.574181;13.461835
1007;Unverpackt Zimmern;storeNoMember;78658, Zimmern ob Rottweil, Baden-Württemberg, Deutschland;;48.157927;8.550103
942;sOHNEnschein - der Laden OHNE Verpackung;storeNoMember;Lange Straße 13, 26345 Bockhorn, Deutschland;www.sohnenschein.de;53.393457;8.020387
1074;Locker und Lose;storeNoMember;Josephinenstraße 12, 04317 Leipzig, Deutschland;;51.332697;12.398496
935;Fridi unverpackt GmbH;storeNoMember;Weibermarkt 3, 72764 Reutlingen, Deutschland;www.fridi-unverpackt.de;48.491333;9.213187
969;Waagemut Tuttlingen;storeMember;Donaustraße 6, 78532 Tuttlingen, Deutschland;www.waagemut-tuttlingen.de;47.98573;8.819369
893;Unverpackt-Kaiserslautern;storeMember;Mannheimer Straße 12, 67655 Kaiserslautern, Deutschland;www.unverpackt-kaiserslautern.de;49.447079;7.777914
872;OHNE Der verpackungsfreie Supermarkt GmbH;storeMember;Schellingstraße 42, 80799 München, Deutschland;https://www.ohne-laden.shop/;48.150804;11.574606
850;Freikost Deinet;storeNoMember;Rochusstraße 266, 53123 Bonn, Deutschland;;50.713607;7.04493
861;Bio.lose;storeNoMember;Osterstraße 81, 20259 Hamburg, Deutschland;;53.575339;9.954664
1001;Möhrchen;storeMember;Markt 12, 08371 Glauchau, Deutschland;www.moehrchen-unverpackt.de;50.817966;12.542272
947;LoLa Linden;storeMember;Teichstraße 1, 30449 Hannover, Deutschland;www.lola-hannover.de;52.367638;9.710715
936;Unverpackt Saarbrücken;storeMember;Bruchwiesenstraße 6, 66111 Saarbrücken, Deutschland;www.unverpackt-saarbruecken.de;49.234255;7.002514
860;Emma's Tante;storeMember;Jakobstraße 40, 02826 Görlitz, Deutschland;www.emmastante.com;51.151141;14.986016
892;AnNa unverpackt -Kaufladen-;storeMember;Hauptstraße 16, 74354 Besigheim, Deutschland;www.anna-unverpackt.de;49.000015;9.140688
1062;ZeroHero - Erlangen;storeMember;Hauptstraße 83, 91054 Erlangen, Deutschland;www.zerohero-erlangen.de;49.60094179999999;11.00265479999996
846;unverpackt Bad Kreuznach;storeMember;Zimmergasse 4, 55543 Bad Kreuznach, Deutschland;www.unverpackt-badkreuznach.de;49.840614;7.86126
1019;Genussecke - Unverpackt;storeMember;Schillerstraße 24, 55590 Meisenheim, Deutschland;www.genussecke.de;49.708254;7.672318
1035;kaufs lose;storeNoMember;Biegenstraße 17, 35037 Marburg, Deutschland;;50.810813;8.774569
1110;BÜGGEL - bergisch unverpackt;storeMember;Paffrather Straße 5, 51465 Bergisch Gladbach, Deutschland;www.bueggel-unverpackt.de;50.991911;7.129192
909;Schüttgut e.K.;storeMember;Vogelsangstraße 51, 70197 Stuttgart, Deutschland;www.schuettgut-stuttgart.de;48.773729;9.153205
1023;groß & Klein Unverpackt Solingen;storeMember;Keldersstraße 11, 42697 Solingen, Deutschland;www.unverpackt-solingen.de;51.160284;7.001195
908;LoLa Südstadt;storeMember;Stephansplatz 13, 30171 Hannover, Deutschland;www.lola-hannover.de;52.361675;9.7552
1734;Emmas Unverpackt Laden;storeNoMember;Luckenberg 1, 36037 Fulda, Deutschland;;50.551722;9.67518
870;Heimatliebe;storeNoMember;Hauptstraße 3, 88677 Markdorf, Deutschland;;47.721009;9.388529
1751;Unverpackt Radebeul (in Planung);plannedMember;01445, Radebeul, Sachsen, Deutschland;;51.11;13.65
1779;FKK (Frei von Kunststoff und Kartonagen) Der Unverpacktladen ;storeMember;Brühl 63, 09111 Chemnitz, Deutschland;www.fkk-unverpackt.shop;50.843787;12.925284
1790;Katja’s Hoflädchen - artgerecht & unverpackt;storeMember;Forststraße 76, 45768 Marl, Deutschland;www.katjas-hoflaedchen.de/unverpackt/;51.673086;7.059182
1786;Unverpackt Wiesbaden;storeMember;Albrechtstraße 31, 65185 Wiesbaden, Deutschland;www.unverpackt-wiesbaden.de;50.074365;8.236949
1742;Sell & ebbes - unverpackt auf Rädern;mobileMember;76694, Forst, Baden-Württemberg, Deutschland;www.sell-und-ebbes.de;49.14;8.59
1728;Unverpackt Ebertsheim (in Planung);plannedMember;67280, Ebertsheim, Rheinland-Pfalz, Deutschland;;49.57494;8.109611
1817;BefüllBar - Natürlich Ohne;mobileNoMember;Marktplatz, 59065 Hamm, Deutschland;;51.6809663;7.8196439
1787;Sauer Wie Süß – Unverpacktladen Donzdorf;storeMember;Hauptstraße 55, 73072 Donzdorf, Deutschland;www.unverpacktdonzdorf.de;48.68663;9.808189
1795; Unverpackt Renningen (in Planung);plannedMember;71272, Renningen, Baden-Württemberg, Deutschland; www.unverpackt-renningen.de;48.77;8.93
1911;Unverpackt Zwönitz (in Planung);plannedMember;08297, Zwönitz, Sachsen, Deutschland;;50.63;12.81
1789;Gretchens Unverpackt (in Planung);mobilePlannedMember;27305, Bruchhausen-Vilsen, Niedersachsen, Deutschland; ;52.821407;8.968532
1735;PURAKERN (in Planung);plannedMember;Waldshut-Tiengen, Baden-Württemberg, Deutschland;;47.62306;8.21444
1740;Sell & ebbes - unverpackt auf Rädern;mobileMember;74889, Sinsheim, Baden-Württemberg, Deutschland;www.sell-und-ebbes.de;49.2553;8.87722
1745;Unverpackt Südheide;storeNoMember;29320, Südheide, Niedersachsen, Deutschland;;52.83;10.1
1798; Unverpackt Mulfingen (in Planung);plannedMember;74673, Mulfingen, Baden-Württemberg, Deutschland; ;49.345765;9.80634
1698;Marktwagen Sylt;mobileMember;25980, Sylt, Schleswig-Holstein, Deutschland;www.unverpackt-sylt.de;54.91;8.3
1689;Unverpackt Erkner (in Planung);plannedMember;Erkner, Brandenburg, Deutschland;;52.41667;13.75
1776; Das Beuteltier;storeMember;Hochstraße 49, 51688 Wipperfürth, Deutschland; www.dasbeuteltier.de;51.115813;7.393976
1693;unverpacktTruck;mobileMember;Altluneberger Straße 71, 27619 Schiffdorf, Deutschland;www.unverpackttruck.de;53.518104;8.813517
1781; Unverpackte Vielfalt;storeMember;Hauptstraße 40, 67105 Schifferstadt, Deutschland; www.unverpacktevielfalt.de;49.382478;8.374155
1759;BUIer - Bern Unverpackt;storeNoMember;Seftigenstrasse 11, 3007 Bern, Schweiz;;46.939291;7.432662
1705;FrohNatur I Unverpackt & Regional ;storeMember;Anemonenbogen 4a, 24963 Tarp, Deutschland;www.frohnatur-unverpackt.de;54.664372;9.393473
1696;LandEi - regional & unverpackt;storeMember;Johann-Walling-Str. 19, 46325, Borken, Nordrhein-Westfalen, Deutschland;www.landei-unverpackt.de;51.86;6.84
1685;Unverpackt Viersen (in Planung);plannedNoMember;41747, Viersen, Nordrhein-Westfalen, Deutschland;;51.25;6.39
1732;Unverpackt Werneuchen (in Planung);plannedMember;Werneuchen, Brandenburg, Deutschland;;52.63306;13.73306
1681;Frollein Schütte - unverpackt genießen;plannedMember;Heinrich-Christiansen-Straße 43, 25421 Pinneberg, Deutschland;;53.652406;9.790422
1653;Unverpackte Insel;storeMember;Veringstraße 153, 21107 Hamburg, Deutschland;www.unverpackte-insel.de;53.50594;9.985904
1668;Marktwagen Solingen (in Planung);mobilePlannedMember;42659, Solingen, Nordrhein-Westfalen, Deutschland;;51.16;7.09
1671;Unverpackt Frankfurt Höchst (in Planung);plannedMember;65929, Frankfurt am Main, Hessen, Deutschland;;50.1;8.53
1615;ERNAS Laden;storeMember;Georg-Kurtze-Straße 2, 15344 Strausberg, Deutschland;www.ernas-laden.de;52.577222;13.880819
1678;Grünes Café und Hofladen (in Planung);plannedMember;12347, Berlin, Deutschland;;52.46;13.44
1601;Marktwagen Süderelbe (in Planung);mobilePlannedMember;Stübenplatz, 21107 Hamburg, Deutschland;;53.5173306;9.9865898
1617;Unverpackt Freiberg (in Planung);plannedMember;09599, Freiberg, Sachsen, Deutschland;;50.91;13.34
1650;Trendhütte Marktwagen (in Planung);mobilePlannedMember;64584, Biebesheim am Rhein, Hessen, Deutschland;;49.78;8.47
1608;Marktwagen Tante Resi Unverpackt;mobileMember;Turnhalle, Sinkweg 10, 86974 Apfeldorf, Deutschland;www.tanteresi.de;47.892042;10.932968
1739;Ich BIN's regional & unverpackt;storeMember;Pfarrstraße 4, 86316 Friedberg, Deutschland;www.ichbins-unverpackt.de;48.355308;10.980589
1613;Lisbeth Lose;mobileMember;23843, Bad Oldesloe, Schleswig-Holstein, Deutschland;www.lisbeth-lose.de;53.81;10.36
1564;Annona - einfach natürlich;storeMember;Sandrartstraße 9, 85084 Reichertshofen, Deutschland;www.annona-einfachnatuerlich.de;48.661257;11.467317
1643;Heeper Lädchen;storeMember;Hillegosser Straße 31, 33719 Bielefeld, Deutschland;www.heeper-laedchen.de;52.030182;8.605646
1570;alge unverpackt;storeNoMember;Admiral-Hipper-Straße 7, 82362 Weilheim im OB, Deutschland;;47.839321;11.143226
1561;Unverpackt Euskirchen ;plannedMember;Neustraße 5 53879 Euskirchen, Nordrhein-Westfalen, Deutschland;www.unverpackt-euskirchen.de;50.55;6.76
1574;Watt 'n Wagen (in Planung);mobilePlannedMember;Norderney, Niedersachsen, Deutschland;www.wattnwagen.de;53.708576;7.154887
1828;proPURE;mobileNoMember;Hauptstraße, 49448 Lemförde, Deutschland;www.propure.de;52.4663151;8.3759865
1566;Milchkanne  Unverpackt Holzminden;storeMember;Halbmondstraße 20, 37603 Holzminden, Deutschland;www.unverpackt-holzminden.de;51.828641;9.447199
1609;Marktwagen Tante Resi Unverpackt;mobileMember;Markthalle Dießen, Windermere-Straße 2, 86911 Dießen am Ammersee;www.tanteresi.de;47.951567;11.106091
1500;Frollein Clara;storeMember;Waagstraße 1, 63825 Schöllkrippen, Deutschland;www.frolleinclara.de;50.086302;9.24442
1542;natürlich ohne - Dein Unverpackt-Laden;storeMember;Baustraße 16, 31785 Hameln, Deutschland;;52.106158;9.35868
1550;Unterföhring Miteinand ;storeMember;Am Bahnhof 1, 85774 Unterföhring, Deutschland;www.ufg-unverpackt.de;48.190239;11.646813
1546;das Dekagramm;storeMember;Neutorgasse 7, 8010 Graz, Österreich;www.dasgramm.at;47.070598;15.436072
1579;Tante Minchen;storeMember;Bergstraße 11, 29640 Schneverdingen, Deutschland;www.tante-minchen.de;53.117329;9.791608
1593;LoLo lose & lokal eG i.G.;storeNoMember;Martin-Luther-Weg 11a, 77694 Kehl, Deutschland;www.das-lolo.de;48.56176;7.833882
1510;SCHNöRKELLOS;storeMember;Antoniterstraße 6, 50226 Frechen, Deutschland;www.schnoerkellos.bio;50.909226;6.809031
1551;Steppi-URverpackt;storeMember;Kleinbottwarer Straße 19, 71711 Steinheim an der Murr, Deutschland;www.steppi-urverpackt.de;48.966521;9.279159
1557;idverpackt;storeMember;Bergstraße 18, 78570 Mühlheim an der Donau, Deutschland;www.idverpackt.de;48.023547;8.889471
1464;Auxburg Unverpackt;storeMember;Neuburger Straße 164, 86167 Augsburg, Deutschland;www.auxburgunverpackt.de;48.38959;10.915695
1519;natuerlichfrei (in Planung);plannedMember;Offenbach am Main, Hessen, Deutschland;www.natuerlichfrei.kaufen;50.1;8.76667
1474;Unverpackt Ilmenau (in Planung);plannedMember;98693, Ilmenau, Thüringen, Deutschland;;50.68;10.93
1502;die Waagschale GmbH;storeMember;Ulzburger Straße 605, 22844 Norderstedt, Deutschland;www.die-waagschale.de;53.73355;9.996278
1692;unverpacktTruck;mobileMember;Beethovenallee 12, 27474 Cuxhaven, Deutschland;www.unverpackttruck.de;53.864078;8.690535
1723;Lauras Laden;storeMember;Weststraße 39, 09112 Chemnitz, Deutschland;www.lauras-laden.de;50.832019;12.902098
1655;AS-Der Unverpacktladen;storeNoMember;Marktstraße 5, 42799 Leichlingen, Deutschland;;51.106203;7.013364
1647;HANNELISE | ehrlich. nachhaltig. unverpackt.;plannedMember;Walder Kirchplatz 26, 42719 Solingen, Deutschland;www.hannelise.de;51.183594;7.040885
1534;Unverpackt Bad Freienwalde (in Planung);plannedMember;Bad Freienwalde, Brandenburg, Deutschland;;52.78556;14.0325
1563;Unverpackt Herrsching (in Planung);plannedMember;82211, Herrsching am Ammersee, Bayern, Deutschland;https://unverpacktamammersee.com;48.0;11.17
1538;Hygge unverpackt;storeMember;Süderstraße 81, 24955 Harrislee, Deutschland;www.hyggeunverpackt.eu;54.800045;9.397016
1568;Unverpackt Laubach (in Planung);plannedMember;88416, Ochsenhausen, Baden-Württemberg, Deutschland;;48.07;9.96
1648;Unverpackt Winnenden (in Planung);plannedMember;71364, Winnenden, Baden-Württemberg, Deutschland;;48.88;9.4
1625;Kerngeschäft - tatsächlich unverpackt;storeMember;Stadskanaal 1, 28865 Lilienthal, Deutschland;www.kerngeschaeft-lilienthal.de;53.140912;8.909104
1626;Biohof Blumenthal eG (Hofladen);storeMember;Blumenthal 1, 86551 Aichach, Deutschland;www.schloss-blumenthal.de/biohof;48.42027;11.147428
1581;nix umzu ;mobileMember;Neukirchstraße, 28215 Bremen, Deutschland;;53.0930626;8.8117597
1532;bunte bOHNE (Initiative Poing Unverpackt);storeMember;Marktstraße 5a, 85586 Poing;www.poing-unverpackt.de;48.17;11.81
1682;Einfach-Ohne-Unverpackt ;storeMember;Marktstraße 74, 68789 St. Leon-Rot, Deutschland;www.einfach-ohne.com;49.267825;8.598075
1499;Jutesäckle (in Planung);plannedMember;88471, Laupheim, Baden-Württemberg, Deutschland;;48.23;9.88
1492;Zero Waste Bar (in Planung);plannedNoMember;97318, Kitzingen, Bayern, Deutschland;;49.74;10.16
1544;zua Woog - unverpackt + regional;storeMember;Dorfstraße 41, 6364 Brixen im Thale, Österreich;;47.449436;12.25918
1679;Pack&Schnack (in Planung);plannedMember;Niebüll, Schleswig-Holstein, Deutschland;;54.78806;8.82972
1475;Unverpackt Königstein (in Planung);plannedMember;61462, Königstein im Taunus, Hessen, Deutschland;;50.19;8.46
1460;fairkaufswagen;mobileMember;35394, Gießen, Hessen, Deutschland;www.klimafairein.de;50.57;8.71
1455;Tante und Emma;storeMember;Schwabstraße 19, 72488 Sigmaringen, Deutschland;www.tanteundemma.com;48.086346;9.216712
1462;Unverpackt Oberkirch (in Planung);plannedMember;77704, Oberkirch, Baden-Württemberg, Deutschland;;48.56;8.06
1467;Füllbar Dortmund (in Planung);plannedMember;Kaiserstraße 52, 44135 Dortmund, Deutschland;www.ettics.de;51.513649;7.478275
1370;Die Schütte;storeMember;Ackergasse 9, 61440 Oberursel, Deutschland;www.dieschuette.de;50.202523;8.579146
1325;Tara - unverpackt genießen;storeNoMember;Hasestraße 37, 49074 Osnabrück, Deutschland;www.tara-unverpackt.de;52.278191;8.043349299999997
1347;Local unverpackt (in Planung);plannedMember;40723, Hilden, Nordrhein-Westfalen, Deutschland;www.local-ratingen.de;51.15;6.95
1408;Uver-Greifswald;storeMember;Hans-Beimler-Straße 1-3, 17491 Greifswald, Deutschland;www.uver-greifswald.de;54.088157;13.399152
1360;Stück für Stück - Mission Unverpackt;storeMember;Ostlandplatz 5, 25524 Itzehoe, Deutschland;www.unverpackt-itzehoe.de;53.939645;9.514507
1346;ULA - Unverpackt Landsberg;storeMember;Vorderer Anger 262, 86899 Landsberg am Lech, Deutschland;www.ula-unverpackt.de;48.052827;10.877402
1336;Ora d'Oro;storeMember;Unter Der Metzig 22, 89073 Ulm, Deutschland;www.oradoro.bio;48.396249;9.993032
1290;Emmas Erben;storeMember;64853, Otzberg, Hessen, Deutschland;www.emmas-erben.com;49.85;8.88
1400;lieber unverpackt Walldorf;storeMember;Sambugaweg 11, 69190 Walldorf, Deutschland;www.lieber-unverpackt.de;49.305938;8.650553
1273;Theo Tütenlos - Werls unverpackt-Laden;storeMember;Hammer Straße 49, 59457 Werl, Deutschland;www.theo-tuetenlos.de;51.559524;7.90659
1401;Unverpackt Deutsch Evern (in Planung);plannedMember;21407, Deutsch Evern, Niedersachsen, Deutschland;;53.191733;10.443126
1365;heimathafen;storeMember;Dengelberg 1, 71726 Benningen am Neckar, Deutschland;www.heimathafen-projekt.de;48.946648;9.241665
1406;Unverpackt Berlin (in Planung);plannedMember;13189, Berlin, Deutschland;;52.56;13.42
1321;Unverpackt Hamburg Osdorf (in Planung);plannedMember;22609 Hamburg, Deutschland;;53.572944;9.846806
1298;Ansbach unverpackt;storeMember;Schaitbergerstraße 1, 91522 Ansbach, Deutschland;www.ansbach-unverpackt.de;49.303274;10.57048
1341;Unverpackt Rheinhessen;storeMember;Pariser Straße 96, 55268 Nieder-Olm, Deutschland;www.unverpacktrheinhessen.de;49.910136;8.203115
1312;liva unverpackt.hn;storeMember;Allee 73, 74072 Heilbronn, Deutschland;www.unverpackt-heilbronn.de;49.145036;9.222816
1315;locker flockig - unverpackt paderborn;storeMember;Kilianstraße 5, 33098 Paderborn, Deutschland;www.lockerflockig-pb.de;51.714422;8.752279
1227;2erloi - unverpackt & regional;storeMember;Marktstraße 10, 87746 Erkheim, Deutschland;;48.038535;10.339086
1338;Muttels Vorratskammer & Genussmanufaktur;storeMember;Papenhuder Straße 28, 22087 Hamburg, Deutschland;www.muttels.de;53.566866;10.019364
1265;blumig unverpackt;storeMember;Heidecker Straße 26, 91161 Hilpoltstein, Deutschland;www.blumig-unverpackt.de;49.185102;11.188717
1314;von Grünstadt;storeMember;Rellinghauser Straße 110, Essen, Deutschland;www.vongruenstadt.de;51.4427607;7.016238899999999
1293;Marktwagen Süderelbe (in Planung);mobileMember;Wochenmarkt Sand, Harburg, Sand, Harburg 21073 Hamburg, Deutschland;;53.4617857;9.979480199999998
1223;Füllosophie;storeMember;Feuerhausstraße 2, 82256 Fürstenfeldbruck, Deutschland;www.fuellosophie.de;48.180287;11.25774
1176;Unverpackt Nordhorn (in Planung);plannedNoMember;48531, Nordhorn, Niedersachsen, Deutschland;;52.46;7.12
1296;einMACHGLAS Offenburg eG i.G.;storeMember;Am Marktplatz 19, 77652 Offenburg, Deutschland;www.einmachglas-offenburg.de;48.470313;7.941727
1241;Piepmatz, Kempten (in Planung);plannedMember;Kempten (Allgäu), Deutschland;;47.7285699;10.315783499999952
1303;lose un.verpackt (in Planung);plannedNoMember;Findorffstraße 54, 28215 Bremen, Deutschland;;53.088652;8.809399
1279;natürlich unverpackt;storeMember;Lange Straße 29, 58089 Hagen, Deutschland;;51.356029;7.461172
1283;ohne ebbes - s`unverpackt lädle;storeNoMember;Hirschstraße 2, 73728 Esslingen am Neckar, Deutschland;www.ohneebbes.de;48.741689;9.308447
1231;Walnuss - unverpackt einkaufen;storeMember;Untere Stadt 11, 84137 Vilsbiburg, Deutschland;www.walnuss-vilsbiburg.de;48.448049;12.356825
1112;kostBAR-unverpackt;storeMember;Katharinenstraße 3, 48712 Gescher, Deutschland;www.kostbar-unverpackt.de;51.956111;7.007347
1118;Richtungswechsel;storeMember;Zelgle 1, 79736 Rickenbach, Deutschland;www.richtungswechsel.online;47.624375;7.992964
1224;grammliebe Inh. Beate Schneider;storeMember;Kurzer Hagen 21, 31134 Hildesheim, Deutschland;www.grammliebe.de;52.153119;9.949943
1108;Ganz Ohne;storeMember;71083, Herrenberg, Baden-Württemberg, Deutschland;www.ganz-ohne.de;48.6;8.87
1270;Herr Krämer - regional • unverpackt • nachhaltig;storeMember;Parkstraße 1, 34596 Bad Zwesten, Deutschland;www.herr-kraemer-unverpackt.de;51.034943;9.191064
1530;Unverpackt Köln Dellbrück (in Planung);plannedMember;51069, Köln, Nordrhein-Westfalen, Deutschland;;50.98;7.07
1540;Unverpackt Friesoythe (in Planung);plannedMember;26169, Friesoythe, Niedersachsen, Deutschland;;53.01;7.86
1517;Loses Mundwerk;storeMember;Am Rissener Bahnhof 15, 22559 Hamburg, Deutschland;www.losesmundwerk.de;53.582589;9.756417
1458;Unverpackt Pfreimd (in Planung);plannedMember;92536, Pfreimd, Bayern, Deutschland;;49.5;12.19
1102;Silva - unverpackt genießen;storeMember;Aachener Straße 567, 50933 Köln, Deutschland;www.silva.koeln;50.93707530551457;6.894446136923968
950;Stückgut - St. Pauli;storeMember;Neuer Kamp 31, 20359 Hamburg, Deutschland;www.stueckgut-hamburg.de;53.557286;9.966602
912;Füllkorn;storeMember;Kornstraße 12, 28201 Bremen, Deutschland;www.füllkorn.de;53.067539;8.795883
914;Lose Dresden;storeMember;Böhmische Straße 14, 01099 Dresden, Deutschland;www.lose-dresden.de;51.064721;13.752035
1138;Unverpackt leben - regional in Friedrichsthal;storeMember;66299, Friedrichsthal, Saarland, Deutschland;www.unverpacktleben.de;49.329778;7.089806
895;Unverpackt Trier;storeNoMember;Neustraße 88, 54290 Trier, Deutschland;www.unverpackt-trier.de;49.75259;6.638603
923;JENINCHEN - Fröhlich Unverpackt Einkaufen;storeMember;Sophienstraße 37, 07743 Jena, Deutschland;www.jeninchen.de;50.934677;11.588653
924;migori - verpackungsfrei einkaufen;storeMember;Bonner Straße 66, 50677 Köln, Deutschland;www.migori.de;50.917565;6.960477
917;gramm.genau GmbH;storeMember;Adalbertstraße 11, 60486 Frankfurt am Main, Deutschland;www.grammgenau.de;50.119712;8.648037
907;Einfach Unverpackt;storeMember;Kochstraße 6, 04275 Leipzig, Deutschland;www.einfach-unverpackt.de;51.32382;12.372785
886;Füllbar Witten;storeMember;Ruhrstraße 10, 58452 Witten, Deutschland;www.fuellbar-witten.de;51.438378;7.336967
901;Unverpackt Burgdorf;plannedNoMember;Poststraße 4-6, 31303 Burgdorf, Deutschland;;52.446794;10.008802
868;Unverpackt Mainz;storeMember;Heidelbergerfaßgasse 16a, 55116 Mainz, Deutschland;www.unverpackt-mainz.de;50.003634;8.264329
913;Unverpackt Darmstadt;storeMember;Gutenbergstraße 5b, 64289 Darmstadt, Deutschland;www.unverpacktdarmstadt.com;49.87784;8.661932
858;Fräulein Lose;storeNoMember;Johannisstraße 1, 85354 Freising, Deutschland;;48.398262;11.739147
1170;Rubio;storeMember;Blumenstraße 44, 26121 Oldenburg, Deutschland;www.rubiounverpackt.de;53.145074;8.204218
1151;Sell & ebbes - unverpackt auf Rädern;mobileMember;Am Festplatz 1, 68723 Plankstadt, Deutschland;www.sell-und-ebbes.de;49.395964;8.591989
1078;Tante Emma's Bruder;storeMember;Katharinenstraße 16, 88045 Friedrichshafen, Deutschland;www.tante-emmas-bruder.de;47.655231;9.47807
1056;abgefüllt Halle;storeMember;Halle, Sachsen-Anhalt, Deutschland;www.abgefuellt-halle.de;51.48306;11.97194
1057;Unverpackt einkaufen in Gelnhausen;storeNoMember;63571, Gelnhausen, Hessen, Deutschland;;50.2;9.2
1447;rundum frei - Die unverpackt-Drogerie;storeMember;Windischenstraße 6, 99423 Weimar, Deutschland;www.instagram.com/rundum_frei;50.979282;11.328718
1404;eRDE-eCKE;plannedMember;10555, Berlin, Deutschland;www.erde-ecke.de;52.52;13.33
869;Priska's Unverpacktladen;storeMember;Seckenheimer Straße 21, 68165 Mannheim, Deutschland;priskas-unverpackt.de;49.48022;8.479969
1364;ZeroHero - Hausen;storeMember;Pilatusring 24, 91353 Hausen, Deutschland;www.zerohero-hausen.de;49.699303;11.044241
1407;Frau Dücker Unverpackt Laden;storeMember;Frankfurter Straße 43, 63263 Neu-Isenburg, Deutschland;www.frauduecker.de;50.055579;8.695031
1376;Herbie Unverpackt;storeNoMember;Elbestraße 19, 12045 Berlin, Deutschland;;52.485536;13.442095
1374;Ohne Drumherum - unverpackt & mehr;storeMember;Stuttgarter Straße 7, 71665 Vaihingen an der Enz, Deutschland;www.ohnedrumherum.de;48.931633;8.957963
1409;Unverpackt Enzelhausen (in Planung);plannedNoMember;84104, Rudelzhausen, Bayern, Deutschland;;48.588112;11.787411
1289;naturverpacktes WestendPUR;storeMember;Heimeranstraße 51a, 80339 München, Deutschland;www.westendpur.de;48.133658;11.537004
1291;Genussdiele Neu-Anspach;storeMember;61267, Neu-Anspach, Hessen, Deutschland;https://www.genussdiele-unverpackt.de/;50.31;8.5
1330;Mit Liebe unverpackt;storeMember;Brüderstraße 49-51, 59494 Soest, Deutschland;www.mit-liebe-unverpackt.de;51.575748;8.103023300000002
1388;Emma Unverpackt;storeMember;Schafbergstraße 8, 76534 Baden-Baden, Deutschland;www.unverpackt-baden-baden.de;48.746446;8.258068
1237;Nur so, unverpackt Xanten;storeMember;Viktorstraße 6, 46509 Xanten, Deutschland;www.unverpackt-xanten.de;51.658442;6.458999
1324;Unverpackt Brüggen (in Planung);plannedMember;41379, Brüggen, Nordrhein-Westfalen, Deutschland;;51.266287;6.171677
1271;Tante LeMi;storeMember;Gasthausstraße 68-70, 41061 Mönchengladbach, Deutschland;https://tantelemi.wordpress.com/;51.19417;6.428494
1288;OHNE Der verpackungsfreie Supermarkt GmbH;storeMember;Rosenheimer Straße 85, 81667 München, Deutschland;https://www.ohne-laden.shop/;48.127404;11.596302
1276;Ohne PlaPla;storeMember;Lindenstraße 2, 71634 Ludwigsburg, Deutschland;www.ohneplapla.de;48.898794;9.190919
1188;Füllerei Findorff ;storeMember;Borgfelder Straße 17, 28215 Bremen, Deutschland;www.fuellerei.de;53.092502;8.809788
1240;Freilich Unverpackt;storeMember;Rothenfelsstraße 6, 87509 Immenstadt im Allgäu, Deutschland;www.freilich-unverpackt.de;47.560523;10.216824
1187;Marktladen;storeNoMember;Am Starzenbach 19, 85283 Wolnzach, Deutschland;;48.601954;11.626962
1280;Im Körbchen;storeMember;Heidebroichstraße 15, 50374 Erftstadt, Deutschland;www.erftstadt-unverpackt.de;50.808252;6.83182
1152;Neuer Speicher;storeMember;Lünertorstraße 14, 21337 Lüneburg, Deutschland;www.neuerspeicher.de;53.251293;10.416829
1169;Unverpackt Schweinfurt (in Planung);plannedMember;97421, Schweinfurt, Bayern, Deutschland;;50.04;10.23
1113;Kike’s unverpackt;storeNoMember;Austraße 7a, 65527 Niedernhausen, Deutschland;;50.161263;8.313639
1104;natürlich & unverpackt;storeMember;Poststraße 1, 08412 Werdau, Deutschland;www.natuerlich-und-unverpackt.de;50.732339;12.375812
1061;Bio- & Fair-Kaufhaus MERCADO MUNDIAL;storeNoMember;26419, Schortens, Niedersachsen, Deutschland;;53.55268;7.983777
1059;Unverpackt Magstadt (in Planung);plannedNoMember;71106, Magstadt, Baden-Württemberg, Deutschland;;48.75;8.96
1402;Unverpackt Wegberg (in Planung);plannedMember;41844, Wegberg, Nordrhein-Westfalen, Deutschland;;51.12;6.22
1434;Unverpackt Ainring (in Planung);plannedNoMember;83404, Ainring, Bayern, Deutschland;;47.83;12.94
1236;Einfach so - Unverpackt Eichstätt;storeMember;Westenstraße 15, 85072 Eichstätt, Deutschland;www.unverpackt-eichstaett.de;48.894454;11.182734
1181;Unverpacktes Glück - Aachen;storeMember;Friedrich-Wilhelm-Platz 5-6, 52062 Aachen, Deutschland;www.unverpacktes-glueck.de;50.774523;6.087281
1159;Cartallo unverpackt & mehr;storeMember;Eybacher Straße 7, 73312 Geislingen an der Steige, Deutschland;;48.624763;9.829414
1220;Unverpackt Marl (in Planung);plannedMember;45768, Marl, Nordrhein-Westfalen, Deutschland;;51.66;7.09
1165;freiTag bio | verpackungsfrei | idstein;storeMember;Weiherwiese 11, 65510 Idstein, Deutschland;www.freitag-idstein.de;50.221403;8.271591
1146;Bergerei - Unverpackt Laden & Tagescafé;storeMember;Karlstraße 3, 73614 Schorndorf, Deutschland;www.bergerei-schorndorf.de;48.807008;9.528706
1470;foi.;storeMember;Hauptstraße 86, 67433 Neustadt an der Weinstraße, Deutschland;www.unverpackt-neustadt.de;49.353703;8.137007
1431;unverpacktTruck;mobileMember;Üterlüe Specken 7, 27639 Wurster Nordseeküste, Deutschland;www.unverpackttruck.de;53.65192;8.511084
1058;Unverpackt Gera (in Planung);plannedNoMember;07545, Gera, Thüringen, Deutschland;;50.88;12.08
1368;FetteBeute-Unverpackt;storeNoMember;Uhlstraße 36, 50321 Brühl, Deutschland;www.fettebeute.shop;50.826883;6.904089
1081;Silo. Unverpackt Laden & Café;storeMember;Obere Laube 65, 78462, Konstanz, Deutschland;www.silo-konstanz.de;47.66;9.17
937;unverpackt GD;storeMember;Kalter Markt 12, 73525 Schwäbisch Gmünd, Deutschland;www.regional-und-unverpackt.de;48.800658;9.800173
1011;HONIGHALLE;storeNoMember;Köpperner Straße 86, 61381 Friedrichsdorf, Deutschland;;50.275414;8.650566
1084;nixdrumrum;storeMember;Hamburger Straße 12, 23795 Bad Segeberg, Deutschland;www.nixdrumrum.de;53.936588;10.30648
941;rutaNatur GmbH;storeMember;Prinzregentenstraße 7, 86150 Augsburg, Deutschland;rutanatur.de;48.368523;10.890774
1199;Hy! Unverpackt-Monheim;storeMember;Heinestraße 4a, 40789 Monheim am Rhein, Deutschland;www.unverpackt-monheim.de;51.089729;6.888819
949;Tante Olga - Nippes;storeMember;Viersener Straße 6, 50733 Köln, Deutschland;www.tante-olga.de;50.963608;6.952864
1173;Unverpackt Bad Schönborn (in Planung);plannedMember;76669, Bad Schönborn, Baden-Württemberg, Deutschland;;49.22;8.65
1021;Chez Martine – Unverpackt Birkenau;storeMember;Hauptstraße 87, 69488 Birkenau, Deutschland;www.unverpackt-birkenau.de;49.570536;8.710321
1215;Nebenan & Unverpackt;storeMember;Willibaldstraße 18, 80687 München, Deutschland;www.nebenan-unverpackt.de;48.14152;11.488297
1055;Ausgewogen unverpackt;storeMember;Blumenstraße 7, 42477 Radevormwald, Deutschland;www.ausgewogen-unverpackt.de;51.202621;7.362188
991;Stückweise - Unverpackt Detmold;storeNoMember;32756, Detmold, Nordrhein-Westfalen, Deutschland;;51.94;8.88
1144;Goslar Unverpackt;storeMember;Marstallstraße 4, 38640 Goslar, Deutschland;www.goslar-unverpackt.de;51.906784;10.425272
922;Annas Unverpacktes;storeMember;Ladenburger Straße 37, 69120 Heidelberg, Deutschland;www.annas-unverpacktes.de;49.414259;8.688588
996;Hamsterbacke e.V.;storeMember;Hohenzollernring 67, 95444 Bayreuth, Deutschland;www.hamsterbacke-bayreuth.de;49.943855;11.570348
1033;Unverpackt Weißenburg;storeMember;Obertorstraße 4, 91781 Weißenburg im Bay., Deutschland;;49.030579;10.974981
1163;Die Erbsenzählerei - Gutes unverpackt;storeMember;Kolonnenstraße 48/49, 10829 Berlin, Deutschland;www.erbsenzaehlerei-berlin.de;52.485552;13.363135
981;Pures Glück (in Planung);plannedMember;22763, Hamburg, Deutschland;;53.56;9.91
980;OHNE WENN & ABER;storeMember;Am Brögel 32, 42283 Wuppertal, Deutschland;www.ohnewennundaber.jetzt;51.26655;7.18219
1043;My Unverpackt;storeNoMember;Breite Straße 30 39576 Hansestadt Stendal;;52.6;11.85
1017;Unverpackt Schwenkenhof;storeMember;Trollenberg 1, 72290 Loßburg, Deutschland;www.connis-kaesemanufaktur.de;48.362966;8.449481
946;Unverpackt Aschaffenburg;storeMember;Landingstraße 22, 63739 Aschaffenburg, Deutschland;www.unverpacktdarmstadt.com;49.975443;9.144967
910;DER SACHE WEGEN;storeMember;Lychener Straße 47, 10437 Berlin, Deutschland;www.der-sache-wegen.de;52.544255;13.417907
1098;Zollstock Unverpackt;storeNoMember;Höninger Weg 177, 50969 Köln, Deutschland;;50.911756;6.941282
933;Wohlgefühl - plastikfrei & unverpackt;storeMember;Untere Breite Straße 23, 88212 Ravensburg, Deutschland;www.wohlgefuehl-unverpackt.de;47.782663;9.610277
1189;Frohnatur Kaufbeuren;storeMember;Kaiser-Max-Straße 38, 87600 Kaufbeuren, Deutschland;www.frohnatur-kaufbeuren.de;47.879412;10.619659
952;Freihandel;storeMember;Rathausmarkt 2, 24340 Eckernförde, Deutschland;www.frei-handel.de;54.471096;9.836446
916;glücklich unverpackt;storeMember;Rosastraße 38, 45130 Essen, Deutschland;www.gluecklich-unverpackt.de;51.436638;7.009953
854;PEACEFOOD CHEMNITZ;storeMember;Uhlandstraße 30, 09130 Chemnitz, Deutschland;www.peacefood-chemnitz.de;50.839093;12.936838
853;SelFair;storeNoMember;Vor Dem Steintor 189, 28203 Bremen, Deutschland;;53.07057;8.833098
887;Unverpackt Würzburg;storeMember;Sanderstraße 5, 97070 Würzburg, Deutschland;www.wuerzburg-unverpackt.de;49.789403;9.930551
993;ONKEL EMMA;storeMember;Reetwerder 8, 21029 Hamburg, Deutschland;www.onkelemma-unverpackt.de;53.490737;10.209662
883;Füllwerk;storeNoMember;Mühlenstraße 27, 86842 Türkheim, Deutschland;;48.051967;10.643355
944;Krämerladen Wermelskirchen;storeMember;Kölner Straße 46, 42929 Wermelskirchen, Deutschland;www.kraemerladen.bio;51.139236;7.213787
898;Wunderbar Unverpackt - Göttingen;storeNoMember;Groner-Tor-Straße 22, 37073 Göttingen, Deutschland;;51.532435;9.929847
863;UNVERPACKT;storeMember;Bahnhofplatz 8, 76137 Karlsruhe, Deutschland;www.unverpackt.de;48.994689;8.399602
1041;GenussKontor-Unverpackt;mobileMember;Zissener Straße 2, 53498 Gönnersdorf, Deutschland;www.genusskontor-unverpackt.de;50.48087;7.264238
1036;Einfach Lose;storeMember;Hauptstraße 154, 53842 Troisdorf, Deutschland;www.einfach-lose.de;50.827657;7.119644
930;natürlich unverpackt;storeMember;Warendorfer Straße 63, 48145 Münster, Deutschland;www.natuerlich-unverpackt.de;51.962567;7.644639
1002;Hülle & Fülle;storeMember;Graf-Arnold-Platz, 48565, Steinfurt, Nordrhein-Westfalen, Deutschland;www.huelle-und-fuelle.com;52.148703;7.339
890;unverpackt & bioWein;storeMember;Norderstraße 25, 25813 Husum, Deutschland;www.unverpackt-husum.de;54.4780601;9.0545579
862;nurINpur;storeMember;Am Pulverl 13, 85051 Ingolstadt, Deutschland;www.nurinpur.de;48.743861;11.430447
889;Unverpackt Lübeck;storeMember;Fleischhauerstraße 40, 23552 Lübeck, Deutschland;www.unverpackt-luebeck.de;53.866583;10.688985
939;Bink Brinker GbR Glückswinkel;storeMember;Bürgermeister-Smidt-Straße 194, 27568 Bremerhaven, Deutschland;www.deinglueckswinkel.de;53.552764;8.571098
989;Straelend Unverpackt (in Planung);plannedNoMember;47638, Straelen, Nordrhein-Westfalen, Deutschland;;51.38;6.22
987;Tante Pati;storeNoMember;47441, Moers, Nordrhein-Westfalen, Deutschland;;51.45;6.64
1082;Unverpackt Wesel (in Planung);plannedNoMember;46483, Wesel, Nordrhein-Westfalen, Deutschland;;51.66;6.62
1206;weil.unverpackt;storeMember;Hauptstraße 116, 79576 Weil am Rhein, Deutschland;www.weil-unverpackt.de;47.594164;7.631908
1103;unverpackt berlin;storeMember;Bölschestraße 120, 12587 Berlin, Deutschland;www.unverpackt-berlin.com;52.449385;13.624241
1039;Frau Lose UG (haftungsbeschränkt);storeNoMember;44137, Dortmund, Nordrhein-Westfalen, Deutschland;;51.51;7.46
877;maßVoll - einkaufen unverpackt;storeNoMember;Zeppelinstraße 1, 14471 Potsdam, Deutschland;;52.398807;13.046415
845;Bio - Provinz;storeNoMember;Herforder Straße 28, 32545 Bad Oeynhausen, Deutschland;;52.201666;8.788376
865;Unverpackt Konstanz;storeMember;Mosbruggerstrasse 16, 78467 Konstanz;www.unverpacktkonstanz.de;47.6637166;9.1667876
856;Pur - Loses und Feines;storeNoMember;Saarlandstraße 118, 44139 Dortmund, Deutschland;;51.5044754;7.460447899999997
931;ZeroHero - Nürnberg;storeMember;Obere Kanalstraße 11a, 90429 Nürnberg, Deutschland;www.zerohero-nuernberg.de;49.448448;11.054881
905;Tante Olga - Sülz;storeMember;Berrenrather Str. 406, Köln;www.tante-olga.de;50.912;6.91859
1501;Unverpackt Marne (in Planung);plannedMember;Marne, Schleswig-Holstein, Deutschland;;53.95;9.0
906;Original Unverpackt ;storeMember;Wiener Straße 16, 10999 Berlin, Deutschland;www.original-unverpackt.de;52.497794;13.430107
918;Glaskiste - natürlich unverpackt GmbH;storeMember;Moltkestraße 15, 79098 Freiburg im Breisgau, Deutschland;www.glaskiste-unverpackt.de;47.994796;7.843257
885;BIO-unverpackt Meudt UG (haftungsbeschränkt);storeMember;Dotzheimer Straße 19, 65185 Wiesbaden, Deutschland;www.bio-unverpackt.com;50.078815;8.233951
1094;binnes unverpackt;storeMember;Dornblüthstraße 7, 01277 Dresden, Deutschland;www.binnesunverpackt.de;51.046248;13.802054
891;unverpackt - lose, nachhaltig, gut;storeMember;Jörg-Ratgeb-Straße 23, 75173 Pforzheim, Deutschland;www.unverpackt-pforzheim.de;48.889534;8.697144
874;Ohne Umweg;storeNoMember;Schäfflesmarkt 1, 86720 Nördlingen, Deutschland;;48.850296;10.489654
894;L' Epicerie Bio Unverpackt;storeNoMember;Rückertstraße 1, 28199 Bremen, Deutschland;;53.07106;8.799569
